{"type": "FeatureCollection", "features": [{"type": "Feature", "geometry": {"type": "LineString", "coordinates": [[-117.379, 33.194], [-117.38056, 33.19327], [-117.37923, 33.19168], [-117.37811, 33.19035], [-117.37689, 33.18892], [-117.37552, 33.18728], [-117.37453, 33.18611], [-117.37358, 33.18498], [-117.37251, 33.18372], [-117.37143, 33.18242], [-117.37043, 33.18125], [-117.36896, 33.17951], [-117.36778, 33.17809], [-117.3649, 33.17468], [-117.36372, 33.17329], [-117.36262, 33.17208], [-117.36154, 33.171], [-117.36046, 33.16996], [-117.35925, 33.16881], [-117.35743, 33.16707], [-117.35454, 33.16433], [-117.3533, 33.16313], [-117.35207, 33.16195], [-117.35096, 33.16085], [-117.35, 33.16], [-117.34851, 33.15808], [-117.34708, 33.15634], [-117.34539, 33.15428], [-117.34423, 33.15287], [-117.34289, 33.15123], [-117.34169, 33.14977], [-117.34055, 33.14839], [-117.33971, 33.14736], [-117.33881, 33.14621], [-117.33774, 33.14474], [-117.33687, 33.14343], [-117.33597, 33.14196], [-117.33467, 33.13956], [-117.33379, 33.13783], [-117.33196, 33.13421], [-117.33091, 33.13214], [-117.33014, 33.13062], [-117.32924, 33.12884], [-117.32594, 33.12236], [-117.32458, 33.11966], [-117.32335, 33.11724], [-117.32247, 33.1155], [-117.32159, 33.11377], [-117.32015, 33.11078], [-117.31936, 33.10912], [-117.31814, 33.10654], [-117.31617, 33.10238], [-117.31378, 33.09715], [-117.31301, 33.09546], [-117.31208, 33.09343], [-117.31143, 33.09201], [-117.31092, 33.09093], [-117.31032, 33.08948], [-117.30992, 33.08837], [-117.30841, 33.08384], [-117.30753, 33.08119], [-117.30624, 33.07733], [-117.30498, 33.07351], [-117.30367, 33.06958], [-117.30197, 33.06447], [-117.30119, 33.0622], [-117.30057, 33.06087], [-117.29989, 33.05973], [-117.29856, 33.05766], [-117.29652, 33.05448], [-117.29496, 33.05206], [-117.29433, 33.051], [-117.29375, 33.04972], [-117.29343, 33.0486], [-117.2932, 33.04721], [-117.29305, 33.04606], [-117.29289, 33.04492], [-117.29264, 33.04331], [-117.29223, 33.04041], [-117.29198, 33.03861], [-117.29182, 33.03749], [-117.29153, 33.03618], [-117.29109, 33.03495], [-117.29056, 33.03384], [-117.28959, 33.03197], [-117.28802, 33.02895], [-117.28698, 33.02719], [-117.28617, 33.02592], [-117.28524, 33.02448], [-117.28409, 33.02267], [-117.28253, 33.02025], [-117.28193, 33.01924], [-117.2803, 33.01634], [-117.27917, 33.01446], [-117.27847, 33.01323], [-117.27799, 33.0122], [-117.2776, 33.01115], [-117.27652, 33.00731], [-117.2758, 33.00464], [-117.27497, 33.00157], [-117.27452, 33.00028], [-117.27359, 32.99834], [-117.27267, 32.99644], [-117.27208, 32.99494], [-117.27175, 32.99381], [-117.27137, 32.99223], [-117.271, 32.991], [-117.27136, 32.99219], [-117.27042, 32.98823], [-117.27006, 32.98675], [-117.26844, 32.98007], [-117.2679, 32.97788], [-117.26754, 32.97645], [-117.26729, 32.97529], [-117.26661, 32.97247], [-117.2662, 32.97079], [-117.26585, 32.96934], [-117.26555, 32.96796], [-117.26548, 32.96666], [-117.26571, 32.96525], [-117.26655, 32.96297], [-117.26741, 32.96068], [-117.26782, 32.95948], [-117.26779, 32.95809], [-117.26747, 32.9568], [-117.26707, 32.95521], [-117.26671, 32.95404], [-117.2659, 32.95206], [-117.26542, 32.95089], [-117.26478, 32.94936], [-117.26407, 32.94765], [-117.26353, 32.9463], [-117.26317, 32.94516], [-117.26271, 32.94349], [-117.26239, 32.94232], [-117.26173, 32.93982], [-117.26121, 32.93852], [-117.26014, 32.93721], [-117.25844, 32.93546], [-117.25752, 32.93452], [-117.25645, 32.93342], [-117.249, 32.92579], [-117.24765, 32.92461], [-117.24497, 32.92247], [-117.24403, 32.92172], [-117.2395, 32.91809], [-117.23855, 32.91723], [-117.23767, 32.91633], [-117.23675, 32.91536], [-117.2345, 32.91293], [-117.23092, 32.90898], [-117.22967, 32.90761], [-117.22839, 32.90627], [-117.22702, 32.90482], [-117.22604, 32.90373], [-117.22499, 32.90262], [-117.2236, 32.90118], [-117.22213, 32.89967], [-117.22101, 32.89844], [-117.21966, 32.89704], [-117.2185, 32.89584], [-117.21747, 32.89477], [-117.21618, 32.89342], [-117.21529, 32.8925], [-117.234, 32.8801], [-117.21529, 32.8925], [-117.2143, 32.89148], [-117.21323, 32.89037], [-117.21199, 32.88935], [-117.21076, 32.88855], [-117.20956, 32.88782], [-117.20809, 32.88725], [-117.20675, 32.88711], [-117.2039, 32.8872], [-117.20241, 32.88744], [-117.20113, 32.88795], [-117.19975, 32.8883], [-117.19837, 32.88848], [-117.19705, 32.88875], [-117.19577, 32.88924], [-117.19437, 32.88923], [-117.19325, 32.88841], [-117.19262, 32.88708], [-117.19145, 32.88622], [-117.18733, 32.88619], [-117.18581, 32.88574], [-117.18475, 32.88483], [-117.1824, 32.884], [-117.18089, 32.88398], [-117.17949, 32.88421], [-117.17765, 32.88356], [-117.17584, 32.8824], [-117.17493, 32.88144], [-117.17425, 32.87959], [-117.17435, 32.87819], [-117.17459, 32.87693], [-117.17487, 32.87585], [-117.17548, 32.87426], [-117.17607, 32.87318], [-117.17685, 32.87228], [-117.17811, 32.87139], [-117.18243, 32.86915], [-117.18364, 32.86848], [-117.1893, 32.86487], [-117.1907, 32.86406], [-117.19229, 32.86347], [-117.19395, 32.86308], [-117.19601, 32.86265], [-117.19763, 32.86247], [-117.1993, 32.86254], [-117.20137, 32.86281], [-117.20366, 32.86313], [-117.20536, 32.86322], [-117.20691, 32.86307], [-117.20822, 32.86276], [-117.20978, 32.86218], [-117.21907, 32.8583], [-117.2209, 32.85753], [-117.22321, 32.85653], [-117.2285, 32.8543], [-117.22968, 32.85374], [-117.23079, 32.85303], [-117.23173, 32.85221], [-117.23251, 32.8513], [-117.23398, 32.84904], [-117.23462, 32.84801], [-117.23518, 32.84686], [-117.23553, 32.84574], [-117.23569, 32.84465], [-117.23568, 32.84348], [-117.23546, 32.84224], [-117.23508, 32.84114], [-117.23395, 32.83921], [-117.23323, 32.83811], [-117.2327, 32.83698], [-117.23218, 32.83497], [-117.23176, 32.83387], [-117.23113, 32.83287], [-117.23057, 32.83189], [-117.23043, 32.83065], [-117.23065, 32.82907], [-117.23077, 32.82787], [-117.23068, 32.82677], [-117.23036, 32.82552], [-117.22986, 32.82446], [-117.22915, 32.82342], [-117.22808, 32.82232], [-117.22613, 32.82058], [-117.22417, 32.81872], [-117.22308, 32.81772], [-117.22177, 32.81653], [-117.2208, 32.81566], [-117.21945, 32.81447], [-117.21861, 32.81364], [-117.21774, 32.81253], [-117.21709, 32.81138], [-117.21636, 32.80956], [-117.21582, 32.80841], [-117.21505, 32.80713], [-117.21395, 32.80534], [-117.21308, 32.80393], [-117.20916, 32.79753], [-117.20849, 32.79636], [-117.20793, 32.79519], [-117.20738, 32.79394], [-117.20684, 32.79268], [-117.20652, 32.79162], [-117.20632, 32.7904], [-117.20628, 32.7893], [-117.20641, 32.78803], [-117.20672, 32.78629], [-117.20693, 32.78512], [-117.20715, 32.78386], [-117.20743, 32.78226], [-117.20766, 32.78095], [-117.20795, 32.77932], [-117.20801, 32.77815], [-117.20786, 32.77699], [-117.20737, 32.77552], [-117.20674, 32.77381], [-117.20582, 32.77135], [-117.20539, 32.7702], [-117.20388, 32.7662], [-117.20343, 32.76499], [-117.20287, 32.76342], [-117.20169, 32.76032], [-117.2013, 32.75927], [-117.20088, 32.75819], [-117.20029, 32.75641], [-117.19984, 32.75525], [-117.19931, 32.75393], [-117.19, 32.7335], [-117.19017, 32.72925], [-117.18861, 32.72916], [-117.1872, 32.72906], [-117.18562, 32.72897], [-117.18433, 32.7287], [-117.1829, 32.72823], [-117.18154, 32.72777], [-117.18017, 32.72762], [-117.17849, 32.72778], [-117.17694, 32.72769], [-117.17564, 32.72729], [-117.17445, 32.72653], [-117.17365, 32.72561], [-117.17315, 32.72448], [-117.17303, 32.723], [-117.17304, 32.72186], [-117.17303, 32.72062], [-117.17308, 32.71951], [-117.17298, 32.71837], [-117.17294, 32.71706], [-117.173, 32.71592], [-117.17131, 32.71564], [-117.16996, 32.71564], [-117.1696, 32.7157]]}, "properties": {"ftype": "line", "id": "rx-sd-coastal", "name": "RX SD Coastal (Oceanside\u2013San Diego)", "tier": 2, "headway": "10 min"}}, {"type": "Feature", "geometry": {"type": "LineString", "coordinates": [[-117.1696, 32.7157], [-117.17002, 32.71678], [-117.17001, 32.71844], [-117.17005, 32.71971], [-117.17005, 32.72082], [-117.17005, 32.72192], [-117.17019, 32.72322], [-117.17047, 32.72433], [-117.17089, 32.72543], [-117.17278, 32.72976], [-117.17335, 32.73107], [-117.17384, 32.73213], [-117.17452, 32.73311], [-117.17746, 32.73644], [-117.17867, 32.73779], [-117.17962, 32.73867], [-117.18081, 32.73952], [-117.18196, 32.74024], [-117.18372, 32.74118], [-117.18695, 32.74288], [-117.1883, 32.7436], [-117.18999, 32.74449], [-117.19111, 32.74508], [-117.19231, 32.74572], [-117.19348, 32.7465], [-117.19455, 32.74752], [-117.19629, 32.74952], [-117.19745, 32.75085], [-117.19825, 32.75183], [-117.19897, 32.7531], [-117.19964, 32.75474], [-117.20029, 32.75641], [-117.20068, 32.75761], [-117.20112, 32.75882], [-117.20159, 32.76005], [-117.20259, 32.76273], [-117.20343, 32.76499], [-117.20388, 32.7662], [-117.20506, 32.76933], [-117.2057, 32.77104], [-117.20674, 32.77381], [-117.20737, 32.77552], [-117.20778, 32.77669], [-117.208, 32.77783], [-117.20798, 32.779], [-117.20779, 32.78023], [-117.2075, 32.78185], [-117.20715, 32.78386], [-117.20693, 32.78512], [-117.20672, 32.78629], [-117.20647, 32.78768], [-117.20631, 32.7889], [-117.20629, 32.79009], [-117.20645, 32.79128], [-117.20684, 32.79268], [-117.20738, 32.79394], [-117.20793, 32.79519], [-117.20849, 32.79636], [-117.20916, 32.79753], [-117.21258, 32.8031], [-117.21336, 32.80439], [-117.21483, 32.80679], [-117.21553, 32.8079], [-117.21608, 32.80891], [-117.21683, 32.81077], [-117.21737, 32.81193], [-117.21803, 32.81295], [-117.2189, 32.81396], [-117.2208, 32.81566], [-117.22177, 32.81653], [-117.22308, 32.81772], [-117.22417, 32.81872], [-117.22551, 32.82], [-117.22763, 32.82192], [-117.22862, 32.82284], [-117.22949, 32.82387], [-117.23008, 32.82487], [-117.23049, 32.82593], [-117.23074, 32.82716], [-117.23073, 32.82844], [-117.23055, 32.82967], [-117.23042, 32.83085], [-117.23062, 32.83201], [-117.23126, 32.83306], [-117.23188, 32.83411], [-117.23259, 32.83659], [-117.23297, 32.83766], [-117.23371, 32.83884], [-117.23459, 32.84021], [-117.23516, 32.84133], [-117.2355, 32.84241], [-117.23569, 32.84362], [-117.23567, 32.84483], [-117.23546, 32.84601], [-117.23504, 32.8472], [-117.23448, 32.84826], [-117.23298, 32.8506], [-117.2323, 32.85157], [-117.23149, 32.85244], [-117.23056, 32.85319], [-117.22949, 32.85384], [-117.22338, 32.85645], [-117.22165, 32.85722], [-117.21907, 32.8583], [-117.2109, 32.86172], [-117.20919, 32.86243], [-117.20769, 32.86291], [-117.20587, 32.86319], [-117.20441, 32.86321], [-117.20137, 32.86281], [-117.1993, 32.86254], [-117.19763, 32.86247], [-117.19601, 32.86265], [-117.19442, 32.86298], [-117.19285, 32.86332], [-117.19149, 32.86373], [-117.19035, 32.86425], [-117.18422, 32.86813], [-117.18259, 32.86906], [-117.17841, 32.87119], [-117.1772, 32.87194], [-117.17611, 32.87305], [-117.17531, 32.8744], [-117.17442, 32.87534], [-117.17296, 32.87556], [-117.17164, 32.87576], [-117.17069, 32.87674], [-117.16977, 32.87751], [-117.16853, 32.87785], [-117.16711, 32.87818], [-117.16601, 32.87913], [-117.16495, 32.88001], [-117.16436, 32.88106], [-117.16453, 32.8827], [-117.16408, 32.88384], [-117.1627, 32.88425], [-117.16127, 32.88394], [-117.15953, 32.88392], [-117.15741, 32.88388], [-117.15604, 32.88397], [-117.15456, 32.88479], [-117.15329, 32.88552], [-117.1522, 32.88616], [-117.15086, 32.88693], [-117.14916, 32.88775], [-117.14, 32.89], [-117.14062, 32.89114], [-117.13914, 32.89198], [-117.13805, 32.8926], [-117.13664, 32.89336], [-117.13541, 32.89371], [-117.13378, 32.89377], [-117.13246, 32.89378], [-117.131, 32.8938], [-117.12953, 32.89381], [-117.12765, 32.89383], [-117.12599, 32.89384], [-117.12464, 32.89385], [-117.1233, 32.89385], [-117.12129, 32.89388], [-117.11994, 32.8939], [-117.11858, 32.89387], [-117.11734, 32.89348], [-117.11704, 32.89457], [-117.11656, 32.89588], [-117.11654, 32.89708], [-117.11668, 32.8987], [-117.11671, 32.90064], [-117.11671, 32.90309], [-117.1167, 32.90654], [-117.11671, 32.90805], [-117.11677, 32.91032], [-117.11678, 32.91195], [-117.11674, 32.91307], [-117.11654, 32.91568], [-117.11638, 32.91688], [-117.11606, 32.91931], [-117.11584, 32.92063], [-117.11568, 32.92179], [-117.1153, 32.92363], [-117.11504, 32.92486], [-117.11471, 32.92626], [-117.11427, 32.92787], [-117.11382, 32.92933], [-117.11348, 32.93052], [-117.11306, 32.93192], [-117.1125, 32.93387], [-117.11169, 32.93643], [-117.11072, 32.93967], [-117.11013, 32.94148], [-117.1097, 32.94256], [-117.10914, 32.9438], [-117.10851, 32.94496], [-117.1061, 32.94853], [-117.10445, 32.95087], [-117.10357, 32.95224], [-117.10192, 32.95468], [-117.10102, 32.95654], [-117.10013, 32.95819], [-117.09918, 32.95954], [-117.09821, 32.96076], [-117.09753, 32.96186], [-117.09683, 32.96293], [-117.0957, 32.96467], [-117.09507, 32.96565], [-117.09361, 32.96798], [-117.09281, 32.96925], [-117.09216, 32.97028], [-117.09124, 32.97173], [-117.08992, 32.97373], [-117.08824, 32.97642], [-117.08458, 32.98222], [-117.08387, 32.98348], [-117.08342, 32.98462], [-117.08315, 32.98581], [-117.083, 32.98705], [-117.08307, 32.98853], [-117.08349, 32.99054], [-117.08381, 32.99205], [-117.08396, 32.99327], [-117.08399, 32.99473], [-117.08375, 32.99671], [-117.08336, 32.99833], [-117.08226, 33.00173], [-117.08182, 33.00285], [-117.08136, 33.00435], [-117.08097, 33.0061], [-117.08073, 33.00759], [-117.08055, 33.00925], [-117.08041, 33.01051], [-117.08026, 33.01178], [-117.07989, 33.01526], [-117.07968, 33.01731], [-117.07942, 33.01958], [-117.07915, 33.02156], [-117.07909, 33.0229], [-117.07903, 33.0256], [-117.07902, 33.02721], [-117.07901, 33.02836], [-117.07886, 33.03024], [-117.07852, 33.03161], [-117.07797, 33.03328], [-117.07744, 33.03456], [-117.07698, 33.03566], [-117.07639, 33.03712], [-117.07431, 33.04205], [-117.07386, 33.04323], [-117.07344, 33.04443], [-117.07315, 33.04575], [-117.07305, 33.04702], [-117.07315, 33.04878], [-117.07317, 33.05005], [-117.07304, 33.05166], [-117.0727, 33.05332], [-117.07233, 33.05443], [-117.07189, 33.05553], [-117.07115, 33.05703], [-117.0706, 33.0582], [-117.07003, 33.05961], [-117.06965, 33.06097], [-117.06936, 33.06248], [-117.0692, 33.06376], [-117.06917, 33.06538], [-117.06941, 33.0671], [-117.06974, 33.06929], [-117.07004, 33.07149], [-117.07021, 33.07277], [-117.07038, 33.07396], [-117.07058, 33.07516], [-117.071, 33.07653], [-117.07146, 33.07783], [-117.07147, 33.07964], [-117.07129, 33.08133], [-117.07117, 33.08265], [-117.07123, 33.08378], [-117.07158, 33.08533], [-117.07189, 33.08661], [-117.07257, 33.08966], [-117.07266, 33.09112], [-117.0721, 33.09372], [-117.07177, 33.09506], [-117.07159, 33.09633], [-117.07166, 33.09772], [-117.07339, 33.10043], [-117.07407, 33.1014], [-117.07488, 33.10251], [-117.07557, 33.10347], [-117.07625, 33.10444], [-117.07769, 33.1065], [-117.07855, 33.10769], [-117.08078, 33.11084], [-117.08147, 33.11178], [-117.08217, 33.11281], [-117.08342, 33.11458], [-117.08412, 33.11559], [-117.08533, 33.11728], [-117.08601, 33.11827], [-117.0864, 33.1192]]}, "properties": {"ftype": "line", "id": "rx-sd-inland", "name": "RX SD Inland (San Diego\u2013Escondido)", "tier": 2, "headway": "10 min"}}, {"type": "Feature", "geometry": {"type": "LineString", "coordinates": [[-117.1696, 32.7157], [-117.17001, 32.71459], [-117.16974, 32.7135], [-117.16916, 32.71237], [-117.16821, 32.71141], [-117.16646, 32.71039], [-117.16505, 32.70962], [-117.16331, 32.70871], [-117.16199, 32.708], [-117.16052, 32.70713], [-117.1594, 32.70656], [-117.15812, 32.70584], [-117.15703, 32.70521], [-117.15602, 32.70444], [-117.15497, 32.70376], [-117.1527, 32.70218], [-117.15171, 32.70143], [-117.15059, 32.70072], [-117.14893, 32.69957], [-117.14777, 32.69884], [-117.14887, 32.69963], [-117.15053, 32.70078], [-117.15239, 32.70216], [-117.15316, 32.70304], [-117.15299, 32.70412], [-117.15265, 32.70518], [-117.14956, 32.70521], [-117.14803, 32.70521], [-117.14668, 32.70522], [-117.14487, 32.70522], [-117.14242, 32.70523], [-117.1407, 32.70523], [-117.139, 32.70529], [-117.1369, 32.7053], [-117.13547, 32.70531], [-117.13398, 32.70532], [-117.13209, 32.70533], [-117.12953, 32.70535], [-117.12739, 32.70533], [-117.12567, 32.70534], [-117.12449, 32.70587], [-117.12417, 32.707], [-117.12404, 32.70808], [-117.12316, 32.70895], [-117.12188, 32.70891], [-117.12082, 32.70742], [-117.12, 32.70657], [-117.1174, 32.70637], [-117.11589, 32.70634], [-117.1145, 32.70652], [-117.11329, 32.70698], [-117.11071, 32.70851], [-117.10952, 32.70902], [-117.10562, 32.70928], [-117.10426, 32.70921], [-117.10225, 32.70847], [-117.1005, 32.7078], [-117.09915, 32.70749], [-117.09772, 32.70754], [-117.09584, 32.70811], [-117.09446, 32.70856], [-117.0916, 32.70935], [-117.09034, 32.70955], [-117.08786, 32.70954], [-117.08534, 32.70952], [-117.08165, 32.70948], [-117.07966, 32.70945], [-117.07162, 32.70936], [-117.06992, 32.70936], [-117.06857, 32.70943], [-117.06468, 32.70989], [-117.06273, 32.71015], [-117.06134, 32.7103], [-117.05838, 32.71066], [-117.05572, 32.71098], [-117.05356, 32.71125], [-117.05147, 32.71151], [-117.05014, 32.71185], [-117.04905, 32.71246], [-117.04814, 32.71336], [-117.04521, 32.71679], [-117.04302, 32.71941], [-117.03929, 32.72383], [-117.03823, 32.72508], [-117.03731, 32.72616], [-117.03659, 32.72715], [-117.03601, 32.7283], [-117.03557, 32.72935], [-117.035, 32.73044], [-117.03399, 32.73192], [-117.03274, 32.73376], [-117.03212, 32.73472], [-117.03151, 32.73577], [-117.03113, 32.73688], [-117.03096, 32.73902], [-117.03078, 32.74248], [-117.03062, 32.74367], [-117.03016, 32.74475], [-117.02932, 32.74564], [-117.02756, 32.74678], [-117.02651, 32.74744], [-117.02523, 32.74778], [-117.02396, 32.74794], [-117.02271, 32.74855], [-117.0217, 32.74934], [-117.02001, 32.75025], [-117.01882, 32.75083], [-117.01726, 32.75196], [-117.01658, 32.75288], [-117.01631, 32.75404], [-117.01671, 32.7551], [-117.01744, 32.75601], [-117.01723, 32.75718], [-117.01679, 32.75824], [-117.01737, 32.7595], [-117.01879, 32.76202], [-117.01974, 32.76365], [-117.02051, 32.76501], [-117.0211, 32.76603], [-117.02172, 32.76712], [-117.023, 32.768], [-117.02306, 32.76944], [-117.02379, 32.77074], [-117.0244, 32.7718], [-117.0244, 32.77291], [-117.02081, 32.77509], [-117.01923, 32.77596], [-117.01803, 32.77669], [-117.01701, 32.77738], [-117.01514, 32.77878], [-117.01354, 32.77999], [-117.01238, 32.78086], [-117.0112, 32.7817], [-117.01009, 32.78229], [-117.00651, 32.78363], [-117.0045, 32.78436], [-117.0033, 32.78481], [-117.00211, 32.78526], [-117.00082, 32.78558], [-116.99942, 32.78556], [-116.99782, 32.78527], [-116.99638, 32.785], [-116.99505, 32.78468], [-116.99375, 32.78397], [-116.99285, 32.783], [-116.99215, 32.78198], [-116.99104, 32.78103], [-116.98983, 32.7802], [-116.98864, 32.77959], [-116.9872, 32.77937], [-116.98592, 32.77943], [-116.98468, 32.78047], [-116.98381, 32.78136], [-116.98271, 32.78204], [-116.98153, 32.78248], [-116.98035, 32.78296], [-116.97918, 32.78401], [-116.97748, 32.78592], [-116.97674, 32.78692], [-116.97625, 32.78814], [-116.97612, 32.78933], [-116.97613, 32.79108], [-116.97616, 32.79238], [-116.962, 32.795]]}, "properties": {"ftype": "line", "id": "rx-sd-east", "name": "RX SD East (San Diego\u2013El Cajon)", "tier": 2, "headway": "10 min"}}, {"type": "Feature", "geometry": {"type": "LineString", "coordinates": [[-117.1696, 32.7157], [-117.17001, 32.71459], [-117.16974, 32.7135], [-117.16916, 32.71237], [-117.16821, 32.71141], [-117.16646, 32.71039], [-117.16505, 32.70962], [-117.16331, 32.70871], [-117.16199, 32.708], [-117.16052, 32.70713], [-117.1594, 32.70656], [-117.15812, 32.70584], [-117.15703, 32.70521], [-117.15602, 32.70444], [-117.15497, 32.70376], [-117.1527, 32.70218], [-117.15171, 32.70143], [-117.15059, 32.70072], [-117.14893, 32.69957], [-117.14777, 32.69884], [-117.14628, 32.69783], [-117.14318, 32.69568], [-117.1419, 32.69483], [-117.13979, 32.69338], [-117.13869, 32.69272], [-117.13749, 32.69229], [-117.13577, 32.69198], [-117.13442, 32.69176], [-117.13292, 32.69132], [-117.13154, 32.69069], [-117.13031, 32.6899], [-117.1292, 32.68913], [-117.12773, 32.6881], [-117.12664, 32.68734], [-117.12551, 32.68657], [-117.11607, 32.68003], [-117.11507, 32.67915], [-117.11432, 32.67804], [-117.11381, 32.67679], [-117.11321, 32.67525], [-117.11278, 32.67415], [-117.11235, 32.67305], [-117.11113, 32.66998], [-117.11059, 32.66851], [-117.11009, 32.66724], [-117.10949, 32.66569], [-117.10817, 32.6623], [-117.10742, 32.66039], [-117.10622, 32.65733], [-117.10581, 32.65629], [-117.1052, 32.65516], [-117.10427, 32.65422], [-117.10325, 32.65319], [-117.10265, 32.65219], [-117.10216, 32.65089], [-117.10158, 32.64949], [-117.10124, 32.64836], [-117.10103, 32.64713], [-117.10084, 32.64591], [-117.1005, 32.64323], [-117.1002, 32.642], [-117.09935, 32.6398], [-117.09845, 32.6375], [-117.09803, 32.63642], [-117.084, 32.64], [-117.09796, 32.63624], [-117.09725, 32.63441], [-117.09573, 32.63052], [-117.09528, 32.62939], [-117.09261, 32.62254], [-117.09033, 32.6167], [-117.08991, 32.61564], [-117.08855, 32.6121], [-117.08718, 32.60863], [-117.08543, 32.60416], [-117.08484, 32.60264], [-117.08442, 32.60151], [-117.08413, 32.60028], [-117.08393, 32.59914], [-117.0838, 32.59512], [-117.08376, 32.5909], [-117.08375, 32.58963], [-117.08379, 32.58504], [-117.08379, 32.58393], [-117.08374, 32.58265], [-117.08341, 32.58141], [-117.08278, 32.58021], [-117.08175, 32.57905], [-117.08053, 32.57814], [-117.07876, 32.57704], [-117.07757, 32.5763], [-117.07544, 32.57494], [-117.07182, 32.57265], [-117.07064, 32.57191], [-117.06751, 32.56993], [-117.06623, 32.56912], [-117.06433, 32.56793], [-117.06248, 32.56676], [-117.05383, 32.56129], [-117.0522, 32.56031], [-117.0504, 32.55938], [-117.04745, 32.55784], [-117.0461, 32.55713], [-117.0446, 32.55635], [-117.04255, 32.55526], [-117.04122, 32.55456], [-117.043, 32.552]]}, "properties": {"ftype": "line", "id": "rx-border", "name": "RX Border (San Diego\u2013San Ysidro)", "tier": 2, "headway": "10 min"}}, {"type": "Feature", "geometry": {"type": "Point", "coordinates": [-117.379, 33.194]}, "properties": {"ftype": "station", "id": "oceanside", "name": "Oceanside", "tier": 2, "lines": ["RX SD Coastal (Oceanside\u2013San Diego)"]}}, {"type": "Feature", "geometry": {"type": "Point", "coordinates": [-117.35, 33.16]}, "properties": {"ftype": "station", "id": "carlsbad", "name": "Carlsbad", "tier": 2, "lines": ["RX SD Coastal (Oceanside\u2013San Diego)"]}}, {"type": "Feature", "geometry": {"type": "Point", "coordinates": [-117.292, 33.045]}, "properties": {"ftype": "station", "id": "encinitas", "name": "Encinitas", "tier": 2, "lines": ["RX SD Coastal (Oceanside\u2013San Diego)"]}}, {"type": "Feature", "geometry": {"type": "Point", "coordinates": [-117.271, 32.991]}, "properties": {"ftype": "station", "id": "solana-beach", "name": "Solana Beach", "tier": 2, "lines": ["RX SD Coastal (Oceanside\u2013San Diego)"]}}, {"type": "Feature", "geometry": {"type": "Point", "coordinates": [-117.234, 32.8801]}, "properties": {"ftype": "station", "id": "ucsd", "name": "UCSD/La Jolla", "tier": 2, "lines": ["RX SD Coastal (Oceanside\u2013San Diego)"]}}, {"type": "Feature", "geometry": {"type": "Point", "coordinates": [-117.199, 32.754]}, "properties": {"ftype": "station", "id": "old-town", "name": "Old Town", "tier": 2, "lines": ["RX SD Coastal (Oceanside\u2013San Diego)"]}}, {"type": "Feature", "geometry": {"type": "Point", "coordinates": [-117.1696, 32.7157]}, "properties": {"ftype": "station", "id": "san-diego", "name": "San Diego Santa Fe", "tier": 2, "lines": ["RX SD Coastal (Oceanside\u2013San Diego)", "RX SD Inland (San Diego\u2013Escondido)", "RX SD East (San Diego\u2013El Cajon)", "RX Border (San Diego\u2013San Ysidro)"]}}, {"type": "Feature", "geometry": {"type": "Point", "coordinates": [-117.14, 32.89]}, "properties": {"ftype": "station", "id": "miramar", "name": "Miramar", "tier": 2, "lines": ["RX SD Inland (San Diego\u2013Escondido)"]}}, {"type": "Feature", "geometry": {"type": "Point", "coordinates": [-117.08, 33.02]}, "properties": {"ftype": "station", "id": "rancho-bern", "name": "Rancho Bernardo", "tier": 2, "lines": ["RX SD Inland (San Diego\u2013Escondido)"]}}, {"type": "Feature", "geometry": {"type": "Point", "coordinates": [-117.0864, 33.1192]}, "properties": {"ftype": "station", "id": "escondido", "name": "Escondido", "tier": 2, "lines": ["RX SD Inland (San Diego\u2013Escondido)"]}}, {"type": "Feature", "geometry": {"type": "Point", "coordinates": [-117.023, 32.768]}, "properties": {"ftype": "station", "id": "la-mesa", "name": "La Mesa", "tier": 2, "lines": ["RX SD East (San Diego\u2013El Cajon)"]}}, {"type": "Feature", "geometry": {"type": "Point", "coordinates": [-116.962, 32.795]}, "properties": {"ftype": "station", "id": "el-cajon", "name": "El Cajon", "tier": 2, "lines": ["RX SD East (San Diego\u2013El Cajon)"]}}, {"type": "Feature", "geometry": {"type": "Point", "coordinates": [-117.084, 32.64]}, "properties": {"ftype": "station", "id": "chula-vista", "name": "Chula Vista", "tier": 2, "lines": ["RX Border (San Diego\u2013San Ysidro)"]}}, {"type": "Feature", "geometry": {"type": "Point", "coordinates": [-117.043, 32.552]}, "properties": {"ftype": "station", "id": "san-ysidro", "name": "San Ysidro/Tijuana", "tier": 2, "lines": ["RX Border (San Diego\u2013San Ysidro)"]}}, {"type": "Feature", "geometry": {"type": "Point", "coordinates": [-117.19, 32.7335]}, "properties": {"ftype": "station", "id": "san-airport", "name": "San Diego Airport", "tier": 2, "lines": ["RX SD Coastal (Oceanside\u2013San Diego)"]}}]}
