{"type": "FeatureCollection", "features": [{"type": "Feature", "geometry": {"type": "LineString", "coordinates": [[-122.3927, 37.7897], [-122.389, 37.6155], [-122.3866, 37.6003], [-122.3255, 37.568], [-122.2281, 37.4852], [-122.1649, 37.4429], [-122.0768, 37.3944], [-121.936, 37.353], [-121.9026, 37.3297]]}, "properties": {"ftype": "line", "id": "rx-peninsula", "name": "RX Peninsula (SF\u2013San Jose)", "tier": 2, "headway": "10 min"}}, {"type": "Feature", "geometry": {"type": "LineString", "coordinates": [[-122.3533, 37.9369], [-122.2683, 37.8686], [-122.2712, 37.8027], [-122.212, 37.7126], [-122.1608, 37.7249], [-122.087, 37.6688], [-121.9886, 37.5574], [-121.8996, 37.4323], [-121.9026, 37.3297]]}, "properties": {"ftype": "line", "id": "rx-eastbay", "name": "RX East Bay (Richmond\u2013San Jose)", "tier": 2, "headway": "10 min"}}, {"type": "Feature", "geometry": {"type": "LineString", "coordinates": [[-122.2712, 37.8027], [-122.0652, 37.9101], [-122.03, 37.9779], [-121.889, 38.018], [-121.8058, 38.0049]]}, "properties": {"ftype": "line", "id": "rx-diablo", "name": "RX Diablo (Oakland\u2013Antioch)", "tier": 2, "headway": "10 min"}}, {"type": "Feature", "geometry": {"type": "LineString", "coordinates": [[-122.3927, 37.7897], [-122.5311, 37.9735], [-122.5697, 38.1074], [-122.6367, 38.2324], [-122.7011, 38.3396], [-122.7141, 38.4404]]}, "properties": {"ftype": "line", "id": "rx-northbay", "name": "RX North Bay (SF\u2013Santa Rosa)", "tier": 2, "headway": "15 min"}}, {"type": "Feature", "geometry": {"type": "LineString", "coordinates": [[-122.3927, 37.7897], [-122.2712, 37.8027], [-122.3533, 37.9369], [-122.2566, 38.1041], [-122.0402, 38.2494], [-121.7405, 38.5449], [-121.5006, 38.5847]]}, "properties": {"ftype": "line", "id": "rx-capitol", "name": "RX Capitol (SF\u2013Sacramento)", "tier": 2, "headway": "15 min"}}, {"type": "Feature", "geometry": {"type": "LineString", "coordinates": [[-122.2712, 37.8027], [-121.8996, 37.7017], [-121.768, 37.6819], [-121.4252, 37.7397], [-121.286, 37.953]]}, "properties": {"ftype": "line", "id": "rx-altamont", "name": "RX Altamont (Oakland\u2013Stockton)", "tier": 2, "headway": "15 min"}}, {"type": "Feature", "geometry": {"type": "LineString", "coordinates": [[-121.9026, 37.3297], [-121.6544, 37.1305], [-121.5683, 37.0058]]}, "properties": {"ftype": "line", "id": "rx-gilroy", "name": "RX Gilroy (San Jose\u2013Gilroy)", "tier": 2, "headway": "15 min"}}, {"type": "Feature", "geometry": {"type": "Point", "coordinates": [-122.3927, 37.7897]}, "properties": {"ftype": "station", "id": "sf-transbay", "name": "San Francisco Transbay", "tier": 2, "lines": ["RX Peninsula (SF\u2013San Jose)", "RX North Bay (SF\u2013Santa Rosa)", "RX Capitol (SF\u2013Sacramento)"]}}, {"type": "Feature", "geometry": {"type": "Point", "coordinates": [-122.3866, 37.6003]}, "properties": {"ftype": "station", "id": "millbrae", "name": "Millbrae", "tier": 2, "lines": ["RX Peninsula (SF\u2013San Jose)"]}}, {"type": "Feature", "geometry": {"type": "Point", "coordinates": [-122.3255, 37.568]}, "properties": {"ftype": "station", "id": "san-mateo", "name": "San Mateo", "tier": 2, "lines": ["RX Peninsula (SF\u2013San Jose)"]}}, {"type": "Feature", "geometry": {"type": "Point", "coordinates": [-122.2281, 37.4852]}, "properties": {"ftype": "station", "id": "redwood-city", "name": "Redwood City", "tier": 2, "lines": ["RX Peninsula (SF\u2013San Jose)"]}}, {"type": "Feature", "geometry": {"type": "Point", "coordinates": [-122.1649, 37.4429]}, "properties": {"ftype": "station", "id": "palo-alto", "name": "Palo Alto", "tier": 2, "lines": ["RX Peninsula (SF\u2013San Jose)"]}}, {"type": "Feature", "geometry": {"type": "Point", "coordinates": [-122.0768, 37.3944]}, "properties": {"ftype": "station", "id": "mountain-view", "name": "Mountain View", "tier": 2, "lines": ["RX Peninsula (SF\u2013San Jose)"]}}, {"type": "Feature", "geometry": {"type": "Point", "coordinates": [-121.936, 37.353]}, "properties": {"ftype": "station", "id": "santa-clara", "name": "Santa Clara", "tier": 2, "lines": ["RX Peninsula (SF\u2013San Jose)"]}}, {"type": "Feature", "geometry": {"type": "Point", "coordinates": [-121.9026, 37.3297]}, "properties": {"ftype": "station", "id": "san-jose", "name": "San Jose Diridon", "tier": 2, "lines": ["RX Peninsula (SF\u2013San Jose)", "RX East Bay (Richmond\u2013San Jose)", "RX Gilroy (San Jose\u2013Gilroy)"]}}, {"type": "Feature", "geometry": {"type": "Point", "coordinates": [-122.3533, 37.9369]}, "properties": {"ftype": "station", "id": "richmond", "name": "Richmond", "tier": 2, "lines": ["RX East Bay (Richmond\u2013San Jose)", "RX Capitol (SF\u2013Sacramento)"]}}, {"type": "Feature", "geometry": {"type": "Point", "coordinates": [-122.2683, 37.8686]}, "properties": {"ftype": "station", "id": "berkeley", "name": "Berkeley", "tier": 2, "lines": ["RX East Bay (Richmond\u2013San Jose)"]}}, {"type": "Feature", "geometry": {"type": "Point", "coordinates": [-122.2712, 37.8027]}, "properties": {"ftype": "station", "id": "oakland", "name": "Oakland Center", "tier": 2, "lines": ["RX East Bay (Richmond\u2013San Jose)", "RX Diablo (Oakland\u2013Antioch)", "RX Capitol (SF\u2013Sacramento)", "RX Altamont (Oakland\u2013Stockton)"]}}, {"type": "Feature", "geometry": {"type": "Point", "coordinates": [-122.1608, 37.7249]}, "properties": {"ftype": "station", "id": "san-leandro", "name": "San Leandro", "tier": 2, "lines": ["RX East Bay (Richmond\u2013San Jose)"]}}, {"type": "Feature", "geometry": {"type": "Point", "coordinates": [-122.087, 37.6688]}, "properties": {"ftype": "station", "id": "hayward", "name": "Hayward", "tier": 2, "lines": ["RX East Bay (Richmond\u2013San Jose)"]}}, {"type": "Feature", "geometry": {"type": "Point", "coordinates": [-121.9886, 37.5574]}, "properties": {"ftype": "station", "id": "fremont", "name": "Fremont", "tier": 2, "lines": ["RX East Bay (Richmond\u2013San Jose)"]}}, {"type": "Feature", "geometry": {"type": "Point", "coordinates": [-121.8996, 37.4323]}, "properties": {"ftype": "station", "id": "milpitas", "name": "Milpitas", "tier": 2, "lines": ["RX East Bay (Richmond\u2013San Jose)"]}}, {"type": "Feature", "geometry": {"type": "Point", "coordinates": [-122.0652, 37.9101]}, "properties": {"ftype": "station", "id": "walnut-creek", "name": "Walnut Creek", "tier": 2, "lines": ["RX Diablo (Oakland\u2013Antioch)"]}}, {"type": "Feature", "geometry": {"type": "Point", "coordinates": [-122.03, 37.9779]}, "properties": {"ftype": "station", "id": "concord", "name": "Concord", "tier": 2, "lines": ["RX Diablo (Oakland\u2013Antioch)"]}}, {"type": "Feature", "geometry": {"type": "Point", "coordinates": [-121.889, 38.018]}, "properties": {"ftype": "station", "id": "pittsburg", "name": "Pittsburg", "tier": 2, "lines": ["RX Diablo (Oakland\u2013Antioch)"]}}, {"type": "Feature", "geometry": {"type": "Point", "coordinates": [-121.8058, 38.0049]}, "properties": {"ftype": "station", "id": "antioch", "name": "Antioch", "tier": 2, "lines": ["RX Diablo (Oakland\u2013Antioch)"]}}, {"type": "Feature", "geometry": {"type": "Point", "coordinates": [-122.5311, 37.9735]}, "properties": {"ftype": "station", "id": "san-rafael", "name": "San Rafael", "tier": 2, "lines": ["RX North Bay (SF\u2013Santa Rosa)"]}}, {"type": "Feature", "geometry": {"type": "Point", "coordinates": [-122.5697, 38.1074]}, "properties": {"ftype": "station", "id": "novato", "name": "Novato", "tier": 2, "lines": ["RX North Bay (SF\u2013Santa Rosa)"]}}, {"type": "Feature", "geometry": {"type": "Point", "coordinates": [-122.6367, 38.2324]}, "properties": {"ftype": "station", "id": "petaluma", "name": "Petaluma", "tier": 2, "lines": ["RX North Bay (SF\u2013Santa Rosa)"]}}, {"type": "Feature", "geometry": {"type": "Point", "coordinates": [-122.7011, 38.3396]}, "properties": {"ftype": "station", "id": "rohnert-park", "name": "Rohnert Park", "tier": 2, "lines": ["RX North Bay (SF\u2013Santa Rosa)"]}}, {"type": "Feature", "geometry": {"type": "Point", "coordinates": [-122.7141, 38.4404]}, "properties": {"ftype": "station", "id": "santa-rosa", "name": "Santa Rosa", "tier": 2, "lines": ["RX North Bay (SF\u2013Santa Rosa)"]}}, {"type": "Feature", "geometry": {"type": "Point", "coordinates": [-122.2566, 38.1041]}, "properties": {"ftype": "station", "id": "vallejo", "name": "Vallejo", "tier": 2, "lines": ["RX Capitol (SF\u2013Sacramento)"]}}, {"type": "Feature", "geometry": {"type": "Point", "coordinates": [-122.0402, 38.2494]}, "properties": {"ftype": "station", "id": "fairfield", "name": "Fairfield", "tier": 2, "lines": ["RX Capitol (SF\u2013Sacramento)"]}}, {"type": "Feature", "geometry": {"type": "Point", "coordinates": [-121.7405, 38.5449]}, "properties": {"ftype": "station", "id": "davis", "name": "Davis", "tier": 2, "lines": ["RX Capitol (SF\u2013Sacramento)"]}}, {"type": "Feature", "geometry": {"type": "Point", "coordinates": [-121.5006, 38.5847]}, "properties": {"ftype": "station", "id": "sacramento", "name": "Sacramento Valley", "tier": 2, "lines": ["RX Capitol (SF\u2013Sacramento)"]}}, {"type": "Feature", "geometry": {"type": "Point", "coordinates": [-121.8996, 37.7017]}, "properties": {"ftype": "station", "id": "dublin", "name": "Dublin/Pleasanton", "tier": 2, "lines": ["RX Altamont (Oakland\u2013Stockton)"]}}, {"type": "Feature", "geometry": {"type": "Point", "coordinates": [-121.768, 37.6819]}, "properties": {"ftype": "station", "id": "livermore", "name": "Livermore", "tier": 2, "lines": ["RX Altamont (Oakland\u2013Stockton)"]}}, {"type": "Feature", "geometry": {"type": "Point", "coordinates": [-121.4252, 37.7397]}, "properties": {"ftype": "station", "id": "tracy", "name": "Tracy", "tier": 2, "lines": ["RX Altamont (Oakland\u2013Stockton)"]}}, {"type": "Feature", "geometry": {"type": "Point", "coordinates": [-121.286, 37.953]}, "properties": {"ftype": "station", "id": "stockton", "name": "Stockton", "tier": 2, "lines": ["RX Altamont (Oakland\u2013Stockton)"]}}, {"type": "Feature", "geometry": {"type": "Point", "coordinates": [-121.6544, 37.1305]}, "properties": {"ftype": "station", "id": "morgan-hill", "name": "Morgan Hill", "tier": 2, "lines": ["RX Gilroy (San Jose\u2013Gilroy)"]}}, {"type": "Feature", "geometry": {"type": "Point", "coordinates": [-121.5683, 37.0058]}, "properties": {"ftype": "station", "id": "gilroy", "name": "Gilroy", "tier": 2, "lines": ["RX Gilroy (San Jose\u2013Gilroy)"]}}, {"type": "Feature", "geometry": {"type": "Point", "coordinates": [-122.389, 37.6155]}, "properties": {"ftype": "station", "id": "sfo", "name": "SFO Airport", "tier": 2, "lines": ["RX Peninsula (SF\u2013San Jose)"]}}, {"type": "Feature", "geometry": {"type": "Point", "coordinates": [-122.212, 37.7126]}, "properties": {"ftype": "station", "id": "oak-airport", "name": "Oakland Airport", "tier": 2, "lines": ["RX East Bay (Richmond\u2013San Jose)"]}}]}
