{"type": "FeatureCollection", "features": [{"type": "Feature", "geometry": {"type": "LineString", "coordinates": [[-116.215, 33.72], [-115.9, 33.35], [-115.53, 32.98], [-115.563, 32.792], [-115.499, 32.679]]}, "properties": {"ftype": "line", "id": "rx-imperial", "name": "RX Imperial (Indio\u2013Calexico)", "tier": 2, "headway": "30 min"}}, {"type": "Feature", "geometry": {"type": "LineString", "coordinates": [[-120.483, 37.305], [-120.26, 37.41], [-120.033, 37.506], [-119.782, 37.675]]}, "properties": {"ftype": "line", "id": "rx-yosemite", "name": "RX Yosemite (Merced\u2013El Portal)", "tier": 2, "headway": "30 min"}}, {"type": "Feature", "geometry": {"type": "LineString", "coordinates": [[-119.292, 36.33], [-119.05, 36.4], [-118.904, 36.439]]}, "properties": {"ftype": "line", "id": "rx-sequoia", "name": "RX Sequoia (Visalia\u2013Three Rivers)", "tier": 2, "headway": "30 min"}}, {"type": "Feature", "geometry": {"type": "LineString", "coordinates": [[-116.545, 33.83], [-116.5, 33.92], [-116.432, 34.114], [-116.313, 34.135], [-116.054, 34.136]]}, "properties": {"ftype": "line", "id": "rx-joshuatree", "name": "RX Joshua Tree (Palm Springs\u2013Twentynine Palms)", "tier": 2, "headway": "30 min"}}, {"type": "Feature", "geometry": {"type": "Point", "coordinates": [-116.215, 33.72]}, "properties": {"ftype": "station", "id": "indio", "name": "Indio/Coachella", "tier": 2, "lines": ["RX Imperial (Indio\u2013Calexico)"]}}, {"type": "Feature", "geometry": {"type": "Point", "coordinates": [-115.53, 32.98]}, "properties": {"ftype": "station", "id": "brawley", "name": "Brawley", "tier": 2, "lines": ["RX Imperial (Indio\u2013Calexico)"]}}, {"type": "Feature", "geometry": {"type": "Point", "coordinates": [-115.563, 32.792]}, "properties": {"ftype": "station", "id": "el-centro", "name": "El Centro", "tier": 2, "lines": ["RX Imperial (Indio\u2013Calexico)"]}}, {"type": "Feature", "geometry": {"type": "Point", "coordinates": [-115.499, 32.679]}, "properties": {"ftype": "station", "id": "calexico", "name": "Calexico/Mexicali", "tier": 2, "lines": ["RX Imperial (Indio\u2013Calexico)"]}}, {"type": "Feature", "geometry": {"type": "Point", "coordinates": [-120.483, 37.305]}, "properties": {"ftype": "station", "id": "merced", "name": "Merced", "tier": 2, "lines": ["RX Yosemite (Merced\u2013El Portal)"]}}, {"type": "Feature", "geometry": {"type": "Point", "coordinates": [-120.033, 37.506]}, "properties": {"ftype": "station", "id": "mariposa", "name": "Mariposa Gateway", "tier": 2, "lines": ["RX Yosemite (Merced\u2013El Portal)"]}}, {"type": "Feature", "geometry": {"type": "Point", "coordinates": [-119.782, 37.675]}, "properties": {"ftype": "station", "id": "el-portal", "name": "Yosemite (El Portal)", "tier": 2, "lines": ["RX Yosemite (Merced\u2013El Portal)"]}}, {"type": "Feature", "geometry": {"type": "Point", "coordinates": [-119.292, 36.33]}, "properties": {"ftype": "station", "id": "visalia", "name": "Visalia", "tier": 2, "lines": ["RX Sequoia (Visalia\u2013Three Rivers)"]}}, {"type": "Feature", "geometry": {"type": "Point", "coordinates": [-118.904, 36.439]}, "properties": {"ftype": "station", "id": "three-rivers", "name": "Sequoia (Three Rivers)", "tier": 2, "lines": ["RX Sequoia (Visalia\u2013Three Rivers)"]}}, {"type": "Feature", "geometry": {"type": "Point", "coordinates": [-116.545, 33.83]}, "properties": {"ftype": "station", "id": "palm-springs", "name": "Palm Springs", "tier": 2, "lines": ["RX Joshua Tree (Palm Springs\u2013Twentynine Palms)"]}}, {"type": "Feature", "geometry": {"type": "Point", "coordinates": [-116.432, 34.114]}, "properties": {"ftype": "station", "id": "yucca-valley", "name": "Yucca Valley", "tier": 2, "lines": ["RX Joshua Tree (Palm Springs\u2013Twentynine Palms)"]}}, {"type": "Feature", "geometry": {"type": "Point", "coordinates": [-116.313, 34.135]}, "properties": {"ftype": "station", "id": "joshua-tree", "name": "Joshua Tree", "tier": 2, "lines": ["RX Joshua Tree (Palm Springs\u2013Twentynine Palms)"]}}, {"type": "Feature", "geometry": {"type": "Point", "coordinates": [-116.054, 34.136]}, "properties": {"ftype": "station", "id": "twentynine", "name": "Twentynine Palms", "tier": 2, "lines": ["RX Joshua Tree (Palm Springs\u2013Twentynine Palms)"]}}]}
