{"type": "FeatureCollection", "features": [{"type": "Feature", "geometry": {"type": "Point", "coordinates": [-117.1696, 32.7157]}, "properties": {"ftype": "station", "name": "San Diego Santa Fe", "tier": 1, "lines": ["Broadway Line"], "headway": "90 s"}}, {"type": "Feature", "geometry": {"type": "Point", "coordinates": [-117.160399, 32.715663]}, "properties": {"ftype": "station", "name": "Broadway & 5th Ave", "tier": 1, "lines": ["Broadway Line", "5th Ave Line"], "headway": "90 s"}}, {"type": "Feature", "geometry": {"type": "Point", "coordinates": [-117.153519, 32.715635]}, "properties": {"ftype": "station", "name": "Broadway & Park", "tier": 1, "lines": ["Broadway Line", "Park Line"], "headway": "90 s"}}, {"type": "Feature", "geometry": {"type": "Point", "coordinates": [-117.129854, 32.715294]}, "properties": {"ftype": "station", "name": "Broadway & 30th St", "tier": 1, "lines": ["Broadway Line", "30th St Line"], "headway": "90 s"}}, {"type": "Feature", "geometry": {"type": "Point", "coordinates": [-117.085856, 32.715613]}, "properties": {"ftype": "station", "name": "Broadway & Euclid", "tier": 1, "lines": ["Broadway Line", "Euclid Line"], "headway": "90 s"}}, {"type": "Feature", "geometry": {"type": "Point", "coordinates": [-117.160401, 32.711228]}, "properties": {"ftype": "station", "name": "Market & 5th Ave", "tier": 1, "lines": ["Market Line", "5th Ave Line"], "headway": "90 s"}}, {"type": "Feature", "geometry": {"type": "Point", "coordinates": [-117.155179, 32.711236]}, "properties": {"ftype": "station", "name": "Market & Park", "tier": 1, "lines": ["Market Line", "Park Line"], "headway": "90 s"}}, {"type": "Feature", "geometry": {"type": "Point", "coordinates": [-117.129856, 32.711248]}, "properties": {"ftype": "station", "name": "Market & 30th St", "tier": 1, "lines": ["Market Line", "30th St Line"], "headway": "90 s"}}, {"type": "Feature", "geometry": {"type": "Point", "coordinates": [-117.085528, 32.71046]}, "properties": {"ftype": "station", "name": "Market & Euclid", "tier": 1, "lines": ["Market Line", "Euclid Line"], "headway": "90 s"}}, {"type": "Feature", "geometry": {"type": "Point", "coordinates": [-117.160507, 32.748663]}, "properties": {"ftype": "station", "name": "University & 5th Ave", "tier": 1, "lines": ["University Line", "5th Ave Line"], "headway": "90 s"}}, {"type": "Feature", "geometry": {"type": "Point", "coordinates": [-117.146949, 32.748586]}, "properties": {"ftype": "station", "name": "University & Park", "tier": 1, "lines": ["University Line", "Park Line"], "headway": "90 s"}}, {"type": "Feature", "geometry": {"type": "Point", "coordinates": [-117.130004, 32.748788]}, "properties": {"ftype": "station", "name": "University & 30th St", "tier": 1, "lines": ["University Line", "30th St Line"], "headway": "90 s"}}, {"type": "Feature", "geometry": {"type": "Point", "coordinates": [-117.100491, 32.749197]}, "properties": {"ftype": "station", "name": "University & Fairmount", "tier": 1, "lines": ["University Line", "Fairmount Line"], "headway": "90 s"}}, {"type": "Feature", "geometry": {"type": "Point", "coordinates": [-117.09175, 32.749022]}, "properties": {"ftype": "station", "name": "University & Euclid", "tier": 1, "lines": ["University Line", "Euclid Line"], "headway": "90 s"}}, {"type": "Feature", "geometry": {"type": "Point", "coordinates": [-117.130105, 32.755906]}, "properties": {"ftype": "station", "name": "El Cajon & 30th St", "tier": 1, "lines": ["El Cajon Line", "30th St Line"], "headway": "90 s"}}, {"type": "Feature", "geometry": {"type": "Point", "coordinates": [-117.09963, 32.757564]}, "properties": {"ftype": "station", "name": "El Cajon & Fairmount", "tier": 1, "lines": ["El Cajon Line", "Fairmount Line"], "headway": "90 s"}}, {"type": "Feature", "geometry": {"type": "Point", "coordinates": [-117.091638, 32.758197]}, "properties": {"ftype": "station", "name": "El Cajon & Euclid", "tier": 1, "lines": ["El Cajon Line", "Euclid Line"], "headway": "90 s"}}, {"type": "Feature", "geometry": {"type": "Point", "coordinates": [-117.146308, 32.762532]}, "properties": {"ftype": "station", "name": "Adams & Park", "tier": 1, "lines": ["Adams Line", "Park Line"], "headway": "90 s"}}, {"type": "Feature", "geometry": {"type": "Point", "coordinates": [-117.130205, 32.762888]}, "properties": {"ftype": "station", "name": "Adams & 30th St", "tier": 1, "lines": ["Adams Line", "30th St Line"], "headway": "90 s"}}, {"type": "Feature", "geometry": {"type": "Point", "coordinates": [-117.098607, 32.762731]}, "properties": {"ftype": "station", "name": "Adams & Fairmount", "tier": 1, "lines": ["Adams Line", "Fairmount Line"], "headway": "90 s"}}, {"type": "Feature", "geometry": {"type": "Point", "coordinates": [-117.129737, 32.705757]}, "properties": {"ftype": "station", "name": "Imperial & 30th St", "tier": 1, "lines": ["Imperial Line", "30th St Line"], "headway": "90 s"}}, {"type": "Feature", "geometry": {"type": "Point", "coordinates": [-117.085427, 32.705356]}, "properties": {"ftype": "station", "name": "Imperial & Euclid", "tier": 1, "lines": ["Imperial Line", "Euclid Line"], "headway": "90 s"}}, {"type": "Feature", "geometry": {"type": "Point", "coordinates": [-117.14563, 32.715574]}, "properties": {"ftype": "station", "name": "Broadway 1", "tier": 1, "lines": ["Broadway Line"], "headway": "90 s"}}, {"type": "Feature", "geometry": {"type": "Point", "coordinates": [-117.137742, 32.715446]}, "properties": {"ftype": "station", "name": "Broadway 2", "tier": 1, "lines": ["Broadway Line"], "headway": "90 s"}}, {"type": "Feature", "geometry": {"type": "Point", "coordinates": [-117.121055, 32.715164]}, "properties": {"ftype": "station", "name": "Broadway 3", "tier": 1, "lines": ["Broadway Line"], "headway": "90 s"}}, {"type": "Feature", "geometry": {"type": "Point", "coordinates": [-117.112255, 32.715232]}, "properties": {"ftype": "station", "name": "Broadway 4", "tier": 1, "lines": ["Broadway Line"], "headway": "90 s"}}, {"type": "Feature", "geometry": {"type": "Point", "coordinates": [-117.103456, 32.715387]}, "properties": {"ftype": "station", "name": "Broadway 5", "tier": 1, "lines": ["Broadway Line"], "headway": "90 s"}}, {"type": "Feature", "geometry": {"type": "Point", "coordinates": [-117.094656, 32.715507]}, "properties": {"ftype": "station", "name": "Broadway 6", "tier": 1, "lines": ["Broadway Line"], "headway": "90 s"}}, {"type": "Feature", "geometry": {"type": "Point", "coordinates": [-117.076583, 32.715714]}, "properties": {"ftype": "station", "name": "Broadway 7", "tier": 1, "lines": ["Broadway Line"], "headway": "90 s"}}, {"type": "Feature", "geometry": {"type": "Point", "coordinates": [-117.06731, 32.715797]}, "properties": {"ftype": "station", "name": "Broadway 8", "tier": 1, "lines": ["Broadway Line"], "headway": "90 s"}}, {"type": "Feature", "geometry": {"type": "Point", "coordinates": [-117.146738, 32.711249]}, "properties": {"ftype": "station", "name": "Market 1", "tier": 1, "lines": ["Market Line"], "headway": "90 s"}}, {"type": "Feature", "geometry": {"type": "Point", "coordinates": [-117.138297, 32.711261]}, "properties": {"ftype": "station", "name": "Market 2", "tier": 1, "lines": ["Market Line"], "headway": "90 s"}}, {"type": "Feature", "geometry": {"type": "Point", "coordinates": [-117.120988, 32.711185]}, "properties": {"ftype": "station", "name": "Market 3", "tier": 1, "lines": ["Market Line"], "headway": "90 s"}}, {"type": "Feature", "geometry": {"type": "Point", "coordinates": [-117.11212, 32.711123]}, "properties": {"ftype": "station", "name": "Market 4", "tier": 1, "lines": ["Market Line"], "headway": "90 s"}}, {"type": "Feature", "geometry": {"type": "Point", "coordinates": [-117.103254, 32.710981]}, "properties": {"ftype": "station", "name": "Market 5", "tier": 1, "lines": ["Market Line"], "headway": "90 s"}}, {"type": "Feature", "geometry": {"type": "Point", "coordinates": [-117.094391, 32.710736]}, "properties": {"ftype": "station", "name": "Market 6", "tier": 1, "lines": ["Market Line"], "headway": "90 s"}}, {"type": "Feature", "geometry": {"type": "Point", "coordinates": [-117.077357, 32.710221]}, "properties": {"ftype": "station", "name": "Market 7", "tier": 1, "lines": ["Market Line"], "headway": "90 s"}}, {"type": "Feature", "geometry": {"type": "Point", "coordinates": [-117.138476, 32.748634]}, "properties": {"ftype": "station", "name": "University 1", "tier": 1, "lines": ["University Line"], "headway": "90 s"}}, {"type": "Feature", "geometry": {"type": "Point", "coordinates": [-117.120168, 32.749005]}, "properties": {"ftype": "station", "name": "University 2", "tier": 1, "lines": ["University Line"], "headway": "90 s"}}, {"type": "Feature", "geometry": {"type": "Point", "coordinates": [-117.110331, 32.74922]}, "properties": {"ftype": "station", "name": "University 3", "tier": 1, "lines": ["University Line"], "headway": "90 s"}}, {"type": "Feature", "geometry": {"type": "Point", "coordinates": [-117.083572, 32.748868]}, "properties": {"ftype": "station", "name": "University 4", "tier": 1, "lines": ["University Line"], "headway": "90 s"}}, {"type": "Feature", "geometry": {"type": "Point", "coordinates": [-117.075427, 32.749177]}, "properties": {"ftype": "station", "name": "University 5", "tier": 1, "lines": ["University Line"], "headway": "90 s"}}, {"type": "Feature", "geometry": {"type": "Point", "coordinates": [-117.067657, 32.751224]}, "properties": {"ftype": "station", "name": "University 6", "tier": 1, "lines": ["University Line"], "headway": "90 s"}}, {"type": "Feature", "geometry": {"type": "Point", "coordinates": [-117.13815, 32.755577]}, "properties": {"ftype": "station", "name": "El Cajon 1", "tier": 1, "lines": ["El Cajon Line"], "headway": "90 s"}}, {"type": "Feature", "geometry": {"type": "Point", "coordinates": [-117.119936, 32.756322]}, "properties": {"ftype": "station", "name": "El Cajon 2", "tier": 1, "lines": ["El Cajon Line"], "headway": "90 s"}}, {"type": "Feature", "geometry": {"type": "Point", "coordinates": [-117.109768, 32.756762]}, "properties": {"ftype": "station", "name": "El Cajon 3", "tier": 1, "lines": ["El Cajon Line"], "headway": "90 s"}}, {"type": "Feature", "geometry": {"type": "Point", "coordinates": [-117.083168, 32.758952]}, "properties": {"ftype": "station", "name": "El Cajon 4", "tier": 1, "lines": ["El Cajon Line"], "headway": "90 s"}}, {"type": "Feature", "geometry": {"type": "Point", "coordinates": [-117.074822, 32.760413]}, "properties": {"ftype": "station", "name": "El Cajon 5", "tier": 1, "lines": ["El Cajon Line", "Adams Line"], "headway": "90 s"}}, {"type": "Feature", "geometry": {"type": "Point", "coordinates": [-117.06671, 32.762479]}, "properties": {"ftype": "station", "name": "El Cajon 6", "tier": 1, "lines": ["El Cajon Line", "Adams Line"], "headway": "90 s"}}, {"type": "Feature", "geometry": {"type": "Point", "coordinates": [-117.138257, 32.76274]}, "properties": {"ftype": "station", "name": "Adams 1", "tier": 1, "lines": ["Adams Line"], "headway": "90 s"}}, {"type": "Feature", "geometry": {"type": "Point", "coordinates": [-117.119671, 32.762987]}, "properties": {"ftype": "station", "name": "Adams 2", "tier": 1, "lines": ["Adams Line"], "headway": "90 s"}}, {"type": "Feature", "geometry": {"type": "Point", "coordinates": [-117.109138, 32.762936]}, "properties": {"ftype": "station", "name": "Adams 3", "tier": 1, "lines": ["Adams Line"], "headway": "90 s"}}, {"type": "Feature", "geometry": {"type": "Point", "coordinates": [-117.090368, 32.762583]}, "properties": {"ftype": "station", "name": "Adams 4", "tier": 1, "lines": ["Adams Line", "Euclid Line"], "headway": "90 s"}}, {"type": "Feature", "geometry": {"type": "Point", "coordinates": [-117.082128, 32.76247]}, "properties": {"ftype": "station", "name": "Adams 5", "tier": 1, "lines": ["Adams Line"], "headway": "90 s"}}, {"type": "Feature", "geometry": {"type": "Point", "coordinates": [-117.14616, 32.706146]}, "properties": {"ftype": "station", "name": "Imperial 1", "tier": 1, "lines": ["Imperial Line"], "headway": "90 s"}}, {"type": "Feature", "geometry": {"type": "Point", "coordinates": [-117.137947, 32.70599]}, "properties": {"ftype": "station", "name": "Imperial 2", "tier": 1, "lines": ["Imperial Line"], "headway": "90 s"}}, {"type": "Feature", "geometry": {"type": "Point", "coordinates": [-117.120863, 32.705415]}, "properties": {"ftype": "station", "name": "Imperial 3", "tier": 1, "lines": ["Imperial Line"], "headway": "90 s"}}, {"type": "Feature", "geometry": {"type": "Point", "coordinates": [-117.111996, 32.704964]}, "properties": {"ftype": "station", "name": "Imperial 4", "tier": 1, "lines": ["Imperial Line"], "headway": "90 s"}}, {"type": "Feature", "geometry": {"type": "Point", "coordinates": [-117.10313, 32.704497]}, "properties": {"ftype": "station", "name": "Imperial 5", "tier": 1, "lines": ["Imperial Line"], "headway": "90 s"}}, {"type": "Feature", "geometry": {"type": "Point", "coordinates": [-117.094251, 32.704544]}, "properties": {"ftype": "station", "name": "Imperial 6", "tier": 1, "lines": ["Imperial Line"], "headway": "90 s"}}, {"type": "Feature", "geometry": {"type": "Point", "coordinates": [-117.076322, 32.707151]}, "properties": {"ftype": "station", "name": "Imperial 7", "tier": 1, "lines": ["Imperial Line"], "headway": "90 s"}}, {"type": "Feature", "geometry": {"type": "Point", "coordinates": [-117.067232, 32.708994]}, "properties": {"ftype": "station", "name": "Imperial 8", "tier": 1, "lines": ["Imperial Line", "Market Line"], "headway": "90 s"}}, {"type": "Feature", "geometry": {"type": "Point", "coordinates": [-117.160475, 32.740413]}, "properties": {"ftype": "station", "name": "5th Ave 1", "tier": 1, "lines": ["5th Ave Line"], "headway": "90 s"}}, {"type": "Feature", "geometry": {"type": "Point", "coordinates": [-117.160438, 32.732163]}, "properties": {"ftype": "station", "name": "5th Ave 2", "tier": 1, "lines": ["5th Ave Line"], "headway": "90 s"}}, {"type": "Feature", "geometry": {"type": "Point", "coordinates": [-117.160405, 32.723913]}, "properties": {"ftype": "station", "name": "5th Ave 3", "tier": 1, "lines": ["5th Ave Line"], "headway": "90 s"}}, {"type": "Feature", "geometry": {"type": "Point", "coordinates": [-117.150273, 32.723659]}, "properties": {"ftype": "station", "name": "Park 1", "tier": 1, "lines": ["Park Line"], "headway": "90 s"}}, {"type": "Feature", "geometry": {"type": "Point", "coordinates": [-117.146944, 32.731643]}, "properties": {"ftype": "station", "name": "Park 2", "tier": 1, "lines": ["Park Line"], "headway": "90 s"}}, {"type": "Feature", "geometry": {"type": "Point", "coordinates": [-117.146985, 32.740107]}, "properties": {"ftype": "station", "name": "Park 3", "tier": 1, "lines": ["Park Line"], "headway": "90 s"}}, {"type": "Feature", "geometry": {"type": "Point", "coordinates": [-117.146594, 32.755558]}, "properties": {"ftype": "station", "name": "Park 4", "tier": 1, "lines": ["Park Line", "El Cajon Line"], "headway": "90 s"}}, {"type": "Feature", "geometry": {"type": "Point", "coordinates": [-117.129898, 32.740415]}, "properties": {"ftype": "station", "name": "30th St 1", "tier": 1, "lines": ["30th St Line"], "headway": "90 s"}}, {"type": "Feature", "geometry": {"type": "Point", "coordinates": [-117.129857, 32.732041]}, "properties": {"ftype": "station", "name": "30th St 2", "tier": 1, "lines": ["30th St Line"], "headway": "90 s"}}, {"type": "Feature", "geometry": {"type": "Point", "coordinates": [-117.12988, 32.723668]}, "properties": {"ftype": "station", "name": "30th St 3", "tier": 1, "lines": ["30th St Line"], "headway": "90 s"}}, {"type": "Feature", "geometry": {"type": "Point", "coordinates": [-117.129592, 32.699315]}, "properties": {"ftype": "station", "name": "30th St 4", "tier": 1, "lines": ["30th St Line"], "headway": "90 s"}}, {"type": "Feature", "geometry": {"type": "Point", "coordinates": [-117.099636, 32.731345]}, "properties": {"ftype": "station", "name": "Fairmount 1", "tier": 1, "lines": ["Fairmount Line"], "headway": "90 s"}}, {"type": "Feature", "geometry": {"type": "Point", "coordinates": [-117.100609, 32.740244]}, "properties": {"ftype": "station", "name": "Fairmount 2", "tier": 1, "lines": ["Fairmount Line"], "headway": "90 s"}}, {"type": "Feature", "geometry": {"type": "Point", "coordinates": [-117.098322, 32.771579]}, "properties": {"ftype": "station", "name": "Fairmount 3", "tier": 1, "lines": ["Fairmount Line"], "headway": "90 s"}}, {"type": "Feature", "geometry": {"type": "Point", "coordinates": [-117.09091, 32.740573]}, "properties": {"ftype": "station", "name": "Euclid 1", "tier": 1, "lines": ["Euclid Line"], "headway": "90 s"}}, {"type": "Feature", "geometry": {"type": "Point", "coordinates": [-117.088551, 32.73237]}, "properties": {"ftype": "station", "name": "Euclid 2", "tier": 1, "lines": ["Euclid Line"], "headway": "90 s"}}, {"type": "Feature", "geometry": {"type": "Point", "coordinates": [-117.086555, 32.724079]}, "properties": {"ftype": "station", "name": "Euclid 3", "tier": 1, "lines": ["Euclid Line"], "headway": "90 s"}}, {"type": "Feature", "geometry": {"type": "Point", "coordinates": [-117.085285, 32.697608]}, "properties": {"ftype": "station", "name": "Euclid 4", "tier": 1, "lines": ["Euclid Line"], "headway": "90 s"}}, {"type": "Feature", "geometry": {"type": "Point", "coordinates": [-117.172888, 32.715738]}, "properties": {"ftype": "station", "name": "Broadway West Terminal", "tier": 1, "lines": ["Broadway Line"], "headway": "90 s"}}, {"type": "Feature", "geometry": {"type": "Point", "coordinates": [-117.058037, 32.715881]}, "properties": {"ftype": "station", "name": "Broadway East Terminal", "tier": 1, "lines": ["Broadway Line"], "headway": "90 s"}}, {"type": "Feature", "geometry": {"type": "Point", "coordinates": [-117.168061, 32.711217]}, "properties": {"ftype": "station", "name": "Market West Terminal", "tier": 1, "lines": ["Market Line"], "headway": "90 s"}}, {"type": "Feature", "geometry": {"type": "Point", "coordinates": [-117.173215, 32.748945]}, "properties": {"ftype": "station", "name": "University West Terminal", "tier": 1, "lines": ["University Line"], "headway": "90 s"}}, {"type": "Feature", "geometry": {"type": "Point", "coordinates": [-117.060227, 32.754122]}, "properties": {"ftype": "station", "name": "University East Terminal", "tier": 1, "lines": ["University Line"], "headway": "90 s"}}, {"type": "Feature", "geometry": {"type": "Point", "coordinates": [-117.059414, 32.76614]}, "properties": {"ftype": "station", "name": "El Cajon East Terminal", "tier": 1, "lines": ["El Cajon Line"], "headway": "90 s"}}, {"type": "Feature", "geometry": {"type": "Point", "coordinates": [-117.154373, 32.706302]}, "properties": {"ftype": "station", "name": "Imperial West Terminal", "tier": 1, "lines": ["Imperial Line"], "headway": "90 s"}}, {"type": "Feature", "geometry": {"type": "Point", "coordinates": [-117.058076, 32.710591]}, "properties": {"ftype": "station", "name": "Imperial East Terminal", "tier": 1, "lines": ["Imperial Line"], "headway": "90 s"}}, {"type": "Feature", "geometry": {"type": "Point", "coordinates": [-117.160485, 32.755285]}, "properties": {"ftype": "station", "name": "5th Ave North Terminal", "tier": 1, "lines": ["5th Ave Line"], "headway": "90 s"}}, {"type": "Feature", "geometry": {"type": "Point", "coordinates": [-117.160403, 32.707106]}, "properties": {"ftype": "station", "name": "5th Ave South Terminal", "tier": 1, "lines": ["5th Ave Line"], "headway": "90 s"}}, {"type": "Feature", "geometry": {"type": "Point", "coordinates": [-117.159907, 32.704235]}, "properties": {"ftype": "station", "name": "Park South Terminal", "tier": 1, "lines": ["Park Line"], "headway": "90 s"}}, {"type": "Feature", "geometry": {"type": "Point", "coordinates": [-117.129457, 32.692874]}, "properties": {"ftype": "station", "name": "30th St South Terminal", "tier": 1, "lines": ["30th St Line"], "headway": "90 s"}}, {"type": "Feature", "geometry": {"type": "Point", "coordinates": [-117.09395, 32.724198]}, "properties": {"ftype": "station", "name": "Fairmount South Terminal", "tier": 1, "lines": ["Fairmount Line"], "headway": "90 s"}}, {"type": "Feature", "geometry": {"type": "Point", "coordinates": [-117.101523, 32.780001]}, "properties": {"ftype": "station", "name": "Fairmount North Terminal", "tier": 1, "lines": ["Fairmount Line"], "headway": "90 s"}}, {"type": "Feature", "geometry": {"type": "Point", "coordinates": [-117.085144, 32.689859]}, "properties": {"ftype": "station", "name": "Euclid South Terminal", "tier": 1, "lines": ["Euclid Line"], "headway": "90 s"}}, {"type": "Feature", "geometry": {"type": "LineString", "coordinates": [[-117.172888, 32.715738], [-117.1696, 32.7157], [-117.14805, 32.715613], [-117.132468, 32.71536], [-117.124864, 32.715167], [-117.116317, 32.71516], [-117.100976, 32.715431], [-117.080131, 32.715682], [-117.058037, 32.715881]]}, "properties": {"ftype": "line", "id": "sandiego-Broadway", "name": "Broadway Line", "tier": 1, "headway": "90 s"}}, {"type": "Feature", "geometry": {"type": "LineString", "coordinates": [[-117.168061, 32.711217], [-117.132883, 32.711269], [-117.107069, 32.711087], [-117.09174, 32.710663], [-117.080666, 32.7103], [-117.067232, 32.708994]]}, "properties": {"ftype": "line", "id": "sandiego-Market", "name": "Market Line", "tier": 1, "headway": "90 s"}}, {"type": "Feature", "geometry": {"type": "LineString", "coordinates": [[-117.173215, 32.748945], [-117.164932, 32.748732], [-117.153578, 32.748555], [-117.138997, 32.748624], [-117.125265, 32.748875], [-117.111665, 32.749223], [-117.098206, 32.749192], [-117.086311, 32.748879], [-117.077556, 32.748844], [-117.071983, 32.749716], [-117.06647, 32.751638], [-117.060227, 32.754122]]}, "properties": {"ftype": "line", "id": "sandiego-University", "name": "University Line", "tier": 1, "headway": "90 s"}}, {"type": "Feature", "geometry": {"type": "LineString", "coordinates": [[-117.146594, 32.755558], [-117.110375, 32.756714], [-117.084049, 32.758798], [-117.069763, 32.761299], [-117.063135, 32.763861], [-117.059414, 32.76614]]}, "properties": {"ftype": "line", "id": "sandiego-El Cajon", "name": "El Cajon Line", "tier": 1, "headway": "90 s"}}, {"type": "Feature", "geometry": {"type": "LineString", "coordinates": [[-117.146308, 32.762532], [-117.133882, 32.762854], [-117.119674, 32.762987], [-117.105954, 32.762921], [-117.095344, 32.762647], [-117.087432, 32.762545], [-117.081393, 32.76246], [-117.074115, 32.760537], [-117.06671, 32.762479]]}, "properties": {"ftype": "line", "id": "sandiego-Adams", "name": "Adams Line", "tier": 1, "headway": "90 s"}}, {"type": "Feature", "geometry": {"type": "LineString", "coordinates": [[-117.154373, 32.706302], [-117.133653, 32.705908], [-117.1191, 32.705347], [-117.109206, 32.704813], [-117.101605, 32.704418], [-117.092795, 32.704569], [-117.085521, 32.705338], [-117.077942, 32.70681], [-117.069205, 32.70865], [-117.058076, 32.710591]]}, "properties": {"ftype": "line", "id": "sandiego-Imperial", "name": "Imperial Line", "tier": 1, "headway": "90 s"}}, {"type": "Feature", "geometry": {"type": "LineString", "coordinates": [[-117.160485, 32.755285], [-117.160511, 32.747602], [-117.160455, 32.736372], [-117.160396, 32.721605], [-117.160403, 32.707106]]}, "properties": {"ftype": "line", "id": "sandiego-5th Ave", "name": "5th Ave Line", "tier": 1, "headway": "90 s"}}, {"type": "Feature", "geometry": {"type": "LineString", "coordinates": [[-117.159907, 32.704235], [-117.157255, 32.70724], [-117.154846, 32.711876], [-117.152644, 32.718113], [-117.150326, 32.723549], [-117.148248, 32.727888], [-117.146969, 32.731367], [-117.146612, 32.735419], [-117.146936, 32.739272], [-117.147128, 32.742558], [-117.147064, 32.746506], [-117.146687, 32.753301], [-117.146308, 32.762532]]}, "properties": {"ftype": "line", "id": "sandiego-Park", "name": "Park Line", "tier": 1, "headway": "90 s"}}, {"type": "Feature", "geometry": {"type": "LineString", "coordinates": [[-117.130205, 32.762888], [-117.130001, 32.748555], [-117.129839, 32.735817], [-117.129888, 32.725391], [-117.129853, 32.718062], [-117.129857, 32.710715], [-117.129665, 32.702765], [-117.129457, 32.692874]]}, "properties": {"ftype": "line", "id": "sandiego-30th St", "name": "30th St Line", "tier": 1, "headway": "90 s"}}, {"type": "Feature", "geometry": {"type": "LineString", "coordinates": [[-117.09395, 32.724198], [-117.096454, 32.725981], [-117.098486, 32.727785], [-117.099859, 32.732036], [-117.10062, 32.738888], [-117.10054, 32.748674], [-117.099783, 32.756794], [-117.098485, 32.763349], [-117.097975, 32.767992], [-117.098422, 32.772624], [-117.099875, 32.776628], [-117.101523, 32.780001]]}, "properties": {"ftype": "line", "id": "sandiego-Fairmount", "name": "Fairmount Line", "tier": 1, "headway": "90 s"}}, {"type": "Feature", "geometry": {"type": "LineString", "coordinates": [[-117.090368, 32.762583], [-117.091851, 32.752889], [-117.091642, 32.744885], [-117.090732, 32.739522], [-117.089493, 32.736128], [-117.088701, 32.734293], [-117.088531, 32.732109], [-117.088279, 32.730099], [-117.087518, 32.728361], [-117.086331, 32.723081], [-117.085516, 32.710268], [-117.085144, 32.689859]]}, "properties": {"ftype": "line", "id": "sandiego-Euclid", "name": "Euclid Line", "tier": 1, "headway": "90 s"}}]}
