{"type": "FeatureCollection", "features": [{"type": "Feature", "geometry": {"type": "Point", "coordinates": [-117.8843, 33.8039]}, "properties": {"ftype": "station", "name": "Anaheim", "tier": 1, "lines": ["Katella Line"], "headway": "90 s"}}, {"type": "Feature", "geometry": {"type": "Point", "coordinates": [-117.91949, 33.835719]}, "properties": {"ftype": "station", "name": "Lincoln & Harbor", "tier": 1, "lines": ["Lincoln Line", "Harbor Line"], "headway": "90 s"}}, {"type": "Feature", "geometry": {"type": "Point", "coordinates": [-117.889416, 33.837951]}, "properties": {"ftype": "station", "name": "Lincoln & State College", "tier": 1, "lines": ["Lincoln Line", "State College Line"], "headway": "90 s"}}, {"type": "Feature", "geometry": {"type": "Point", "coordinates": [-117.916089, 33.803393]}, "properties": {"ftype": "station", "name": "Katella & Harbor", "tier": 1, "lines": ["Katella Line", "Harbor Line"], "headway": "90 s"}}, {"type": "Feature", "geometry": {"type": "Point", "coordinates": [-117.889576, 33.804179]}, "properties": {"ftype": "station", "name": "Katella & State College", "tier": 1, "lines": ["Katella Line", "State College Line"], "headway": "90 s"}}, {"type": "Feature", "geometry": {"type": "Point", "coordinates": [-117.867155, 33.759557]}, "properties": {"ftype": "station", "name": "17th St & Main", "tier": 1, "lines": ["17th St Line", "Main Line"], "headway": "90 s"}}, {"type": "Feature", "geometry": {"type": "Point", "coordinates": [-117.884389, 33.759701]}, "properties": {"ftype": "station", "name": "17th St & Bristol", "tier": 1, "lines": ["17th St Line", "Bristol Line"], "headway": "90 s"}}, {"type": "Feature", "geometry": {"type": "Point", "coordinates": [-117.920045, 33.745069]}, "properties": {"ftype": "station", "name": "1st St & Harbor", "tier": 1, "lines": ["1st St Line", "Harbor Line"], "headway": "90 s"}}, {"type": "Feature", "geometry": {"type": "Point", "coordinates": [-117.86742, 33.745405]}, "properties": {"ftype": "station", "name": "1st St & Main", "tier": 1, "lines": ["1st St Line", "Main Line"], "headway": "90 s"}}, {"type": "Feature", "geometry": {"type": "Point", "coordinates": [-117.884787, 33.745308]}, "properties": {"ftype": "station", "name": "1st St & Bristol", "tier": 1, "lines": ["1st St Line", "Bristol Line"], "headway": "90 s"}}, {"type": "Feature", "geometry": {"type": "Point", "coordinates": [-117.981031, 33.832106]}, "properties": {"ftype": "station", "name": "Lincoln 1", "tier": 1, "lines": ["Lincoln Line"], "headway": "90 s"}}, {"type": "Feature", "geometry": {"type": "Point", "coordinates": [-117.970664, 33.83222]}, "properties": {"ftype": "station", "name": "Lincoln & Level Avenue", "tier": 1, "lines": ["Lincoln Line"], "headway": "90 s"}}, {"type": "Feature", "geometry": {"type": "Point", "coordinates": [-117.960296, 33.832326]}, "properties": {"ftype": "station", "name": "Lincoln & Kathryn Drive", "tier": 1, "lines": ["Lincoln Line"], "headway": "90 s"}}, {"type": "Feature", "geometry": {"type": "Point", "coordinates": [-117.949929, 33.832422]}, "properties": {"ftype": "station", "name": "Lincoln & Muller Street", "tier": 1, "lines": ["Lincoln Line"], "headway": "90 s"}}, {"type": "Feature", "geometry": {"type": "Point", "coordinates": [-117.939563, 33.832582]}, "properties": {"ftype": "station", "name": "Lincoln 5", "tier": 1, "lines": ["Lincoln Line"], "headway": "90 s"}}, {"type": "Feature", "geometry": {"type": "Point", "coordinates": [-117.929211, 33.833006]}, "properties": {"ftype": "station", "name": "Lincoln & Carleton Avenue", "tier": 1, "lines": ["Lincoln Line"], "headway": "90 s"}}, {"type": "Feature", "geometry": {"type": "Point", "coordinates": [-117.910018, 33.838149]}, "properties": {"ftype": "station", "name": "Lincoln & Santa Fe Street", "tier": 1, "lines": ["Lincoln Line"], "headway": "90 s"}}, {"type": "Feature", "geometry": {"type": "Point", "coordinates": [-117.899719, 33.837975]}, "properties": {"ftype": "station", "name": "Lincoln & Fahrion Place", "tier": 1, "lines": ["Lincoln Line"], "headway": "90 s"}}, {"type": "Feature", "geometry": {"type": "Point", "coordinates": [-117.878941, 33.837384]}, "properties": {"ftype": "station", "name": "Lincoln 9", "tier": 1, "lines": ["Lincoln Line"], "headway": "90 s"}}, {"type": "Feature", "geometry": {"type": "Point", "coordinates": [-117.868501, 33.836482]}, "properties": {"ftype": "station", "name": "Lincoln & Barbara Way", "tier": 1, "lines": ["Lincoln Line"], "headway": "90 s"}}, {"type": "Feature", "geometry": {"type": "Point", "coordinates": [-117.859234, 33.833356]}, "properties": {"ftype": "station", "name": "Lincoln & Crystal View Avenue", "tier": 1, "lines": ["Lincoln Line"], "headway": "90 s"}}, {"type": "Feature", "geometry": {"type": "Point", "coordinates": [-117.853791, 33.826279]}, "properties": {"ftype": "station", "name": "Lincoln & Bristol Lane", "tier": 1, "lines": ["Lincoln Line"], "headway": "90 s"}}, {"type": "Feature", "geometry": {"type": "Point", "coordinates": [-117.851807, 33.817652]}, "properties": {"ftype": "station", "name": "Lincoln & Briardale Avenue", "tier": 1, "lines": ["Lincoln Line"], "headway": "90 s"}}, {"type": "Feature", "geometry": {"type": "Point", "coordinates": [-117.850778, 33.808906]}, "properties": {"ftype": "station", "name": "Lincoln & Katella Avenue", "tier": 1, "lines": ["Lincoln Line"], "headway": "90 s"}}, {"type": "Feature", "geometry": {"type": "Point", "coordinates": [-117.847273, 33.813271]}, "properties": {"ftype": "station", "name": "Lincoln & Chestnut Avenue", "tier": 1, "lines": ["Lincoln Line"], "headway": "90 s"}}, {"type": "Feature", "geometry": {"type": "Point", "coordinates": [-117.844558, 33.821761]}, "properties": {"ftype": "station", "name": "Lincoln & del Mar Avenue", "tier": 1, "lines": ["Lincoln Line"], "headway": "90 s"}}, {"type": "Feature", "geometry": {"type": "Point", "coordinates": [-117.841413, 33.830108]}, "properties": {"ftype": "station", "name": "Lincoln & Heim Avenue", "tier": 1, "lines": ["Lincoln Line"], "headway": "90 s"}}, {"type": "Feature", "geometry": {"type": "Point", "coordinates": [-117.980026, 33.802965]}, "properties": {"ftype": "station", "name": "Katella & Mac Street", "tier": 1, "lines": ["Katella Line"], "headway": "90 s"}}, {"type": "Feature", "geometry": {"type": "Point", "coordinates": [-117.96937, 33.802998]}, "properties": {"ftype": "station", "name": "Katella & Harcourt Avenue", "tier": 1, "lines": ["Katella Line"], "headway": "90 s"}}, {"type": "Feature", "geometry": {"type": "Point", "coordinates": [-117.958713, 33.803033]}, "properties": {"ftype": "station", "name": "Katella & Brookhurst Street", "tier": 1, "lines": ["Katella Line"], "headway": "90 s"}}, {"type": "Feature", "geometry": {"type": "Point", "coordinates": [-117.948056, 33.803068]}, "properties": {"ftype": "station", "name": "Katella & Easy Way", "tier": 1, "lines": ["Katella Line"], "headway": "90 s"}}, {"type": "Feature", "geometry": {"type": "Point", "coordinates": [-117.9374, 33.803137]}, "properties": {"ftype": "station", "name": "Katella & Carnelian Street", "tier": 1, "lines": ["Katella Line"], "headway": "90 s"}}, {"type": "Feature", "geometry": {"type": "Point", "coordinates": [-117.926744, 33.803223]}, "properties": {"ftype": "station", "name": "Katella & Casa Vista Street", "tier": 1, "lines": ["Katella Line"], "headway": "90 s"}}, {"type": "Feature", "geometry": {"type": "Point", "coordinates": [-117.907244, 33.803556]}, "properties": {"ftype": "station", "name": "Katella & Anaheim Boulevard", "tier": 1, "lines": ["Katella Line"], "headway": "90 s"}}, {"type": "Feature", "geometry": {"type": "Point", "coordinates": [-117.898408, 33.803894]}, "properties": {"ftype": "station", "name": "Katella & Lewis Street", "tier": 1, "lines": ["Katella Line"], "headway": "90 s"}}, {"type": "Feature", "geometry": {"type": "Point", "coordinates": [-117.87441, 33.806783]}, "properties": {"ftype": "station", "name": "Katella 9", "tier": 1, "lines": ["Katella Line"], "headway": "90 s"}}, {"type": "Feature", "geometry": {"type": "Point", "coordinates": [-117.864001, 33.808095]}, "properties": {"ftype": "station", "name": "Katella 10", "tier": 1, "lines": ["Katella Line"], "headway": "90 s"}}, {"type": "Feature", "geometry": {"type": "Point", "coordinates": [-117.853518, 33.808914]}, "properties": {"ftype": "station", "name": "Katella & Glassell Street", "tier": 1, "lines": ["Katella Line"], "headway": "90 s"}}, {"type": "Feature", "geometry": {"type": "Point", "coordinates": [-117.843008, 33.809468]}, "properties": {"ftype": "station", "name": "Katella 12", "tier": 1, "lines": ["Katella Line"], "headway": "90 s"}}, {"type": "Feature", "geometry": {"type": "Point", "coordinates": [-117.832492, 33.80993]}, "properties": {"ftype": "station", "name": "Katella & Costa Mesa Freeway", "tier": 1, "lines": ["Katella Line"], "headway": "90 s"}}, {"type": "Feature", "geometry": {"type": "Point", "coordinates": [-117.893551, 33.759778]}, "properties": {"ftype": "station", "name": "17th St & Alona Street", "tier": 1, "lines": ["17th St Line"], "headway": "90 s"}}, {"type": "Feature", "geometry": {"type": "Point", "coordinates": [-117.875772, 33.759629]}, "properties": {"ftype": "station", "name": "17th St & Flower Street", "tier": 1, "lines": ["17th St Line"], "headway": "90 s"}}, {"type": "Feature", "geometry": {"type": "Point", "coordinates": [-117.857879, 33.759479]}, "properties": {"ftype": "station", "name": "17th St & Fairmont Street", "tier": 1, "lines": ["17th St Line"], "headway": "90 s"}}, {"type": "Feature", "geometry": {"type": "Point", "coordinates": [-117.848603, 33.759401]}, "properties": {"ftype": "station", "name": "17th St & Linwood Avenue", "tier": 1, "lines": ["17th St Line"], "headway": "90 s"}}, {"type": "Feature", "geometry": {"type": "Point", "coordinates": [-117.839328, 33.759281]}, "properties": {"ftype": "station", "name": "17th St & Williams Street", "tier": 1, "lines": ["17th St Line"], "headway": "90 s"}}, {"type": "Feature", "geometry": {"type": "Point", "coordinates": [-117.830052, 33.759159]}, "properties": {"ftype": "station", "name": "17th St & Yorba Street", "tier": 1, "lines": ["17th St Line"], "headway": "90 s"}}, {"type": "Feature", "geometry": {"type": "Point", "coordinates": [-117.820777, 33.759037]}, "properties": {"ftype": "station", "name": "17th St 7", "tier": 1, "lines": ["17th St Line"], "headway": "90 s"}}, {"type": "Feature", "geometry": {"type": "Point", "coordinates": [-117.811502, 33.758915]}, "properties": {"ftype": "station", "name": "17th St & Brenan Way", "tier": 1, "lines": ["17th St Line"], "headway": "90 s"}}, {"type": "Feature", "geometry": {"type": "Point", "coordinates": [-117.934855, 33.745031]}, "properties": {"ftype": "station", "name": "1st St & Hyannis Com", "tier": 1, "lines": ["1st St Line"], "headway": "90 s"}}, {"type": "Feature", "geometry": {"type": "Point", "coordinates": [-117.92745, 33.74505]}, "properties": {"ftype": "station", "name": "1st St & Mountain View Street", "tier": 1, "lines": ["1st St Line"], "headway": "90 s"}}, {"type": "Feature", "geometry": {"type": "Point", "coordinates": [-117.91123, 33.745104]}, "properties": {"ftype": "station", "name": "1st St 3", "tier": 1, "lines": ["1st St Line"], "headway": "90 s"}}, {"type": "Feature", "geometry": {"type": "Point", "coordinates": [-117.902416, 33.745153]}, "properties": {"ftype": "station", "name": "1st St & Sullivan Street", "tier": 1, "lines": ["1st St Line"], "headway": "90 s"}}, {"type": "Feature", "geometry": {"type": "Point", "coordinates": [-117.893601, 33.745238]}, "properties": {"ftype": "station", "name": "1st St & Franklin Street", "tier": 1, "lines": ["1st St Line"], "headway": "90 s"}}, {"type": "Feature", "geometry": {"type": "Point", "coordinates": [-117.876104, 33.745365]}, "properties": {"ftype": "station", "name": "1st St & Flower Street", "tier": 1, "lines": ["1st St Line"], "headway": "90 s"}}, {"type": "Feature", "geometry": {"type": "Point", "coordinates": [-117.857405, 33.745398]}, "properties": {"ftype": "station", "name": "1st St & Standard Avenue", "tier": 1, "lines": ["1st St Line"], "headway": "90 s"}}, {"type": "Feature", "geometry": {"type": "Point", "coordinates": [-117.847389, 33.74539]}, "properties": {"ftype": "station", "name": "1st St & Wright Street", "tier": 1, "lines": ["1st St Line"], "headway": "90 s"}}, {"type": "Feature", "geometry": {"type": "Point", "coordinates": [-117.837378, 33.745227]}, "properties": {"ftype": "station", "name": "1st St & Golden Circle Drive", "tier": 1, "lines": ["1st St Line"], "headway": "90 s"}}, {"type": "Feature", "geometry": {"type": "Point", "coordinates": [-117.827371, 33.744884]}, "properties": {"ftype": "station", "name": "1st St & A Street", "tier": 1, "lines": ["1st St Line"], "headway": "90 s"}}, {"type": "Feature", "geometry": {"type": "Point", "coordinates": [-117.817434, 33.743976]}, "properties": {"ftype": "station", "name": "1st St & Newport Avenue", "tier": 1, "lines": ["1st St Line"], "headway": "90 s"}}, {"type": "Feature", "geometry": {"type": "Point", "coordinates": [-117.923114, 33.861641]}, "properties": {"ftype": "station", "name": "Harbor 1", "tier": 1, "lines": ["Harbor Line"], "headway": "90 s"}}, {"type": "Feature", "geometry": {"type": "Point", "coordinates": [-117.921909, 33.853]}, "properties": {"ftype": "station", "name": "Harbor 2", "tier": 1, "lines": ["Harbor Line"], "headway": "90 s"}}, {"type": "Feature", "geometry": {"type": "Point", "coordinates": [-117.920701, 33.84436]}, "properties": {"ftype": "station", "name": "Harbor 3", "tier": 1, "lines": ["Harbor Line"], "headway": "90 s"}}, {"type": "Feature", "geometry": {"type": "Point", "coordinates": [-117.91836, 33.827658]}, "properties": {"ftype": "station", "name": "Harbor & Pine Street", "tier": 1, "lines": ["Harbor Line"], "headway": "90 s"}}, {"type": "Feature", "geometry": {"type": "Point", "coordinates": [-117.91746, 33.819578]}, "properties": {"ftype": "station", "name": "Harbor & Citron Street", "tier": 1, "lines": ["Harbor Line"], "headway": "90 s"}}, {"type": "Feature", "geometry": {"type": "Point", "coordinates": [-117.916609, 33.811493]}, "properties": {"ftype": "station", "name": "Harbor 6", "tier": 1, "lines": ["Harbor Line"], "headway": "90 s"}}, {"type": "Feature", "geometry": {"type": "Point", "coordinates": [-117.915866, 33.795038]}, "properties": {"ftype": "station", "name": "Harbor & Mallul Drive", "tier": 1, "lines": ["Harbor Line"], "headway": "90 s"}}, {"type": "Feature", "geometry": {"type": "Point", "coordinates": [-117.916198, 33.786701]}, "properties": {"ftype": "station", "name": "Harbor & Tamerlane Drive", "tier": 1, "lines": ["Harbor Line"], "headway": "90 s"}}, {"type": "Feature", "geometry": {"type": "Point", "coordinates": [-117.917234, 33.778389]}, "properties": {"ftype": "station", "name": "Harbor 9", "tier": 1, "lines": ["Harbor Line"], "headway": "90 s"}}, {"type": "Feature", "geometry": {"type": "Point", "coordinates": [-117.918416, 33.770091]}, "properties": {"ftype": "station", "name": "Harbor & Flagstone Avenue", "tier": 1, "lines": ["Harbor Line"], "headway": "90 s"}}, {"type": "Feature", "geometry": {"type": "Point", "coordinates": [-117.919236, 33.761763]}, "properties": {"ftype": "station", "name": "Harbor & Figueroa Street", "tier": 1, "lines": ["Harbor Line"], "headway": "90 s"}}, {"type": "Feature", "geometry": {"type": "Point", "coordinates": [-117.919818, 33.753423]}, "properties": {"ftype": "station", "name": "Harbor 12", "tier": 1, "lines": ["Harbor Line"], "headway": "90 s"}}, {"type": "Feature", "geometry": {"type": "Point", "coordinates": [-117.920245, 33.737427]}, "properties": {"ftype": "station", "name": "Harbor & McFadden Avenue", "tier": 1, "lines": ["Harbor Line"], "headway": "90 s"}}, {"type": "Feature", "geometry": {"type": "Point", "coordinates": [-117.920243, 33.729783]}, "properties": {"ftype": "station", "name": "Harbor 14", "tier": 1, "lines": ["Harbor Line"], "headway": "90 s"}}, {"type": "Feature", "geometry": {"type": "Point", "coordinates": [-117.920237, 33.72214]}, "properties": {"ftype": "station", "name": "Harbor & Mount Michaelis Circle", "tier": 1, "lines": ["Harbor Line"], "headway": "90 s"}}, {"type": "Feature", "geometry": {"type": "Point", "coordinates": [-117.920042, 33.714498]}, "properties": {"ftype": "station", "name": "Harbor & Warner Avenue", "tier": 1, "lines": ["Harbor Line"], "headway": "90 s"}}, {"type": "Feature", "geometry": {"type": "Point", "coordinates": [-117.919795, 33.706857]}, "properties": {"ftype": "station", "name": "Harbor & Carriage Drive", "tier": 1, "lines": ["Harbor Line"], "headway": "90 s"}}, {"type": "Feature", "geometry": {"type": "Point", "coordinates": [-117.868032, 33.707675]}, "properties": {"ftype": "station", "name": "Main 1", "tier": 1, "lines": ["Main Line"], "headway": "90 s"}}, {"type": "Feature", "geometry": {"type": "Point", "coordinates": [-117.867909, 33.715221]}, "properties": {"ftype": "station", "name": "Main & Flora Street", "tier": 1, "lines": ["Main Line"], "headway": "90 s"}}, {"type": "Feature", "geometry": {"type": "Point", "coordinates": [-117.867787, 33.722767]}, "properties": {"ftype": "station", "name": "Main & Saint Andrew Place", "tier": 1, "lines": ["Main Line"], "headway": "90 s"}}, {"type": "Feature", "geometry": {"type": "Point", "coordinates": [-117.867665, 33.730313]}, "properties": {"ftype": "station", "name": "Main & Wilshire Avenue", "tier": 1, "lines": ["Main Line"], "headway": "90 s"}}, {"type": "Feature", "geometry": {"type": "Point", "coordinates": [-117.867542, 33.737859]}, "properties": {"ftype": "station", "name": "Main & Richland Street", "tier": 1, "lines": ["Main Line"], "headway": "90 s"}}, {"type": "Feature", "geometry": {"type": "Point", "coordinates": [-117.867295, 33.752481]}, "properties": {"ftype": "station", "name": "Main & 9th Street", "tier": 1, "lines": ["Main Line"], "headway": "90 s"}}, {"type": "Feature", "geometry": {"type": "Point", "coordinates": [-117.867008, 33.767063]}, "properties": {"ftype": "station", "name": "Main & Santa Ana Freeway", "tier": 1, "lines": ["Main Line"], "headway": "90 s"}}, {"type": "Feature", "geometry": {"type": "Point", "coordinates": [-117.86686, 33.774569]}, "properties": {"ftype": "station", "name": "Main 8", "tier": 1, "lines": ["Main Line"], "headway": "90 s"}}, {"type": "Feature", "geometry": {"type": "Point", "coordinates": [-117.866712, 33.782075]}, "properties": {"ftype": "station", "name": "Main & Stewart Drive", "tier": 1, "lines": ["Main Line"], "headway": "90 s"}}, {"type": "Feature", "geometry": {"type": "Point", "coordinates": [-117.88537, 33.709129]}, "properties": {"ftype": "station", "name": "Bristol & Hemlock Way", "tier": 1, "lines": ["Bristol Line"], "headway": "90 s"}}, {"type": "Feature", "geometry": {"type": "Point", "coordinates": [-117.885232, 33.718174]}, "properties": {"ftype": "station", "name": "Bristol & Magnolia Avenue", "tier": 1, "lines": ["Bristol Line"], "headway": "90 s"}}, {"type": "Feature", "geometry": {"type": "Point", "coordinates": [-117.885093, 33.727218]}, "properties": {"ftype": "station", "name": "Bristol & Edinger Avenue", "tier": 1, "lines": ["Bristol Line"], "headway": "90 s"}}, {"type": "Feature", "geometry": {"type": "Point", "coordinates": [-117.884954, 33.736263]}, "properties": {"ftype": "station", "name": "Bristol & Brook Street", "tier": 1, "lines": ["Bristol Line"], "headway": "90 s"}}, {"type": "Feature", "geometry": {"type": "Point", "coordinates": [-117.884588, 33.752504]}, "properties": {"ftype": "station", "name": "Bristol & 9th Street", "tier": 1, "lines": ["Bristol Line"], "headway": "90 s"}}, {"type": "Feature", "geometry": {"type": "Point", "coordinates": [-117.884207, 33.766254]}, "properties": {"ftype": "station", "name": "Bristol & Santa Clara Avenue", "tier": 1, "lines": ["Bristol Line"], "headway": "90 s"}}, {"type": "Feature", "geometry": {"type": "Point", "coordinates": [-117.883847, 33.772801]}, "properties": {"ftype": "station", "name": "Bristol & Greenbrier Street", "tier": 1, "lines": ["Bristol Line"], "headway": "90 s"}}, {"type": "Feature", "geometry": {"type": "Point", "coordinates": [-117.889537, 33.862409]}, "properties": {"ftype": "station", "name": "State College & Kimberly Avenue", "tier": 1, "lines": ["State College Line"], "headway": "90 s"}}, {"type": "Feature", "geometry": {"type": "Point", "coordinates": [-117.889491, 33.854256]}, "properties": {"ftype": "station", "name": "State College & Riverside Freeway", "tier": 1, "lines": ["State College Line"], "headway": "90 s"}}, {"type": "Feature", "geometry": {"type": "Point", "coordinates": [-117.889445, 33.846104]}, "properties": {"ftype": "station", "name": "State College & Sycamore Street", "tier": 1, "lines": ["State College Line"], "headway": "90 s"}}, {"type": "Feature", "geometry": {"type": "Point", "coordinates": [-117.88943, 33.829508]}, "properties": {"ftype": "station", "name": "State College & Morava Avenue", "tier": 1, "lines": ["State College Line"], "headway": "90 s"}}, {"type": "Feature", "geometry": {"type": "Point", "coordinates": [-117.889444, 33.821065]}, "properties": {"ftype": "station", "name": "State College & Verde Street", "tier": 1, "lines": ["State College Line"], "headway": "90 s"}}, {"type": "Feature", "geometry": {"type": "Point", "coordinates": [-117.889475, 33.812621]}, "properties": {"ftype": "station", "name": "State College 6", "tier": 1, "lines": ["State College Line"], "headway": "90 s"}}, {"type": "Feature", "geometry": {"type": "Point", "coordinates": [-117.991398, 33.831991]}, "properties": {"ftype": "station", "name": "Lincoln & Laxore Street", "tier": 1, "lines": ["Lincoln Line"], "headway": "90 s"}}, {"type": "Feature", "geometry": {"type": "Point", "coordinates": [-117.834101, 33.835001]}, "properties": {"ftype": "station", "name": "Lincoln & Nohl Ranch Road", "tier": 1, "lines": ["Lincoln Line"], "headway": "90 s"}}, {"type": "Feature", "geometry": {"type": "Point", "coordinates": [-117.990683, 33.802933]}, "properties": {"ftype": "station", "name": "Katella & Chester Avenue", "tier": 1, "lines": ["Katella Line"], "headway": "90 s"}}, {"type": "Feature", "geometry": {"type": "Point", "coordinates": [-117.821977, 33.810396]}, "properties": {"ftype": "station", "name": "Katella & Wanda Road", "tier": 1, "lines": ["Katella Line"], "headway": "90 s"}}, {"type": "Feature", "geometry": {"type": "Point", "coordinates": [-117.902713, 33.759854]}, "properties": {"ftype": "station", "name": "17th St & Fairview Street", "tier": 1, "lines": ["17th St Line"], "headway": "90 s"}}, {"type": "Feature", "geometry": {"type": "Point", "coordinates": [-117.802226, 33.758793]}, "properties": {"ftype": "station", "name": "17th St & El Camino Lane", "tier": 1, "lines": ["17th St Line"], "headway": "90 s"}}, {"type": "Feature", "geometry": {"type": "Point", "coordinates": [-117.942261, 33.745012]}, "properties": {"ftype": "station", "name": "1st St & Starboard Street", "tier": 1, "lines": ["1st St Line"], "headway": "90 s"}}, {"type": "Feature", "geometry": {"type": "Point", "coordinates": [-117.808523, 33.740873]}, "properties": {"ftype": "station", "name": "1st St & Red Hill Avenue", "tier": 1, "lines": ["1st St Line"], "headway": "90 s"}}, {"type": "Feature", "geometry": {"type": "Point", "coordinates": [-117.924319, 33.870282]}, "properties": {"ftype": "station", "name": "Harbor & Commonwealth Avenue", "tier": 1, "lines": ["Harbor Line"], "headway": "90 s"}}, {"type": "Feature", "geometry": {"type": "Point", "coordinates": [-117.919443, 33.699219]}, "properties": {"ftype": "station", "name": "Harbor & Lake Center Drive", "tier": 1, "lines": ["Harbor Line"], "headway": "90 s"}}, {"type": "Feature", "geometry": {"type": "Point", "coordinates": [-117.868154, 33.700129]}, "properties": {"ftype": "station", "name": "Main & MacArthur Boulevard", "tier": 1, "lines": ["Main Line"], "headway": "90 s"}}, {"type": "Feature", "geometry": {"type": "Point", "coordinates": [-117.866564, 33.789581]}, "properties": {"ftype": "station", "name": "Main & Little Main Street", "tier": 1, "lines": ["Main Line"], "headway": "90 s"}}, {"type": "Feature", "geometry": {"type": "Point", "coordinates": [-117.885509, 33.700084]}, "properties": {"ftype": "station", "name": "Bristol & MacArthur Boulevard", "tier": 1, "lines": ["Bristol Line"], "headway": "90 s"}}, {"type": "Feature", "geometry": {"type": "Point", "coordinates": [-117.883315, 33.779341]}, "properties": {"ftype": "station", "name": "Bristol & La Veta Avenue", "tier": 1, "lines": ["Bristol Line"], "headway": "90 s"}}, {"type": "Feature", "geometry": {"type": "Point", "coordinates": [-117.889583, 33.870562]}, "properties": {"ftype": "station", "name": "State College & Commonwealth Avenue", "tier": 1, "lines": ["State College Line"], "headway": "90 s"}}, {"type": "Feature", "geometry": {"type": "Point", "coordinates": [-117.889715, 33.792636]}, "properties": {"ftype": "station", "name": "State College & Anaheim Way", "tier": 1, "lines": ["State College Line"], "headway": "90 s"}}, {"type": "Feature", "geometry": {"type": "LineString", "coordinates": [[-117.991398, 33.831991], [-117.96571, 33.832275], [-117.945929, 33.83246], [-117.933843, 33.832692], [-117.926523, 33.833189], [-117.921658, 33.834731], [-117.918007, 33.836395], [-117.915291, 33.838022], [-117.912655, 33.838067], [-117.908339, 33.838202], [-117.900011, 33.837976], [-117.888044, 33.837948], [-117.873756, 33.837063], [-117.862231, 33.83579], [-117.854589, 33.829584], [-117.851902, 33.818455], [-117.850618, 33.807549], [-117.849119, 33.807319], [-117.845875, 33.817779], [-117.842136, 33.82909], [-117.838094, 33.834785], [-117.834101, 33.835001]]}, "properties": {"ftype": "line", "id": "oc-Lincoln", "name": "Lincoln Line", "tier": 1, "headway": "90 s"}}, {"type": "Feature", "geometry": {"type": "LineString", "coordinates": [[-117.990683, 33.802933], [-117.967172, 33.803005], [-117.944593, 33.80308], [-117.924137, 33.803244], [-117.904072, 33.803614], [-117.891058, 33.804257], [-117.8843, 33.8039], [-117.878924, 33.805953], [-117.873871, 33.806882], [-117.8665, 33.807873], [-117.856729, 33.808742], [-117.843725, 33.809437], [-117.83209, 33.809948], [-117.821977, 33.810396]]}, "properties": {"ftype": "line", "id": "oc-Katella", "name": "Katella Line", "tier": 1, "headway": "90 s"}}, {"type": "Feature", "geometry": {"type": "LineString", "coordinates": [[-117.902713, 33.759854], [-117.848318, 33.759399], [-117.802226, 33.758793]]}, "properties": {"ftype": "line", "id": "oc-17th St", "name": "17th St Line", "tier": 1, "headway": "90 s"}}, {"type": "Feature", "geometry": {"type": "LineString", "coordinates": [[-117.942261, 33.745012], [-117.919768, 33.745069], [-117.905021, 33.745128], [-117.889658, 33.745275], [-117.869832, 33.745407], [-117.842012, 33.745386], [-117.82277, 33.744726], [-117.811683, 33.743168], [-117.808523, 33.740873]]}, "properties": {"ftype": "line", "id": "oc-1st St", "name": "1st St Line", "tier": 1, "headway": "90 s"}}, {"type": "Feature", "geometry": {"type": "LineString", "coordinates": [[-117.924319, 33.870282], [-117.921231, 33.848136], [-117.918163, 33.826253], [-117.916202, 33.807634], [-117.915745, 33.790515], [-117.916936, 33.780487], [-117.918537, 33.769247], [-117.919738, 33.75639], [-117.920245, 33.737696], [-117.920242, 33.722324], [-117.919912, 33.709397], [-117.919443, 33.699219]]}, "properties": {"ftype": "line", "id": "oc-Harbor", "name": "Harbor Line", "tier": 1, "headway": "90 s"}}, {"type": "Feature", "geometry": {"type": "LineString", "coordinates": [[-117.868154, 33.700129], [-117.867353, 33.749537], [-117.866564, 33.789581]]}, "properties": {"ftype": "line", "id": "oc-Main", "name": "Main Line", "tier": 1, "headway": "90 s"}}, {"type": "Feature", "geometry": {"type": "LineString", "coordinates": [[-117.885509, 33.700084], [-117.88485, 33.743048], [-117.884118, 33.769467], [-117.883315, 33.779341]]}, "properties": {"ftype": "line", "id": "oc-Bristol", "name": "Bristol Line", "tier": 1, "headway": "90 s"}}, {"type": "Feature", "geometry": {"type": "LineString", "coordinates": [[-117.889583, 33.870562], [-117.889412, 33.840264], [-117.889455, 33.814288], [-117.889715, 33.792636]]}, "properties": {"ftype": "line", "id": "oc-State College", "name": "State College Line", "tier": 1, "headway": "90 s"}}]}
