{"type": "FeatureCollection", "features": [{"type": "Feature", "geometry": {"type": "LineString", "coordinates": [[-122.509336, 37.778979], [-122.508416, 37.77902], [-122.507601, 37.779056], [-122.506919, 37.779086], [-122.506237, 37.779118], [-122.505557, 37.779149], [-122.504789, 37.779203], [-122.503933, 37.779271], [-122.503005, 37.779346], [-122.502139, 37.779383], [-122.501387, 37.779392], [-122.500745, 37.77939], [-122.500105, 37.779402], [-122.499427, 37.779429], [-122.498709, 37.779462], [-122.497982, 37.779496], [-122.497262, 37.779529], [-122.496424, 37.779568], [-122.495517, 37.779617], [-122.494619, 37.779666], [-122.493852, 37.779706], [-122.493212, 37.779729], [-122.492584, 37.779747], [-122.491942, 37.779763], [-122.49124, 37.77979], [-122.49052, 37.779823], [-122.48979, 37.779858], [-122.489073, 37.779889], [-122.488371, 37.779915], [-122.487714, 37.779949], [-122.487039, 37.779986], [-122.486357, 37.780024], [-122.485673, 37.780056], [-122.485007, 37.780085], [-122.484374, 37.780114], [-122.483714, 37.780146], [-122.483045, 37.780177], [-122.482374, 37.780216], [-122.481706, 37.780252], [-122.481032, 37.780288], [-122.480318, 37.78031], [-122.479584, 37.780335], [-122.478862, 37.780359], [-122.478186, 37.780396], [-122.477527, 37.780429], [-122.476857, 37.780465], [-122.47617, 37.780494], [-122.475477, 37.780522], [-122.474832, 37.780554], [-122.474143, 37.780591], [-122.473479, 37.78063], [-122.472772, 37.780663], [-122.472115, 37.780694], [-122.471436, 37.780722], [-122.470777, 37.780744], [-122.470087, 37.780769], [-122.469377, 37.780797], [-122.46865, 37.78083], [-122.467937, 37.78086], [-122.467268, 37.780886], [-122.466585, 37.78092], [-122.465905, 37.780954], [-122.465242, 37.780992], [-122.464597, 37.781022], [-122.463972, 37.781052], [-122.463282, 37.781077], [-122.462599, 37.781103], [-122.461915, 37.781134], [-122.461274, 37.781165], [-122.46061, 37.781203], [-122.459919, 37.781232], [-122.459198, 37.781263], [-122.458513, 37.781287], [-122.45782, 37.781317], [-122.457132, 37.781351], [-122.45644, 37.781391], [-122.455772, 37.781437], [-122.455114, 37.781493], [-122.45443, 37.781566], [-122.453725, 37.781652], [-122.453022, 37.781743], [-122.45233, 37.781832], [-122.451647, 37.78192], [-122.450972, 37.782009], [-122.450296, 37.782097], [-122.449636, 37.782181], [-122.448965, 37.782257], [-122.448303, 37.782325], [-122.447655, 37.782381], [-122.447029, 37.782429], [-122.446358, 37.782478], [-122.445664, 37.782539], [-122.444944, 37.782612], [-122.444278, 37.782696], [-122.443609, 37.782788], [-122.442897, 37.782881], [-122.442206, 37.782966], [-122.441519, 37.783035], [-122.440908, 37.783109], [-122.440232, 37.783197], [-122.439565, 37.78332], [-122.438892, 37.783458], [-122.438272, 37.783607], [-122.437641, 37.783745], [-122.436972, 37.783859], [-122.436245, 37.783954], [-122.435542, 37.784027], [-122.434873, 37.784128], [-122.434257, 37.784225], [-122.433589, 37.784319], [-122.432869, 37.784377], [-122.432127, 37.784438], [-122.431425, 37.784524], [-122.430772, 37.784619], [-122.430127, 37.784703], [-122.429475, 37.78477], [-122.428791, 37.784841], [-122.428067, 37.784929], [-122.427378, 37.785017], [-122.426709, 37.785104], [-122.426095, 37.785192], [-122.425425, 37.785278], [-122.424767, 37.78535], [-122.424091, 37.785403], [-122.423442, 37.785457], [-122.422784, 37.785525], [-122.422125, 37.785605], [-122.42146, 37.785691], [-122.421252, 37.785713], [-122.420452, 37.785814], [-122.419544, 37.785929], [-122.41854, 37.786057], [-122.417669, 37.786167], [-122.416862, 37.78627], [-122.416173, 37.786357], [-122.415454, 37.786449], [-122.414778, 37.786535], [-122.414114, 37.786619], [-122.413474, 37.786701], [-122.412872, 37.786777], [-122.412111, 37.786874], [-122.411231, 37.786986], [-122.410215, 37.787115], [-122.409369, 37.787223], [-122.408667, 37.787314], [-122.408083, 37.787391], [-122.40745, 37.787472], [-122.406741, 37.787561], [-122.406055, 37.787645], [-122.405345, 37.787733], [-122.404713, 37.787812], [-122.404047, 37.787896], [-122.403413, 37.787976]]}, "properties": {"ftype": "line", "id": "sf-Geary", "name": "Geary Line", "tier": 1, "headway": "90 s"}}, {"type": "Feature", "geometry": {"type": "LineString", "coordinates": [[-122.510898, 37.771333], [-122.510322, 37.771371], [-122.509632, 37.77141], [-122.50879, 37.771451], [-122.507881, 37.771493], [-122.507027, 37.771532], [-122.506266, 37.771567], [-122.505574, 37.771599], [-122.504888, 37.77163], [-122.50428, 37.771657], [-122.503659, 37.771684], [-122.503027, 37.771713], [-122.502271, 37.771748], [-122.501496, 37.771784], [-122.500726, 37.77182], [-122.499967, 37.771855], [-122.499122, 37.771893], [-122.498238, 37.771934], [-122.497389, 37.771973], [-122.49663, 37.772007], [-122.495945, 37.772038], [-122.495266, 37.772069], [-122.494615, 37.772099], [-122.493928, 37.77213], [-122.493237, 37.772162], [-122.492486, 37.772196], [-122.491642, 37.772235], [-122.490765, 37.772275], [-122.489925, 37.772313], [-122.48919, 37.772346], [-122.488493, 37.772378], [-122.487796, 37.77241], [-122.487065, 37.772443], [-122.486239, 37.772481], [-122.485385, 37.772519], [-122.484554, 37.772557], [-122.483801, 37.772591], [-122.483058, 37.772624], [-122.482307, 37.772658], [-122.481639, 37.772689], [-122.481031, 37.772716], [-122.480443, 37.772743], [-122.479703, 37.772777], [-122.478813, 37.772817], [-122.477875, 37.77286], [-122.477016, 37.772899], [-122.476258, 37.772934], [-122.47557, 37.772965], [-122.474876, 37.772997], [-122.474148, 37.77303], [-122.473293, 37.77307], [-122.472313, 37.773114], [-122.47129, 37.773161], [-122.470335, 37.773204], [-122.469523, 37.77324], [-122.468834, 37.773271], [-122.46817, 37.773301], [-122.467499, 37.773331], [-122.466794, 37.773365], [-122.466101, 37.773404], [-122.4654, 37.773458], [-122.464739, 37.773522], [-122.464064, 37.773601], [-122.463399, 37.773685], [-122.462699, 37.773774], [-122.462016, 37.773861], [-122.461303, 37.773952], [-122.460487, 37.774054], [-122.459614, 37.77416], [-122.458757, 37.77426], [-122.457989, 37.774348], [-122.457283, 37.774433], [-122.456587, 37.77452], [-122.455949, 37.774601], [-122.455303, 37.774684], [-122.454655, 37.774766], [-122.453953, 37.774856], [-122.453229, 37.774948], [-122.452548, 37.775035], [-122.451806, 37.77513], [-122.451004, 37.775233], [-122.450047, 37.775355], [-122.449183, 37.775466], [-122.448409, 37.775565], [-122.447787, 37.775645], [-122.447167, 37.775724], [-122.44654, 37.775804], [-122.445919, 37.775883], [-122.445185, 37.775976], [-122.444275, 37.776092], [-122.443179, 37.776231], [-122.442038, 37.776377], [-122.441033, 37.776505], [-122.440067, 37.776628], [-122.439096, 37.776751], [-122.437993, 37.776892], [-122.436839, 37.777039], [-122.435702, 37.777183], [-122.434696, 37.777312], [-122.433712, 37.777437], [-122.432814, 37.777551], [-122.431831, 37.777677], [-122.431015, 37.77778], [-122.430246, 37.777878], [-122.429633, 37.777956], [-122.428972, 37.77804], [-122.428297, 37.778125], [-122.427623, 37.778211], [-122.426957, 37.778295], [-122.426326, 37.778375], [-122.42553, 37.778475], [-122.424565, 37.778598], [-122.422875, 37.778813], [-122.420736, 37.779088], [-122.418302, 37.779399], [-122.416585, 37.779617], [-122.415465, 37.779754]]}, "properties": {"ftype": "line", "id": "sf-Fulton", "name": "Fulton Line", "tier": 1, "headway": "90 s"}}, {"type": "Feature", "geometry": {"type": "LineString", "coordinates": [[-122.509003, 37.760295], [-122.508195, 37.760329], [-122.507437, 37.760361], [-122.506733, 37.760393], [-122.506056, 37.760427], [-122.505367, 37.760463], [-122.504691, 37.760488], [-122.50399, 37.760513], [-122.503322, 37.760539], [-122.502679, 37.760572], [-122.50204, 37.760604], [-122.501335, 37.760635], [-122.500491, 37.76067], [-122.499514, 37.76071], [-122.498484, 37.760752], [-122.497471, 37.760794], [-122.496605, 37.760833], [-122.495867, 37.760873], [-122.495237, 37.760908], [-122.494589, 37.760937], [-122.493896, 37.760965], [-122.493183, 37.760996], [-122.492469, 37.76103], [-122.491704, 37.761062], [-122.49086, 37.761097], [-122.490006, 37.761131], [-122.48922, 37.761164], [-122.488481, 37.761193], [-122.487763, 37.761221], [-122.487037, 37.761256], [-122.486293, 37.761295], [-122.485429, 37.761338], [-122.484502, 37.76138], [-122.483636, 37.761419], [-122.482887, 37.761454], [-122.482247, 37.761482], [-122.481585, 37.761511], [-122.480948, 37.76154], [-122.48027, 37.76157], [-122.479588, 37.7616], [-122.478864, 37.761625], [-122.478139, 37.761652], [-122.477421, 37.76168], [-122.47669, 37.761716], [-122.475844, 37.761757], [-122.474985, 37.761797], [-122.474145, 37.761835], [-122.473399, 37.761867], [-122.472544, 37.761905], [-122.471568, 37.761947], [-122.470495, 37.761995], [-122.46953, 37.762037], [-122.46869, 37.762074], [-122.467988, 37.762105], [-122.467298, 37.762137], [-122.466608, 37.762168], [-122.465912, 37.762199], [-122.465212, 37.762229], [-122.464511, 37.762259], [-122.463819, 37.762289], [-122.463152, 37.762318], [-122.462557, 37.762345], [-122.462007, 37.762369]]}, "properties": {"ftype": "line", "id": "sf-Judah", "name": "Judah Line", "tier": 1, "headway": "90 s"}}, {"type": "Feature", "geometry": {"type": "LineString", "coordinates": [[-122.506768, 37.741692], [-122.506083, 37.741722], [-122.505409, 37.741756], [-122.504721, 37.741792], [-122.504041, 37.741824], [-122.503336, 37.741855], [-122.50262, 37.741888], [-122.50191, 37.741923], [-122.501219, 37.741948], [-122.500552, 37.741972], [-122.499883, 37.741991], [-122.499233, 37.742016], [-122.498575, 37.742042], [-122.497866, 37.742079], [-122.497022, 37.74212], [-122.496104, 37.74216], [-122.495238, 37.742195], [-122.494503, 37.742227], [-122.493881, 37.742256], [-122.493258, 37.742283], [-122.492561, 37.742313], [-122.491825, 37.742345], [-122.49108, 37.742378], [-122.490361, 37.74241], [-122.489523, 37.742447], [-122.48855, 37.74249], [-122.487475, 37.742537], [-122.486503, 37.74258], [-122.485678, 37.742616], [-122.484975, 37.742647], [-122.484287, 37.742678], [-122.483589, 37.742708], [-122.482847, 37.742741], [-122.482004, 37.742781], [-122.481097, 37.742824], [-122.480242, 37.742865], [-122.479484, 37.742895], [-122.478829, 37.742919], [-122.478178, 37.742944], [-122.477531, 37.742974], [-122.47684, 37.743006], [-122.476124, 37.74304], [-122.475424, 37.743065], [-122.474738, 37.743088], [-122.474061, 37.743107], [-122.473312, 37.743143], [-122.472429, 37.743187], [-122.471523, 37.743235], [-122.470661, 37.743275], [-122.469956, 37.743308], [-122.469256, 37.74334], [-122.468575, 37.743375], [-122.467913, 37.743415], [-122.467272, 37.743463], [-122.466647, 37.743512], [-122.465939, 37.74357], [-122.465257, 37.743627], [-122.46459, 37.743682], [-122.463996, 37.743732]]}, "properties": {"ftype": "line", "id": "sf-Taraval", "name": "Taraval Line", "tier": 1, "headway": "90 s"}}, {"type": "Feature", "geometry": {"type": "LineString", "coordinates": [[-122.495103, 37.731856], [-122.494254, 37.731894], [-122.493498, 37.731927], [-122.492807, 37.731957], [-122.492137, 37.731987], [-122.491398, 37.732019], [-122.490605, 37.732054], [-122.489781, 37.73209], [-122.48902, 37.732124], [-122.488347, 37.732153], [-122.487746, 37.73218], [-122.487068, 37.73221], [-122.48629, 37.732244], [-122.485428, 37.732282], [-122.48465, 37.732316], [-122.483957, 37.732346], [-122.483343, 37.732373], [-122.482653, 37.732404], [-122.481902, 37.732437], [-122.481093, 37.732472], [-122.480332, 37.732506], [-122.479602, 37.732538], [-122.478923, 37.732567], [-122.478228, 37.732598], [-122.477537, 37.732628], [-122.476821, 37.732654], [-122.476118, 37.732638], [-122.475444, 37.732544], [-122.474799, 37.732355], [-122.4742, 37.732112], [-122.473595, 37.731842], [-122.472993, 37.731569], [-122.472359, 37.731283], [-122.471751, 37.731011], [-122.471157, 37.730749], [-122.470565, 37.73049], [-122.469954, 37.730223], [-122.469331, 37.729907], [-122.468751, 37.729505], [-122.468216, 37.72898], [-122.467727, 37.728391], [-122.467234, 37.727818], [-122.466712, 37.727321], [-122.466154, 37.726912], [-122.465562, 37.726574], [-122.464951, 37.7263], [-122.464296, 37.726048], [-122.463644, 37.725805], [-122.463002, 37.725556], [-122.46242, 37.725335], [-122.461808, 37.725136], [-122.461165, 37.724969], [-122.460471, 37.724813], [-122.4598, 37.724664], [-122.459166, 37.724523], [-122.458555, 37.72439], [-122.457954, 37.724267], [-122.457319, 37.724136], [-122.456665, 37.723993], [-122.455989, 37.723843], [-122.455314, 37.723696], [-122.45463, 37.723558], [-122.453965, 37.723418], [-122.453301, 37.723276], [-122.452671, 37.723141], [-122.452004, 37.723043], [-122.451305, 37.722997], [-122.450555, 37.722986], [-122.449796, 37.722982], [-122.449033, 37.722972], [-122.448292, 37.722964], [-122.447613, 37.722964], [-122.446909, 37.72297], [-122.44612, 37.722975], [-122.445157, 37.722986], [-122.444217, 37.72302], [-122.443238, 37.723094], [-122.442246, 37.723202], [-122.441109, 37.723333], [-122.440019, 37.72346], [-122.439032, 37.723568], [-122.43822, 37.723649], [-122.437455, 37.723716], [-122.436745, 37.723775], [-122.436064, 37.723828], [-122.435437, 37.723874], [-122.452317, 37.723066], [-122.451903, 37.722888], [-122.451405, 37.722663], [-122.450814, 37.722388], [-122.450213, 37.722129], [-122.449629, 37.721888], [-122.449054, 37.72166], [-122.448447, 37.721415], [-122.44783, 37.72117], [-122.447141, 37.720899], [-122.446274, 37.720494], [-122.445245, 37.719937], [-122.44421, 37.719263], [-122.443415, 37.718688], [-122.442798, 37.718192], [-122.442314, 37.717791], [-122.441826, 37.717351], [-122.441354, 37.716913], [-122.440831, 37.716465], [-122.440282, 37.716094], [-122.439718, 37.715789], [-122.439175, 37.715546], [-122.438593, 37.715284], [-122.43799, 37.715013], [-122.437386, 37.714737], [-122.4368, 37.714477], [-122.436235, 37.714227], [-122.435664, 37.713974], [-122.435093, 37.713723], [-122.434474, 37.713467], [-122.433817, 37.713233], [-122.433138, 37.713036], [-122.432388, 37.712864], [-122.431542, 37.712691], [-122.430607, 37.712498], [-122.429744, 37.7123], [-122.429024, 37.712096], [-122.428398, 37.711866], [-122.427808, 37.711615], [-122.4272, 37.711358], [-122.42662, 37.711127], [-122.426029, 37.710891], [-122.425465, 37.71063], [-122.424917, 37.710311], [-122.424393, 37.709958], [-122.423865, 37.709613], [-122.42331, 37.709318], [-122.422747, 37.709089], [-122.422136, 37.708893], [-122.421492, 37.708708], [-122.420768, 37.708506], [-122.419992, 37.708289], [-122.419178, 37.708062], [-122.418354, 37.707832], [-122.41757, 37.707612], [-122.416835, 37.707405], [-122.416161, 37.707217], [-122.415522, 37.707036], [-122.414888, 37.706862], [-122.414245, 37.706679], [-122.413569, 37.706492], [-122.412909, 37.706302], [-122.412285, 37.706128], [-122.411634, 37.705945], [-122.410851, 37.705728], [-122.409917, 37.705467], [-122.409007, 37.705219], [-122.408238, 37.70501], [-122.407627, 37.704842], [-122.407084, 37.704681]]}, "properties": {"ftype": "line", "id": "sf-Ocean\u2013Geneva", "name": "Ocean\u2013Geneva Line", "tier": 1, "headway": "90 s"}}, {"type": "Feature", "geometry": {"type": "LineString", "coordinates": [[-122.493437, 37.783505], [-122.492711, 37.78354], [-122.492003, 37.783573], [-122.491335, 37.783604], [-122.490649, 37.783635], [-122.489959, 37.783666], [-122.489262, 37.783698], [-122.488564, 37.78373], [-122.487858, 37.783762], [-122.487155, 37.783794], [-122.486457, 37.783825], [-122.485757, 37.783857], [-122.484923, 37.783895], [-122.484028, 37.783936], [-122.483143, 37.783976], [-122.482378, 37.784011], [-122.481711, 37.784041], [-122.481044, 37.784071], [-122.48038, 37.784101], [-122.479674, 37.784133], [-122.478968, 37.784166], [-122.478241, 37.784198], [-122.477406, 37.784236], [-122.476445, 37.78428], [-122.475378, 37.784329], [-122.474378, 37.784374], [-122.473516, 37.784414], [-122.472782, 37.784449], [-122.472108, 37.78448], [-122.471413, 37.784511], [-122.470724, 37.784541], [-122.470033, 37.784571], [-122.469357, 37.784602], [-122.468708, 37.784632], [-122.468037, 37.784662], [-122.467384, 37.784699], [-122.466713, 37.784749], [-122.466053, 37.784818], [-122.465399, 37.784897], [-122.464736, 37.784982], [-122.464057, 37.785069], [-122.463383, 37.785155], [-122.46271, 37.785241], [-122.462042, 37.785326], [-122.46135, 37.785414], [-122.460647, 37.785503], [-122.460013, 37.785584], [-122.459367, 37.785666], [-122.458715, 37.785749], [-122.458, 37.78584], [-122.4573, 37.78593], [-122.456616, 37.786017], [-122.455917, 37.786106], [-122.455206, 37.786196], [-122.454526, 37.786282], [-122.453798, 37.786374], [-122.452936, 37.786482], [-122.451892, 37.786614], [-122.45078, 37.786757], [-122.449768, 37.786888], [-122.448813, 37.787013], [-122.448032, 37.787114], [-122.447279, 37.787211], [-122.446649, 37.787292], [-122.445872, 37.787392], [-122.445068, 37.787496], [-122.444102, 37.78762], [-122.443284, 37.787726], [-122.442453, 37.787833], [-122.441791, 37.787918], [-122.440963, 37.788022], [-122.44018, 37.788117], [-122.439243, 37.788231], [-122.438463, 37.788326], [-122.437583, 37.788437], [-122.436764, 37.788541], [-122.435809, 37.788662], [-122.434998, 37.788765], [-122.43426, 37.788859], [-122.433656, 37.788935], [-122.432871, 37.789036], [-122.431836, 37.789167], [-122.430456, 37.789342], [-122.4291, 37.789515], [-122.427834, 37.789676], [-122.426749, 37.789814], [-122.425639, 37.789955], [-122.424585, 37.790085], [-122.423699, 37.790195], [-122.422935, 37.790291], [-122.422244, 37.790386], [-122.421506, 37.790485], [-122.420761, 37.790581], [-122.419965, 37.790679], [-122.419105, 37.790786], [-122.418252, 37.790894], [-122.41748, 37.790992], [-122.416831, 37.791073], [-122.416154, 37.791159], [-122.41539, 37.791257], [-122.414483, 37.791373], [-122.413677, 37.791477], [-122.412948, 37.79157], [-122.412333, 37.791649], [-122.411658, 37.791734], [-122.410927, 37.791827], [-122.410196, 37.79192], [-122.409495, 37.79201], [-122.408868, 37.79209], [-122.408214, 37.792173], [-122.407518, 37.792261], [-122.406794, 37.792352], [-122.406053, 37.792446], [-122.405358, 37.792535], [-122.40467, 37.792623], [-122.40405, 37.792701], [-122.403414, 37.792781], [-122.402731, 37.792867], [-122.401928, 37.792969], [-122.400996, 37.793087], [-122.399948, 37.79322], [-122.398942, 37.793347], [-122.39804, 37.793461], [-122.397253, 37.793563], [-122.396468, 37.793666]]}, "properties": {"ftype": "line", "id": "sf-California", "name": "California Line", "tier": 1, "headway": "90 s"}}, {"type": "Feature", "geometry": {"type": "LineString", "coordinates": [[-122.44679, 37.795661], [-122.445504, 37.795824], [-122.444326, 37.795974], [-122.443248, 37.796111], [-122.442138, 37.796252], [-122.441023, 37.796394], [-122.439915, 37.796535], [-122.43881, 37.796675], [-122.437764, 37.796809], [-122.436869, 37.796922], [-122.43599, 37.797034], [-122.435175, 37.797138], [-122.434283, 37.797252], [-122.433544, 37.797345], [-122.432773, 37.797443], [-122.432053, 37.797535], [-122.43131, 37.797629], [-122.430614, 37.797717], [-122.429971, 37.797799], [-122.429242, 37.797892], [-122.428501, 37.797986], [-122.427597, 37.798101], [-122.426784, 37.798205], [-122.425967, 37.798308], [-122.425306, 37.798392], [-122.424529, 37.798491], [-122.423751, 37.79859], [-122.422784, 37.798714], [-122.421886, 37.798832], [-122.420891, 37.798965], [-122.419985, 37.799085], [-122.419044, 37.799207], [-122.418174, 37.799318], [-122.417353, 37.799421], [-122.416582, 37.799519], [-122.415838, 37.799613], [-122.415147, 37.7997], [-122.414465, 37.799786], [-122.413841, 37.799865], [-122.413142, 37.799954], [-122.41244, 37.800043], [-122.41172, 37.800134], [-122.411079, 37.800215], [-122.41048, 37.800289], [-122.409851, 37.800365], [-122.409156, 37.80045], [-122.408399, 37.800544], [-122.407663, 37.800636], [-122.407, 37.800719], [-122.406434, 37.800789], [-122.405874, 37.80086], [-122.40525, 37.800938], [-122.404506, 37.801036], [-122.403763, 37.801138], [-122.403034, 37.80124], [-122.402329, 37.801328], [-122.401478, 37.801423], [-122.400502, 37.801526]]}, "properties": {"ftype": "line", "id": "sf-Union", "name": "Union Line", "tier": 1, "headway": "90 s"}}, {"type": "Feature", "geometry": {"type": "LineString", "coordinates": [[-122.443338, 37.750185], [-122.443192, 37.750779], [-122.443048, 37.751383], [-122.442899, 37.751971], [-122.442749, 37.752567], [-122.442551, 37.753165], [-122.442309, 37.753762], [-122.442024, 37.75432], [-122.441954, 37.755007], [-122.442169, 37.755902], [-122.442807, 37.757156], [-122.44338, 37.758401], [-122.443745, 37.759512], [-122.443577, 37.760228], [-122.443203, 37.760675], [-122.442582, 37.760907], [-122.441874, 37.761032], [-122.441007, 37.761132], [-122.440167, 37.761252], [-122.439421, 37.761421], [-122.438739, 37.761604], [-122.438048, 37.761773], [-122.437276, 37.761943], [-122.436533, 37.762141], [-122.435847, 37.76239], [-122.435235, 37.762698], [-122.434658, 37.763048], [-122.434102, 37.763423], [-122.433614, 37.76379], [-122.433159, 37.764161], [-122.432703, 37.764535], [-122.432212, 37.764919], [-122.43171, 37.765306], [-122.431244, 37.765682], [-122.430793, 37.766059], [-122.43032, 37.766439], [-122.429815, 37.766826], [-122.429312, 37.767215], [-122.428859, 37.767586], [-122.42841, 37.767949], [-122.427949, 37.768309], [-122.427444, 37.768695], [-122.42694, 37.769094], [-122.426441, 37.769498], [-122.425947, 37.76989], [-122.425452, 37.770277], [-122.424965, 37.770661], [-122.424487, 37.771043], [-122.424012, 37.77142], [-122.423532, 37.771797], [-122.423053, 37.772171], [-122.422583, 37.772546], [-122.422126, 37.772921], [-122.421683, 37.773294], [-122.421209, 37.773675], [-122.420691, 37.774075], [-122.420155, 37.774481], [-122.419638, 37.774876], [-122.419141, 37.77527], [-122.418643, 37.775667], [-122.418161, 37.776061], [-122.417682, 37.776435], [-122.417211, 37.776802], [-122.41668, 37.777204], [-122.416116, 37.77764], [-122.415518, 37.778114], [-122.414927, 37.7786], [-122.414368, 37.779054], [-122.413794, 37.779497], [-122.413282, 37.779885], [-122.412786, 37.780275], [-122.412352, 37.78062], [-122.411878, 37.780987], [-122.411395, 37.78135], [-122.410923, 37.781725], [-122.410477, 37.782099], [-122.410027, 37.782475], [-122.409547, 37.782855], [-122.409054, 37.783234], [-122.408556, 37.783623], [-122.408041, 37.784036], [-122.407509, 37.784453], [-122.406989, 37.784852], [-122.406508, 37.785223], [-122.406064, 37.785585], [-122.40562, 37.785952], [-122.405139, 37.786328], [-122.40462, 37.786722], [-122.404098, 37.787121], [-122.403605, 37.787522], [-122.403144, 37.7879], [-122.402697, 37.78826], [-122.402251, 37.788612], [-122.401796, 37.788975], [-122.401302, 37.78937], [-122.400777, 37.789782], [-122.400241, 37.790195], [-122.399747, 37.790579], [-122.399288, 37.790948], [-122.398875, 37.791285], [-122.398427, 37.79164], [-122.397965, 37.791991], [-122.397443, 37.792385], [-122.396939, 37.792774], [-122.396453, 37.79317], [-122.395982, 37.793557], [-122.395513, 37.793937], [-122.395018, 37.794324], [-122.394519, 37.794709]]}, "properties": {"ftype": "line", "id": "sf-Market", "name": "Market Line", "tier": 1, "headway": "90 s"}}, {"type": "Feature", "geometry": {"type": "LineString", "coordinates": [[-122.437077, 37.763782], [-122.436101, 37.763975], [-122.43494, 37.764119], [-122.433638, 37.764213], [-122.432539, 37.764272], [-122.431647, 37.764322], [-122.430921, 37.764367], [-122.430197, 37.764412], [-122.429544, 37.764452], [-122.428913, 37.764492], [-122.428256, 37.764532], [-122.427285, 37.764592], [-122.426021, 37.764669], [-122.424554, 37.764758], [-122.423284, 37.764834], [-122.422266, 37.764891], [-122.421493, 37.764929], [-122.420789, 37.764965], [-122.420138, 37.765005], [-122.419468, 37.765055], [-122.418783, 37.765103], [-122.418069, 37.765153], [-122.417402, 37.765196], [-122.416734, 37.76524], [-122.415918, 37.76529], [-122.41491, 37.765353], [-122.413814, 37.765419], [-122.412895, 37.765473], [-122.412112, 37.765518], [-122.411392, 37.765561], [-122.41067, 37.765603], [-122.410014, 37.765641], [-122.409419, 37.765676], [-122.408778, 37.765713], [-122.408079, 37.765754], [-122.407335, 37.765799], [-122.406603, 37.765843], [-122.405894, 37.765888], [-122.405209, 37.76593], [-122.404533, 37.765966], [-122.403849, 37.766003], [-122.403175, 37.766041], [-122.402518, 37.766085], [-122.401858, 37.766129], [-122.401197, 37.76617], [-122.400494, 37.76621], [-122.399803, 37.76625], [-122.399111, 37.766294], [-122.398449, 37.766337], [-122.397771, 37.766383], [-122.397087, 37.766429], [-122.396405, 37.766474], [-122.395732, 37.766518], [-122.395055, 37.766561], [-122.39437, 37.766603], [-122.393696, 37.766643], [-122.393015, 37.766684], [-122.39234, 37.766725], [-122.391652, 37.766767], [-122.390967, 37.766808], [-122.390291, 37.76685], [-122.389611, 37.766893], [-122.38878, 37.766945], [-122.387639, 37.767017], [-122.386209, 37.767104]]}, "properties": {"ftype": "line", "id": "sf-16th St", "name": "16th St Line", "tier": 1, "headway": "90 s"}}, {"type": "Feature", "geometry": {"type": "LineString", "coordinates": [[-122.44276, 37.750774], [-122.441691, 37.750839], [-122.440623, 37.750904], [-122.439429, 37.750977], [-122.438186, 37.751053], [-122.436823, 37.751136], [-122.435671, 37.751206], [-122.434621, 37.751269], [-122.433805, 37.751319], [-122.433031, 37.751366], [-122.432308, 37.75141], [-122.431562, 37.751456], [-122.430688, 37.751509], [-122.429801, 37.751562], [-122.428932, 37.751615], [-122.428168, 37.751661], [-122.427335, 37.75171], [-122.426468, 37.751762], [-122.425592, 37.751815], [-122.424768, 37.751865], [-122.423841, 37.75192], [-122.422806, 37.751983], [-122.42174, 37.752047], [-122.420842, 37.752101], [-122.420096, 37.752146], [-122.41945, 37.752185], [-122.418773, 37.752226], [-122.418087, 37.752267], [-122.417405, 37.752307], [-122.416723, 37.752348], [-122.416012, 37.752391], [-122.415275, 37.752435], [-122.414552, 37.752479], [-122.413883, 37.752519], [-122.413204, 37.75256], [-122.412514, 37.752603], [-122.411754, 37.752649], [-122.410946, 37.752698], [-122.410084, 37.75275], [-122.409278, 37.752798], [-122.408564, 37.75284], [-122.40792, 37.75288], [-122.40725, 37.752927], [-122.406551, 37.752979], [-122.405849, 37.753031], [-122.405124, 37.75308], [-122.404434, 37.753124], [-122.403745, 37.753165], [-122.403107, 37.753201], [-122.402358, 37.753244], [-122.400439, 37.753362], [-122.397417, 37.753552], [-122.3934, 37.753804], [-122.390568, 37.753974], [-122.388824, 37.754072], [-122.388164, 37.754102], [-122.387486, 37.754138], [-122.386823, 37.754174], [-122.386073, 37.754212], [-122.385178, 37.754256], [-122.384134, 37.754307]]}, "properties": {"ftype": "line", "id": "sf-24th St", "name": "24th St Line", "tier": 1, "headway": "90 s"}}, {"type": "Feature", "geometry": {"type": "LineString", "coordinates": [[-122.496061, 37.765441], [-122.496008, 37.764492], [-122.495936, 37.763484], [-122.495862, 37.762583], [-122.495786, 37.761602], [-122.495721, 37.760478], [-122.495641, 37.759146], [-122.495557, 37.757796], [-122.495469, 37.756551], [-122.495382, 37.755311], [-122.495295, 37.75407], [-122.495205, 37.752815], [-122.495114, 37.751555], [-122.495015, 37.75032], [-122.494933, 37.749294], [-122.494857, 37.748287], [-122.494801, 37.747426], [-122.494739, 37.746383], [-122.494685, 37.745531], [-122.494629, 37.744524], [-122.494558, 37.743496], [-122.494474, 37.742256], [-122.49438, 37.741003], [-122.49429, 37.739748], [-122.494198, 37.7385], [-122.494113, 37.73729], [-122.49404, 37.736294], [-122.493978, 37.73534], [-122.493912, 37.734412], [-122.493828, 37.73319], [-122.493738, 37.731967], [-122.493649, 37.730801], [-122.493568, 37.729841]]}, "properties": {"ftype": "line", "id": "sf-Sunset", "name": "Sunset Line", "tier": 1, "headway": "90 s"}}, {"type": "Feature", "geometry": {"type": "LineString", "coordinates": [[-122.469485, 37.713977], [-122.469905, 37.714396], [-122.470381, 37.714878], [-122.4709, 37.715412], [-122.471458, 37.715988], [-122.47196, 37.716521], [-122.472445, 37.717034], [-122.472927, 37.717533], [-122.473514, 37.718117], [-122.474142, 37.718781], [-122.47471, 37.719497], [-122.475065, 37.72014], [-122.475213, 37.720708], [-122.475226, 37.721203], [-122.475214, 37.721744], [-122.475191, 37.722381], [-122.475164, 37.723161], [-122.475097, 37.724018], [-122.475031, 37.724823], [-122.474974, 37.725531], [-122.474957, 37.726118], [-122.474957, 37.726678], [-122.474954, 37.72721], [-122.47492, 37.727778], [-122.474859, 37.728344], [-122.474807, 37.728919], [-122.474789, 37.729452], [-122.474813, 37.729977], [-122.474846, 37.730562], [-122.47489, 37.731237], [-122.47494, 37.731948], [-122.474996, 37.732575], [-122.475048, 37.733156], [-122.475087, 37.733717], [-122.475118, 37.734331], [-122.475143, 37.734916], [-122.475173, 37.735508], [-122.475223, 37.736039], [-122.475279, 37.736564], [-122.475331, 37.737023], [-122.475366, 37.737521], [-122.475398, 37.738044], [-122.475433, 37.738623], [-122.475472, 37.739295], [-122.475521, 37.740124], [-122.475573, 37.741136], [-122.475627, 37.742103], [-122.47568, 37.742982], [-122.475732, 37.743697], [-122.475794, 37.744516], [-122.475847, 37.745298], [-122.475911, 37.746144], [-122.47596, 37.746811], [-122.476012, 37.747453], [-122.476044, 37.747959], [-122.476082, 37.748552], [-122.476119, 37.74916], [-122.476177, 37.749943], [-122.476226, 37.750708], [-122.476275, 37.751492], [-122.476316, 37.752206], [-122.476362, 37.752904], [-122.476426, 37.753758], [-122.476495, 37.754682], [-122.476575, 37.755688], [-122.476637, 37.756488], [-122.476682, 37.757113], [-122.476712, 37.757612], [-122.476743, 37.758095], [-122.476784, 37.75864], [-122.476822, 37.759204], [-122.476869, 37.759852], [-122.476923, 37.760509], [-122.476993, 37.761223], [-122.47705, 37.761855], [-122.477102, 37.762475], [-122.477139, 37.763001], [-122.477188, 37.763599], [-122.477285, 37.765037], [-122.477449, 37.767513], [-122.477659, 37.770806], [-122.477833, 37.773467], [-122.47795, 37.775203], [-122.478027, 37.776268], [-122.478092, 37.777164], [-122.478156, 37.778047], [-122.478204, 37.778719], [-122.478249, 37.77933], [-122.478297, 37.780004], [-122.478354, 37.780782], [-122.478418, 37.781665], [-122.478469, 37.782381], [-122.478515, 37.78302], [-122.478555, 37.783567], [-122.478598, 37.784157], [-122.47864, 37.784746], [-122.47868, 37.785301], [-122.478718, 37.785818], [-122.478751, 37.78628], [-122.478784, 37.786727], [-122.47266, 37.786214], [-122.472661, 37.785722], [-122.472654, 37.785193], [-122.472618, 37.784516], [-122.472575, 37.78367], [-122.4725, 37.782649], [-122.472435, 37.781683], [-122.472362, 37.780836], [-122.472308, 37.78013], [-122.472235, 37.779293], [-122.472174, 37.778389], [-122.472097, 37.777296], [-122.47204, 37.77625], [-122.471964, 37.775154], [-122.471892, 37.77421], [-122.471809, 37.773332]]}, "properties": {"ftype": "line", "id": "sf-19th Ave", "name": "19th Ave Line", "tier": 1, "headway": "90 s"}}, {"type": "Feature", "geometry": {"type": "LineString", "coordinates": [[-122.44678, 37.786227], [-122.447205, 37.785657], [-122.447451, 37.785141], [-122.447487, 37.784623], [-122.447403, 37.78409], [-122.447329, 37.783495], [-122.447332, 37.782925], [-122.44742, 37.782368], [-122.447512, 37.781849], [-122.447546, 37.781333], [-122.447494, 37.780783], [-122.447395, 37.780205], [-122.447275, 37.779612], [-122.447151, 37.779035], [-122.447017, 37.7784], [-122.446861, 37.777629], [-122.446704, 37.776798], [-122.446555, 37.776014], [-122.446434, 37.775382], [-122.446315, 37.774834], [-122.446198, 37.774313], [-122.446078, 37.773797], [-122.445963, 37.773257], [-122.445861, 37.772747], [-122.445759, 37.772212], [-122.445657, 37.771683], [-122.445542, 37.771112], [-122.445423, 37.770534], [-122.445305, 37.769991], [-122.445174, 37.769414], [-122.445037, 37.768813], [-122.444881, 37.768077], [-122.444705, 37.767346], [-122.444373, 37.766595], [-122.443777, 37.765943], [-122.442933, 37.765324]]}, "properties": {"ftype": "line", "id": "sf-Masonic", "name": "Masonic Line", "tier": 1, "headway": "90 s"}}, {"type": "Feature", "geometry": {"type": "LineString", "coordinates": [[-122.44399, 37.805529], [-122.443872, 37.804949], [-122.44375, 37.804345], [-122.443604, 37.803628], [-122.443437, 37.802806], [-122.44327, 37.801982], [-122.443123, 37.801256], [-122.443001, 37.800653], [-122.442883, 37.800072], [-122.442777, 37.79955], [-122.442678, 37.799062], [-122.442578, 37.798569], [-122.442472, 37.798046], [-122.442354, 37.797458], [-122.442232, 37.796858], [-122.442088, 37.796145], [-122.441944, 37.795433], [-122.441802, 37.79473], [-122.441693, 37.79419], [-122.441585, 37.793655], [-122.441493, 37.7932], [-122.441388, 37.792679], [-122.441284, 37.792165], [-122.44117, 37.791595], [-122.441055, 37.791028], [-122.44094, 37.790455], [-122.440806, 37.789788], [-122.440666, 37.789088], [-122.440524, 37.788379], [-122.440415, 37.787809], [-122.440308, 37.787268], [-122.440207, 37.786774], [-122.440086, 37.786233], [-122.439966, 37.785691], [-122.439852, 37.785134], [-122.439737, 37.784561], [-122.439632, 37.784023], [-122.439523, 37.783481], [-122.439415, 37.782935], [-122.439286, 37.782285], [-122.439147, 37.781591], [-122.439007, 37.780906], [-122.438875, 37.780262], [-122.43873, 37.779569], [-122.438585, 37.778867], [-122.438443, 37.77818], [-122.438337, 37.777628], [-122.438233, 37.777084], [-122.438136, 37.776569], [-122.438021, 37.77599], [-122.437908, 37.775418], [-122.437795, 37.774868], [-122.437681, 37.774328], [-122.437583, 37.773842], [-122.437481, 37.773313], [-122.437375, 37.77278], [-122.437251, 37.772208], [-122.437129, 37.771637], [-122.437026, 37.771121], [-122.436916, 37.770542], [-122.436797, 37.769808], [-122.436649, 37.7687], [-122.436496, 37.767324], [-122.436578, 37.7701], [-122.436249, 37.769651], [-122.435989, 37.769189], [-122.435826, 37.768691], [-122.435733, 37.768162], [-122.435674, 37.7676], [-122.435618, 37.767028], [-122.435566, 37.76649], [-122.435517, 37.765973], [-122.435469, 37.765476], [-122.435409, 37.764863], [-122.435343, 37.764169], [-122.435272, 37.76343], [-122.435208, 37.762779], [-122.435149, 37.762183], [-122.43509, 37.761618], [-122.435025, 37.760979], [-122.43496, 37.760345], [-122.434884, 37.759576], [-122.43481, 37.75879], [-122.434725, 37.757853], [-122.434646, 37.756976], [-122.434566, 37.756105], [-122.434491, 37.755306], [-122.434415, 37.754501], [-122.434339, 37.753704], [-122.434272, 37.752999], [-122.434212, 37.752378], [-122.434161, 37.751843], [-122.43411, 37.751308], [-122.43406, 37.750785], [-122.434009, 37.750253], [-122.433958, 37.749721], [-122.433907, 37.749185], [-122.433855, 37.748645], [-122.433802, 37.748095], [-122.433755, 37.747552], [-122.433704, 37.747017], [-122.433645, 37.746451], [-122.43357, 37.745864], [-122.433505, 37.745275], [-122.433449, 37.744685], [-122.433403, 37.744017], [-122.433355, 37.74329], [-122.433234, 37.741959], [-122.433038, 37.74007], [-122.432766, 37.737612], [-122.432568, 37.735811], [-122.432447, 37.734672]]}, "properties": {"ftype": "line", "id": "sf-Divisadero", "name": "Divisadero Line", "tier": 1, "headway": "90 s"}}, {"type": "Feature", "geometry": {"type": "LineString", "coordinates": [[-122.437426, 37.806164], [-122.437255, 37.80536], [-122.437084, 37.804519], [-122.436915, 37.803714], [-122.436761, 37.802928], [-122.436611, 37.802216], [-122.436448, 37.801432], [-122.436276, 37.800694], [-122.436104, 37.79994], [-122.435955, 37.799284], [-122.435824, 37.798654], [-122.435709, 37.798084], [-122.435593, 37.797513], [-122.435488, 37.796995], [-122.435378, 37.79645], [-122.435283, 37.795978], [-122.435174, 37.795442], [-122.435077, 37.794959], [-122.434964, 37.794401], [-122.434858, 37.793872], [-122.434746, 37.793317], [-122.434634, 37.792766], [-122.434515, 37.792177], [-122.434379, 37.791504], [-122.434239, 37.79081], [-122.434102, 37.790131], [-122.433981, 37.789526], [-122.433863, 37.788942], [-122.433754, 37.788401], [-122.433656, 37.787908], [-122.433561, 37.787429], [-122.433461, 37.78693], [-122.433344, 37.786357], [-122.433226, 37.785785], [-122.433107, 37.785207], [-122.43299, 37.784632], [-122.432859, 37.783985], [-122.432705, 37.783222], [-122.43253, 37.782355], [-122.432351, 37.781465], [-122.432185, 37.780642], [-122.432043, 37.779935], [-122.431923, 37.779337], [-122.431811, 37.778785], [-122.431704, 37.778256], [-122.431596, 37.777724], [-122.431487, 37.777185], [-122.431383, 37.776673], [-122.431272, 37.776121], [-122.431163, 37.775582], [-122.431045, 37.775], [-122.430944, 37.774497], [-122.430849, 37.774025], [-122.430753, 37.773551], [-122.430644, 37.77301], [-122.430522, 37.77241], [-122.430405, 37.771834], [-122.43029, 37.771266], [-122.430183, 37.77073], [-122.430072, 37.770168], [-122.429961, 37.769599]]}, "properties": {"ftype": "line", "id": "sf-Fillmore", "name": "Fillmore Line", "tier": 1, "headway": "90 s"}}, {"type": "Feature", "geometry": {"type": "LineString", "coordinates": [[-122.426635, 37.80818], [-122.4265, 37.807796], [-122.426283, 37.807372], [-122.425986, 37.806896], [-122.425693, 37.806375], [-122.425477, 37.805839], [-122.42534, 37.805286], [-122.425233, 37.804748], [-122.425123, 37.804207], [-122.425011, 37.803663], [-122.424916, 37.803132], [-122.424819, 37.802589], [-122.424722, 37.802093], [-122.424609, 37.801565], [-122.424492, 37.801062], [-122.424372, 37.800516], [-122.424258, 37.79997], [-122.424162, 37.799425], [-122.424059, 37.798866], [-122.423955, 37.798335], [-122.423839, 37.79777], [-122.423735, 37.797243], [-122.423633, 37.796711], [-122.423532, 37.796201], [-122.423431, 37.795683], [-122.423322, 37.795141], [-122.423204, 37.794554], [-122.423059, 37.793866], [-122.422911, 37.793145], [-122.422769, 37.792458], [-122.42267, 37.7919], [-122.422577, 37.791395], [-122.422497, 37.790899], [-122.422385, 37.790349], [-122.422266, 37.789775], [-122.422138, 37.789221], [-122.422015, 37.78867], [-122.421902, 37.788149], [-122.42179, 37.787616], [-122.421674, 37.787094], [-122.421561, 37.786569], [-122.421444, 37.786021], [-122.421344, 37.785487], [-122.421241, 37.784927], [-122.421149, 37.78439], [-122.42105, 37.783843], [-122.420946, 37.783323], [-122.420831, 37.782819], [-122.420711, 37.782288], [-122.420601, 37.781745], [-122.420495, 37.781159], [-122.420381, 37.780606], [-122.420239, 37.779976], [-122.420083, 37.779319], [-122.41994, 37.778593], [-122.419811, 37.77791], [-122.419686, 37.777209], [-122.41955, 37.776521], [-122.419419, 37.775856], [-122.419294, 37.775246], [-122.41915, 37.775132], [-122.419017, 37.774477], [-122.418856, 37.773805], [-122.418684, 37.773198], [-122.418498, 37.772584], [-122.418287, 37.771957], [-122.418058, 37.771235], [-122.417877, 37.770571], [-122.417798, 37.769965], [-122.417796, 37.769436], [-122.417811, 37.7689], [-122.417799, 37.768367], [-122.417758, 37.767807], [-122.417705, 37.767245], [-122.417652, 37.766697], [-122.4176, 37.766161], [-122.417548, 37.765638], [-122.417495, 37.765088], [-122.417442, 37.764542], [-122.417381, 37.763913], [-122.417318, 37.76325], [-122.417247, 37.762512], [-122.417185, 37.761851], [-122.417127, 37.761245], [-122.417072, 37.760667], [-122.417011, 37.760034], [-122.416938, 37.759273], [-122.416866, 37.758515], [-122.416795, 37.757766], [-122.416734, 37.757129], [-122.416678, 37.756536], [-122.416617, 37.755896], [-122.416552, 37.755217], [-122.416483, 37.754491], [-122.416422, 37.753857], [-122.416367, 37.753271], [-122.416307, 37.752646], [-122.416242, 37.751958], [-122.416163, 37.751134], [-122.416087, 37.750346], [-122.416012, 37.749557], [-122.41595, 37.74891], [-122.415893, 37.748322]]}, "properties": {"ftype": "line", "id": "sf-Van Ness", "name": "Van Ness Line", "tier": 1, "headway": "90 s"}}, {"type": "Feature", "geometry": {"type": "LineString", "coordinates": [[-122.463292, 37.702087], [-122.463121, 37.702616], [-122.462963, 37.703153], [-122.46281, 37.703696], [-122.462616, 37.704247], [-122.462353, 37.704769], [-122.462009, 37.705252], [-122.461545, 37.705679], [-122.460933, 37.706047], [-122.460176, 37.706342], [-122.45935, 37.706598], [-122.458526, 37.70684], [-122.457726, 37.707097], [-122.456907, 37.707368], [-122.456085, 37.707647], [-122.455192, 37.707951], [-122.454345, 37.708242], [-122.453523, 37.708523], [-122.452788, 37.708773], [-122.452017, 37.709034], [-122.45116, 37.709322], [-122.450276, 37.709628], [-122.449438, 37.709935], [-122.448724, 37.710233], [-122.44808, 37.710539], [-122.447455, 37.710864], [-122.446829, 37.711198], [-122.446165, 37.711592], [-122.445483, 37.712062], [-122.444787, 37.712622], [-122.44419, 37.713146], [-122.443674, 37.713623], [-122.443179, 37.714095], [-122.44263, 37.714637], [-122.442075, 37.71522], [-122.441601, 37.715762], [-122.44119, 37.716275], [-122.440821, 37.716756], [-122.440463, 37.717227], [-122.440129, 37.717668], [-122.439794, 37.718113], [-122.439454, 37.718563], [-122.439093, 37.719041], [-122.438683, 37.719583], [-122.438214, 37.720203], [-122.437671, 37.720922], [-122.437126, 37.721642], [-122.436548, 37.722404], [-122.436043, 37.723071], [-122.435586, 37.723676], [-122.435222, 37.724158], [-122.43484, 37.724663], [-122.434447, 37.725181], [-122.434061, 37.725692], [-122.433704, 37.726164], [-122.433368, 37.7266], [-122.433016, 37.727037], [-122.432651, 37.727441], [-122.432247, 37.727848], [-122.431801, 37.728273], [-122.431304, 37.728757], [-122.430756, 37.729302], [-122.430171, 37.729889], [-122.429581, 37.730483], [-122.429018, 37.731051], [-122.428366, 37.731708], [-122.427653, 37.732425], [-122.426878, 37.733201], [-122.426201, 37.733883], [-122.425589, 37.734538], [-122.425043, 37.735226], [-122.424611, 37.735937], [-122.424302, 37.736741], [-122.424128, 37.73754], [-122.423993, 37.738379], [-122.423863, 37.739052], [-122.423675, 37.739634], [-122.423422, 37.740115], [-122.423107, 37.740631], [-122.422775, 37.741143], [-122.422449, 37.741647], [-122.422155, 37.742101], [-122.421876, 37.742532], [-122.42158, 37.74299], [-122.421247, 37.743506], [-122.420909, 37.744029], [-122.420583, 37.744533], [-122.420309, 37.744956], [-122.420023, 37.745399], [-122.419747, 37.745827], [-122.419427, 37.746321], [-122.41911, 37.746811], [-122.418779, 37.74733], [-122.418492, 37.747848], [-122.418286, 37.748366], [-122.4182, 37.748925], [-122.418205, 37.749501], [-122.418266, 37.750213], [-122.41834, 37.75097], [-122.418429, 37.751889], [-122.418523, 37.752867], [-122.418625, 37.753941], [-122.418726, 37.754994], [-122.41881, 37.755868], [-122.418889, 37.756692], [-122.418959, 37.757432], [-122.419038, 37.758255], [-122.419105, 37.758958], [-122.419177, 37.759705], [-122.41925, 37.760474], [-122.419337, 37.761373], [-122.419413, 37.762171], [-122.419487, 37.762943], [-122.419555, 37.76361], [-122.41962, 37.764277], [-122.419684, 37.764931], [-122.419744, 37.765626], [-122.419822, 37.766438], [-122.419896, 37.767219], [-122.419971, 37.767988], [-122.42002, 37.768637], [-122.42003, 37.769261], [-122.419973, 37.769826], [-122.419843, 37.770379], [-122.419657, 37.770918], [-122.419439, 37.771434], [-122.41919, 37.771938], [-122.418908, 37.772418], [-122.418564, 37.772911], [-122.418165, 37.773376], [-122.417734, 37.773808], [-122.417285, 37.774196], [-122.416824, 37.774569], [-122.416299, 37.774982], [-122.415768, 37.775402], [-122.415239, 37.77582], [-122.414696, 37.77625], [-122.414074, 37.776742], [-122.41339, 37.777283], [-122.412784, 37.777761], [-122.412254, 37.778179], [-122.411768, 37.77856], [-122.411216, 37.778994], [-122.410692, 37.779407], [-122.410155, 37.779834], [-122.409669, 37.780221], [-122.40913, 37.780651], [-122.40857, 37.781095], [-122.407926, 37.781603], [-122.407261, 37.782127], [-122.406607, 37.782641], [-122.406007, 37.783111], [-122.405439, 37.783556], [-122.404934, 37.783952], [-122.40446, 37.784327], [-122.404037, 37.784656], [-122.403575, 37.785017], [-122.40311, 37.785382], [-122.402591, 37.785804], [-122.402017, 37.786267], [-122.401353, 37.786797], [-122.40064, 37.787358], [-122.39992, 37.787926], [-122.399175, 37.788514], [-122.398377, 37.789142], [-122.397598, 37.789755], [-122.396907, 37.790298], [-122.396362, 37.790731], [-122.39587, 37.791121], [-122.395409, 37.791489], [-122.394936, 37.79187], [-122.394446, 37.792267], [-122.393914, 37.792693], [-122.393368, 37.793123], [-122.392877, 37.793505], [-122.392451, 37.793833]]}, "properties": {"ftype": "line", "id": "sf-Mission", "name": "Mission Line", "tier": 1, "headway": "90 s"}}, {"type": "Feature", "geometry": {"type": "LineString", "coordinates": [[-122.398747, 37.715343], [-122.39856, 37.715749], [-122.39839, 37.716242], [-122.39827, 37.71678], [-122.398186, 37.71733], [-122.398061, 37.717827], [-122.397822, 37.718328], [-122.39746, 37.718869], [-122.397093, 37.719426], [-122.396774, 37.719981], [-122.396528, 37.720512], [-122.396278, 37.721066], [-122.396022, 37.721641], [-122.395764, 37.722203], [-122.395525, 37.722742], [-122.395281, 37.723276], [-122.395028, 37.723821], [-122.394775, 37.724366], [-122.394534, 37.724893], [-122.394299, 37.725411], [-122.39407, 37.725923], [-122.39383, 37.726454], [-122.393581, 37.727014], [-122.393329, 37.727583], [-122.3931, 37.728134], [-122.392891, 37.728665], [-122.392695, 37.729191], [-122.392504, 37.729719], [-122.392311, 37.730263], [-122.392121, 37.730811], [-122.391922, 37.731367], [-122.391732, 37.731896], [-122.391542, 37.732419], [-122.391358, 37.732943], [-122.39117, 37.733479], [-122.390979, 37.734029], [-122.390789, 37.734577], [-122.390605, 37.73512], [-122.390418, 37.735654], [-122.39023, 37.736187], [-122.390038, 37.736725], [-122.389839, 37.737283], [-122.389638, 37.737852], [-122.38944, 37.738411], [-122.389244, 37.738963], [-122.389052, 37.739498], [-122.388856, 37.740039], [-122.388679, 37.740569], [-122.388499, 37.741106], [-122.388319, 37.74164], [-122.38813, 37.742183], [-122.387942, 37.742736], [-122.387758, 37.743302], [-122.387572, 37.743856], [-122.387396, 37.744387], [-122.387254, 37.744902], [-122.387187, 37.745408], [-122.387194, 37.74595], [-122.387244, 37.746498], [-122.387301, 37.747064], [-122.387355, 37.74761], [-122.387406, 37.748143], [-122.387452, 37.748737], [-122.387506, 37.749376], [-122.387563, 37.750112], [-122.387615, 37.750802], [-122.387653, 37.751444], [-122.387684, 37.751979], [-122.387727, 37.75248], [-122.387778, 37.752982], [-122.387837, 37.753518], [-122.387892, 37.754096], [-122.387949, 37.754655], [-122.387998, 37.755205], [-122.388054, 37.755701], [-122.388121, 37.756287], [-122.388199, 37.756904], [-122.388282, 37.757702], [-122.388352, 37.758471], [-122.388431, 37.759283], [-122.388502, 37.759939], [-122.388582, 37.760569], [-122.388638, 37.761113], [-122.388683, 37.761682], [-122.388712, 37.762225], [-122.388739, 37.762796], [-122.388769, 37.763324], [-122.38881, 37.76387], [-122.388866, 37.764402], [-122.388929, 37.76497], [-122.388974, 37.765531], [-122.389015, 37.766084], [-122.389056, 37.766621], [-122.389112, 37.767172], [-122.389165, 37.767739], [-122.389222, 37.768306], [-122.389293, 37.768826], [-122.389364, 37.769351], [-122.389422, 37.769884], [-122.389468, 37.770445], [-122.389514, 37.770964], [-122.389567, 37.771479], [-122.389614, 37.771996], [-122.389675, 37.772555], [-122.389735, 37.773123], [-122.389801, 37.773691], [-122.389844, 37.774244], [-122.38989, 37.774785], [-122.389941, 37.775339], [-122.390051, 37.775902], [-122.39025, 37.776448], [-122.390616, 37.776982], [-122.391156, 37.777522], [-122.391806, 37.778073], [-122.392491, 37.778625], [-122.393134, 37.779142], [-122.393794, 37.779674], [-122.394439, 37.780191], [-122.395133, 37.780746], [-122.395829, 37.781302], [-122.396572, 37.781896], [-122.397308, 37.782483], [-122.398026, 37.783056], [-122.398684, 37.783581], [-122.399289, 37.784065], [-122.399921, 37.784568], [-122.400606, 37.785116], [-122.401372, 37.785726], [-122.4021, 37.786315], [-122.402724, 37.786855], [-122.403151, 37.787297], [-122.403436, 37.787676]]}, "properties": {"ftype": "line", "id": "sf-3rd St", "name": "3rd St Line", "tier": 1, "headway": "90 s"}}, {"type": "Feature", "geometry": {"type": "LineString", "coordinates": [[-122.407905, 37.769063], [-122.407845, 37.768569], [-122.407787, 37.76805], [-122.407731, 37.767499], [-122.407681, 37.766967], [-122.407631, 37.766441], [-122.407581, 37.765918], [-122.40753, 37.765385], [-122.407475, 37.76481], [-122.407419, 37.764231], [-122.407357, 37.763572], [-122.407294, 37.762923], [-122.407224, 37.762236], [-122.407159, 37.761649], [-122.407091, 37.761015], [-122.407028, 37.760381], [-122.406954, 37.759593], [-122.406882, 37.758831], [-122.406815, 37.758043], [-122.406763, 37.757388], [-122.406709, 37.75671], [-122.406648, 37.756017], [-122.406581, 37.755286], [-122.406513, 37.754621], [-122.406454, 37.754054], [-122.406392, 37.753517], [-122.406339, 37.752981], [-122.406282, 37.752421], [-122.406234, 37.751862], [-122.406147, 37.751319], [-122.406012, 37.750814], [-122.405817, 37.75034], [-122.4056, 37.749876]]}, "properties": {"ftype": "line", "id": "sf-Potrero", "name": "Potrero Line", "tier": 1, "headway": "90 s"}}, {"type": "Feature", "geometry": {"type": "LineString", "coordinates": [[-122.416982, 37.809179], [-122.416063, 37.809067], [-122.415122, 37.808971], [-122.414192, 37.808888], [-122.413283, 37.808791], [-122.412473, 37.808659], [-122.411613, 37.808495], [-122.410717, 37.808335], [-122.409758, 37.808169], [-122.408944, 37.807988], [-122.408218, 37.807757], [-122.407569, 37.807491], [-122.406947, 37.807214], [-122.406329, 37.806925], [-122.405751, 37.806638], [-122.405145, 37.8063], [-122.404577, 37.805931], [-122.404021, 37.805545], [-122.403472, 37.805179], [-122.402959, 37.804837], [-122.402463, 37.804482], [-122.402064, 37.804123], [-122.401679, 37.803732], [-122.401285, 37.803315], [-122.400843, 37.802857], [-122.400395, 37.802405], [-122.399978, 37.801945], [-122.399596, 37.801525], [-122.399204, 37.801053], [-122.398809, 37.800583], [-122.3984, 37.800072], [-122.39804, 37.799634], [-122.397681, 37.799241], [-122.397322, 37.798868], [-122.396926, 37.798461], [-122.396527, 37.798007], [-122.396137, 37.797547], [-122.395737, 37.797073], [-122.39535, 37.796624], [-122.394959, 37.79617], [-122.394593, 37.795743], [-122.39419, 37.795289], [-122.393755, 37.794851], [-122.393292, 37.794413], [-122.392789, 37.793965], [-122.392254, 37.793481], [-122.391682, 37.792935], [-122.39119, 37.792396], [-122.390774, 37.791863], [-122.390408, 37.791374], [-122.389985, 37.79091], [-122.389511, 37.790475], [-122.389044, 37.790068], [-122.388653, 37.789676], [-122.388353, 37.789241], [-122.388139, 37.788717], [-122.387986, 37.788111], [-122.387892, 37.787461], [-122.387869, 37.786777], [-122.387905, 37.786039], [-122.387991, 37.785286], [-122.388038, 37.784583], [-122.388091, 37.783864], [-122.38812, 37.783163], [-122.38818, 37.78246], [-122.388228, 37.78183]]}, "properties": {"ftype": "line", "id": "sf-Embarcadero", "name": "Embarcadero Line", "tier": 1, "headway": "90 s"}}, {"type": "Feature", "geometry": {"type": "Point", "coordinates": [-122.478325, 37.780388]}, "properties": {"ftype": "station", "name": "Geary & 19th Ave", "tier": 1, "lines": ["Geary Line", "19th Ave Line"], "headway": "90 s"}}, {"type": "Feature", "geometry": {"type": "Point", "coordinates": [-122.447415, 37.782399]}, "properties": {"ftype": "station", "name": "Geary & Masonic", "tier": 1, "lines": ["Geary Line", "Masonic Line"], "headway": "90 s"}}, {"type": "Feature", "geometry": {"type": "Point", "coordinates": [-122.439494, 37.783335]}, "properties": {"ftype": "station", "name": "Geary & Divisadero", "tier": 1, "lines": ["Geary Line", "Divisadero Line"], "headway": "90 s"}}, {"type": "Feature", "geometry": {"type": "Point", "coordinates": [-122.432937, 37.784372]}, "properties": {"ftype": "station", "name": "Geary & Fillmore", "tier": 1, "lines": ["Geary Line", "Fillmore Line"], "headway": "90 s"}}, {"type": "Feature", "geometry": {"type": "Point", "coordinates": [-122.421384, 37.785699]}, "properties": {"ftype": "station", "name": "Geary & Van Ness", "tier": 1, "lines": ["Geary Line", "Van Ness Line"], "headway": "90 s"}}, {"type": "Feature", "geometry": {"type": "Point", "coordinates": [-122.477794, 37.772864]}, "properties": {"ftype": "station", "name": "Fulton & 19th Ave", "tier": 1, "lines": ["Fulton Line", "19th Ave Line"], "headway": "90 s"}}, {"type": "Feature", "geometry": {"type": "Point", "coordinates": [-122.446515, 37.775807]}, "properties": {"ftype": "station", "name": "Fulton & Masonic", "tier": 1, "lines": ["Fulton Line", "Masonic Line"], "headway": "90 s"}}, {"type": "Feature", "geometry": {"type": "Point", "coordinates": [-122.438192, 37.776866]}, "properties": {"ftype": "station", "name": "Fulton & Divisadero", "tier": 1, "lines": ["Fulton Line", "Divisadero Line"], "headway": "90 s"}}, {"type": "Feature", "geometry": {"type": "Point", "coordinates": [-122.431592, 37.777707]}, "properties": {"ftype": "station", "name": "Fulton & Fillmore", "tier": 1, "lines": ["Fulton Line", "Fillmore Line"], "headway": "90 s"}}, {"type": "Feature", "geometry": {"type": "Point", "coordinates": [-122.420055, 37.779175]}, "properties": {"ftype": "station", "name": "Fulton & Van Ness", "tier": 1, "lines": ["Fulton Line", "Van Ness Line"], "headway": "90 s"}}, {"type": "Feature", "geometry": {"type": "Point", "coordinates": [-122.495744, 37.76088]}, "properties": {"ftype": "station", "name": "Judah & Sunset", "tier": 1, "lines": ["Judah Line", "Sunset Line"], "headway": "90 s"}}, {"type": "Feature", "geometry": {"type": "Point", "coordinates": [-122.477036, 37.761699]}, "properties": {"ftype": "station", "name": "Judah & 19th Ave", "tier": 1, "lines": ["Judah Line", "19th Ave Line"], "headway": "90 s"}}, {"type": "Feature", "geometry": {"type": "Point", "coordinates": [-122.494472, 37.742228]}, "properties": {"ftype": "station", "name": "Taraval & Sunset", "tier": 1, "lines": ["Taraval Line", "Sunset Line"], "headway": "90 s"}}, {"type": "Feature", "geometry": {"type": "Point", "coordinates": [-122.475685, 37.743056]}, "properties": {"ftype": "station", "name": "Taraval & 19th Ave", "tier": 1, "lines": ["Taraval Line", "19th Ave Line"], "headway": "90 s"}}, {"type": "Feature", "geometry": {"type": "Point", "coordinates": [-122.493734, 37.731917]}, "properties": {"ftype": "station", "name": "Ocean\u2013Geneva & Sunset", "tier": 1, "lines": ["Ocean\u2013Geneva Line", "Sunset Line"], "headway": "90 s"}}, {"type": "Feature", "geometry": {"type": "Point", "coordinates": [-122.474981, 37.732409]}, "properties": {"ftype": "station", "name": "Ocean\u2013Geneva & 19th Ave", "tier": 1, "lines": ["Ocean\u2013Geneva Line", "19th Ave Line"], "headway": "90 s"}}, {"type": "Feature", "geometry": {"type": "Point", "coordinates": [-122.440959, 37.716575]}, "properties": {"ftype": "station", "name": "Ocean\u2013Geneva & Mission", "tier": 1, "lines": ["Ocean\u2013Geneva Line", "Mission Line"], "headway": "90 s"}}, {"type": "Feature", "geometry": {"type": "Point", "coordinates": [-122.478599, 37.784182]}, "properties": {"ftype": "station", "name": "California & 19th Ave", "tier": 1, "lines": ["California Line", "19th Ave Line"], "headway": "90 s"}}, {"type": "Feature", "geometry": {"type": "Point", "coordinates": [-122.440467, 37.788082]}, "properties": {"ftype": "station", "name": "California & Divisadero", "tier": 1, "lines": ["California Line", "Divisadero Line"], "headway": "90 s"}}, {"type": "Feature", "geometry": {"type": "Point", "coordinates": [-122.433857, 37.78891]}, "properties": {"ftype": "station", "name": "California & Fillmore", "tier": 1, "lines": ["California Line", "Fillmore Line"], "headway": "90 s"}}, {"type": "Feature", "geometry": {"type": "Point", "coordinates": [-122.422388, 37.790366]}, "properties": {"ftype": "station", "name": "California & Van Ness", "tier": 1, "lines": ["California Line", "Van Ness Line"], "headway": "90 s"}}, {"type": "Feature", "geometry": {"type": "Point", "coordinates": [-122.442111, 37.796256]}, "properties": {"ftype": "station", "name": "Union & Divisadero", "tier": 1, "lines": ["Union Line", "Divisadero Line"], "headway": "90 s"}}, {"type": "Feature", "geometry": {"type": "Point", "coordinates": [-122.435509, 37.797096]}, "properties": {"ftype": "station", "name": "Union & Fillmore", "tier": 1, "lines": ["Union Line", "Fillmore Line"], "headway": "90 s"}}, {"type": "Feature", "geometry": {"type": "Point", "coordinates": [-122.423999, 37.798558]}, "properties": {"ftype": "station", "name": "Union & Van Ness", "tier": 1, "lines": ["Union Line", "Van Ness Line"], "headway": "90 s"}}, {"type": "Feature", "geometry": {"type": "Point", "coordinates": [-122.435202, 37.762718]}, "properties": {"ftype": "station", "name": "Market & Divisadero", "tier": 1, "lines": ["Market Line", "Divisadero Line"], "headway": "90 s"}}, {"type": "Feature", "geometry": {"type": "Point", "coordinates": [-122.419233, 37.775197]}, "properties": {"ftype": "station", "name": "Market & Van Ness", "tier": 1, "lines": ["Market Line", "Van Ness Line"], "headway": "90 s"}}, {"type": "Feature", "geometry": {"type": "Point", "coordinates": [-122.403429, 37.787666]}, "properties": {"ftype": "station", "name": "Market & 3rd St", "tier": 1, "lines": ["Market Line", "3rd St Line"], "headway": "90 s"}}, {"type": "Feature", "geometry": {"type": "Point", "coordinates": [-122.417504, 37.765189]}, "properties": {"ftype": "station", "name": "16th St & Van Ness", "tier": 1, "lines": ["16th St Line", "Van Ness Line"], "headway": "90 s"}}, {"type": "Feature", "geometry": {"type": "Point", "coordinates": [-122.389087, 37.766926]}, "properties": {"ftype": "station", "name": "16th St & 3rd St", "tier": 1, "lines": ["16th St Line", "3rd St Line"], "headway": "90 s"}}, {"type": "Feature", "geometry": {"type": "Point", "coordinates": [-122.407568, 37.765785]}, "properties": {"ftype": "station", "name": "16th St & Potrero", "tier": 1, "lines": ["16th St Line", "Potrero Line"], "headway": "90 s"}}, {"type": "Feature", "geometry": {"type": "Point", "coordinates": [-122.434109, 37.7513]}, "properties": {"ftype": "station", "name": "24th St & Divisadero", "tier": 1, "lines": ["24th St Line", "Divisadero Line"], "headway": "90 s"}}, {"type": "Feature", "geometry": {"type": "Point", "coordinates": [-122.416281, 37.752375]}, "properties": {"ftype": "station", "name": "24th St & Van Ness", "tier": 1, "lines": ["24th St Line", "Van Ness Line"], "headway": "90 s"}}, {"type": "Feature", "geometry": {"type": "Point", "coordinates": [-122.387894, 37.754116]}, "properties": {"ftype": "station", "name": "24th St & 3rd St", "tier": 1, "lines": ["24th St Line", "3rd St Line"], "headway": "90 s"}}, {"type": "Feature", "geometry": {"type": "Point", "coordinates": [-122.40634, 37.752995]}, "properties": {"ftype": "station", "name": "24th St & Potrero", "tier": 1, "lines": ["24th St Line", "Potrero Line"], "headway": "90 s"}}, {"type": "Feature", "geometry": {"type": "Point", "coordinates": [-122.498955, 37.779451]}, "properties": {"ftype": "station", "name": "Geary 1", "tier": 1, "lines": ["Geary Line"], "headway": "90 s"}}, {"type": "Feature", "geometry": {"type": "Point", "coordinates": [-122.48857, 37.779907]}, "properties": {"ftype": "station", "name": "Geary 2", "tier": 1, "lines": ["Geary Line"], "headway": "90 s"}}, {"type": "Feature", "geometry": {"type": "Point", "coordinates": [-122.467984, 37.780858]}, "properties": {"ftype": "station", "name": "Geary 3", "tier": 1, "lines": ["Geary Line"], "headway": "90 s"}}, {"type": "Feature", "geometry": {"type": "Point", "coordinates": [-122.457781, 37.781319]}, "properties": {"ftype": "station", "name": "Geary 4", "tier": 1, "lines": ["Geary Line"], "headway": "90 s"}}, {"type": "Feature", "geometry": {"type": "Point", "coordinates": [-122.412437, 37.786832]}, "properties": {"ftype": "station", "name": "Geary 5", "tier": 1, "lines": ["Geary Line"], "headway": "90 s"}}, {"type": "Feature", "geometry": {"type": "Point", "coordinates": [-122.499892, 37.771858]}, "properties": {"ftype": "station", "name": "Fulton 1", "tier": 1, "lines": ["Fulton Line"], "headway": "90 s"}}, {"type": "Feature", "geometry": {"type": "Point", "coordinates": [-122.488884, 37.77236]}, "properties": {"ftype": "station", "name": "Fulton 2", "tier": 1, "lines": ["Fulton Line"], "headway": "90 s"}}, {"type": "Feature", "geometry": {"type": "Point", "coordinates": [-122.467363, 37.773337]}, "properties": {"ftype": "station", "name": "Fulton 3", "tier": 1, "lines": ["Fulton Line"], "headway": "90 s"}}, {"type": "Feature", "geometry": {"type": "Point", "coordinates": [-122.456936, 37.774476]}, "properties": {"ftype": "station", "name": "Fulton 4", "tier": 1, "lines": ["Fulton Line"], "headway": "90 s"}}, {"type": "Feature", "geometry": {"type": "Point", "coordinates": [-122.486279, 37.761296]}, "properties": {"ftype": "station", "name": "Judah 1", "tier": 1, "lines": ["Judah Line"], "headway": "90 s"}}, {"type": "Feature", "geometry": {"type": "Point", "coordinates": [-122.484964, 37.742648]}, "properties": {"ftype": "station", "name": "Taraval 1", "tier": 1, "lines": ["Taraval Line"], "headway": "90 s"}}, {"type": "Feature", "geometry": {"type": "Point", "coordinates": [-122.484124, 37.732339]}, "properties": {"ftype": "station", "name": "Ocean\u2013Geneva 1", "tier": 1, "lines": ["Ocean\u2013Geneva Line"], "headway": "90 s"}}, {"type": "Feature", "geometry": {"type": "Point", "coordinates": [-122.46662, 37.727253]}, "properties": {"ftype": "station", "name": "Ocean\u2013Geneva 2", "tier": 1, "lines": ["Ocean\u2013Geneva Line"], "headway": "90 s"}}, {"type": "Feature", "geometry": {"type": "Point", "coordinates": [-122.456934, 37.724052]}, "properties": {"ftype": "station", "name": "Ocean\u2013Geneva 3", "tier": 1, "lines": ["Ocean\u2013Geneva Line"], "headway": "90 s"}}, {"type": "Feature", "geometry": {"type": "Point", "coordinates": [-122.446507, 37.722973]}, "properties": {"ftype": "station", "name": "Ocean\u2013Geneva 4", "tier": 1, "lines": ["Ocean\u2013Geneva Line"], "headway": "90 s"}}, {"type": "Feature", "geometry": {"type": "Point", "coordinates": [-122.435982, 37.723834]}, "properties": {"ftype": "station", "name": "Ocean\u2013Geneva 5", "tier": 1, "lines": ["Ocean\u2013Geneva Line"], "headway": "90 s"}}, {"type": "Feature", "geometry": {"type": "Point", "coordinates": [-122.449042, 37.721656]}, "properties": {"ftype": "station", "name": "Ocean\u2013Geneva 7", "tier": 1, "lines": ["Ocean\u2013Geneva Line"], "headway": "90 s"}}, {"type": "Feature", "geometry": {"type": "Point", "coordinates": [-122.432725, 37.712941]}, "properties": {"ftype": "station", "name": "Ocean\u2013Geneva 8", "tier": 1, "lines": ["Ocean\u2013Geneva Line"], "headway": "90 s"}}, {"type": "Feature", "geometry": {"type": "Point", "coordinates": [-122.424356, 37.709934]}, "properties": {"ftype": "station", "name": "Ocean\u2013Geneva 9", "tier": 1, "lines": ["Ocean\u2013Geneva Line"], "headway": "90 s"}}, {"type": "Feature", "geometry": {"type": "Point", "coordinates": [-122.415835, 37.707125]}, "properties": {"ftype": "station", "name": "Ocean\u2013Geneva 10", "tier": 1, "lines": ["Ocean\u2013Geneva Line"], "headway": "90 s"}}, {"type": "Feature", "geometry": {"type": "Point", "coordinates": [-122.468652, 37.784634]}, "properties": {"ftype": "station", "name": "California 1", "tier": 1, "lines": ["California Line"], "headway": "90 s"}}, {"type": "Feature", "geometry": {"type": "Point", "coordinates": [-122.459146, 37.785694]}, "properties": {"ftype": "station", "name": "California 2", "tier": 1, "lines": ["California Line"], "headway": "90 s"}}, {"type": "Feature", "geometry": {"type": "Point", "coordinates": [-122.449663, 37.786902]}, "properties": {"ftype": "station", "name": "California 3", "tier": 1, "lines": ["California Line"], "headway": "90 s"}}, {"type": "Feature", "geometry": {"type": "Point", "coordinates": [-122.413652, 37.79148]}, "properties": {"ftype": "station", "name": "California 4", "tier": 1, "lines": ["California Line"], "headway": "90 s"}}, {"type": "Feature", "geometry": {"type": "Point", "coordinates": [-122.40506, 37.792573]}, "properties": {"ftype": "station", "name": "California 5", "tier": 1, "lines": ["California Line"], "headway": "90 s"}}, {"type": "Feature", "geometry": {"type": "Point", "coordinates": [-122.416005, 37.799592]}, "properties": {"ftype": "station", "name": "Union 1", "tier": 1, "lines": ["Union Line"], "headway": "90 s"}}, {"type": "Feature", "geometry": {"type": "Point", "coordinates": [-122.408254, 37.800562]}, "properties": {"ftype": "station", "name": "Union 2", "tier": 1, "lines": ["Union Line"], "headway": "90 s"}}, {"type": "Feature", "geometry": {"type": "Point", "coordinates": [-122.44347, 37.758673]}, "properties": {"ftype": "station", "name": "Market 1", "tier": 1, "lines": ["Market Line"], "headway": "90 s"}}, {"type": "Feature", "geometry": {"type": "Point", "coordinates": [-122.427137, 37.768938]}, "properties": {"ftype": "station", "name": "Market 2", "tier": 1, "lines": ["Market Line"], "headway": "90 s"}}, {"type": "Feature", "geometry": {"type": "Point", "coordinates": [-122.411355, 37.781382]}, "properties": {"ftype": "station", "name": "Market 3", "tier": 1, "lines": ["Market Line"], "headway": "90 s"}}, {"type": "Feature", "geometry": {"type": "Point", "coordinates": [-122.427258, 37.764593]}, "properties": {"ftype": "station", "name": "16th St 1", "tier": 1, "lines": ["16th St Line"], "headway": "90 s"}}, {"type": "Feature", "geometry": {"type": "Point", "coordinates": [-122.398057, 37.766364]}, "properties": {"ftype": "station", "name": "16th St 2", "tier": 1, "lines": ["16th St Line"], "headway": "90 s"}}, {"type": "Feature", "geometry": {"type": "Point", "coordinates": [-122.424909, 37.751856]}, "properties": {"ftype": "station", "name": "24th St 1", "tier": 1, "lines": ["24th St Line"], "headway": "90 s"}}, {"type": "Feature", "geometry": {"type": "Point", "coordinates": [-122.397359, 37.753555]}, "properties": {"ftype": "station", "name": "24th St 2", "tier": 1, "lines": ["24th St Line"], "headway": "90 s"}}, {"type": "Feature", "geometry": {"type": "Point", "coordinates": [-122.495318, 37.754404]}, "properties": {"ftype": "station", "name": "Sunset 1", "tier": 1, "lines": ["Sunset Line"], "headway": "90 s"}}, {"type": "Feature", "geometry": {"type": "Point", "coordinates": [-122.494861, 37.748332]}, "properties": {"ftype": "station", "name": "Sunset 2", "tier": 1, "lines": ["Sunset Line"], "headway": "90 s"}}, {"type": "Feature", "geometry": {"type": "Point", "coordinates": [-122.474561, 37.719309]}, "properties": {"ftype": "station", "name": "19th Ave 1", "tier": 1, "lines": ["19th Ave Line"], "headway": "90 s"}}, {"type": "Feature", "geometry": {"type": "Point", "coordinates": [-122.474963, 37.725891]}, "properties": {"ftype": "station", "name": "19th Ave 2", "tier": 1, "lines": ["19th Ave Line"], "headway": "90 s"}}, {"type": "Feature", "geometry": {"type": "Point", "coordinates": [-122.476127, 37.749273]}, "properties": {"ftype": "station", "name": "19th Ave 3", "tier": 1, "lines": ["19th Ave Line"], "headway": "90 s"}}, {"type": "Feature", "geometry": {"type": "Point", "coordinates": [-122.476565, 37.755565]}, "properties": {"ftype": "station", "name": "19th Ave 4", "tier": 1, "lines": ["19th Ave Line"], "headway": "90 s"}}, {"type": "Feature", "geometry": {"type": "Point", "coordinates": [-122.473515, 37.786285]}, "properties": {"ftype": "station", "name": "19th Ave 5", "tier": 1, "lines": ["19th Ave Line"], "headway": "90 s"}}, {"type": "Feature", "geometry": {"type": "Point", "coordinates": [-122.472307, 37.780113]}, "properties": {"ftype": "station", "name": "19th Ave 6", "tier": 1, "lines": ["19th Ave Line"], "headway": "90 s"}}, {"type": "Feature", "geometry": {"type": "Point", "coordinates": [-122.436903, 37.770464]}, "properties": {"ftype": "station", "name": "Divisadero 1", "tier": 1, "lines": ["Divisadero Line"], "headway": "90 s"}}, {"type": "Feature", "geometry": {"type": "Point", "coordinates": [-122.433328, 37.742987]}, "properties": {"ftype": "station", "name": "Divisadero 3", "tier": 1, "lines": ["Divisadero Line"], "headway": "90 s"}}, {"type": "Feature", "geometry": {"type": "Point", "coordinates": [-122.456787, 37.707409]}, "properties": {"ftype": "station", "name": "Mission 1", "tier": 1, "lines": ["Mission Line"], "headway": "90 s"}}, {"type": "Feature", "geometry": {"type": "Point", "coordinates": [-122.447575, 37.710802]}, "properties": {"ftype": "station", "name": "Mission 2", "tier": 1, "lines": ["Mission Line"], "headway": "90 s"}}, {"type": "Feature", "geometry": {"type": "Point", "coordinates": [-122.429475, 37.730589]}, "properties": {"ftype": "station", "name": "Mission 4", "tier": 1, "lines": ["Mission Line"], "headway": "90 s"}}, {"type": "Feature", "geometry": {"type": "Point", "coordinates": [-122.424128, 37.737542]}, "properties": {"ftype": "station", "name": "Mission 5", "tier": 1, "lines": ["Mission Line"], "headway": "90 s"}}, {"type": "Feature", "geometry": {"type": "Point", "coordinates": [-122.420201, 37.745124]}, "properties": {"ftype": "station", "name": "Mission 6", "tier": 1, "lines": ["Mission Line"], "headway": "90 s"}}, {"type": "Feature", "geometry": {"type": "Point", "coordinates": [-122.419328, 37.761288]}, "properties": {"ftype": "station", "name": "Mission 8", "tier": 1, "lines": ["Mission Line"], "headway": "90 s"}}, {"type": "Feature", "geometry": {"type": "Point", "coordinates": [-122.420002, 37.76954]}, "properties": {"ftype": "station", "name": "Mission 9", "tier": 1, "lines": ["Mission Line"], "headway": "90 s"}}, {"type": "Feature", "geometry": {"type": "Point", "coordinates": [-122.414577, 37.776344]}, "properties": {"ftype": "station", "name": "Mission 10", "tier": 1, "lines": ["Mission Line"], "headway": "90 s"}}, {"type": "Feature", "geometry": {"type": "Point", "coordinates": [-122.407201, 37.782174]}, "properties": {"ftype": "station", "name": "Mission 11", "tier": 1, "lines": ["Mission Line"], "headway": "90 s"}}, {"type": "Feature", "geometry": {"type": "Point", "coordinates": [-122.399824, 37.788002]}, "properties": {"ftype": "station", "name": "Mission 12", "tier": 1, "lines": ["Mission Line"], "headway": "90 s"}}, {"type": "Feature", "geometry": {"type": "Point", "coordinates": [-122.395451, 37.722902]}, "properties": {"ftype": "station", "name": "3rd St 1", "tier": 1, "lines": ["3rd St Line"], "headway": "90 s"}}, {"type": "Feature", "geometry": {"type": "Point", "coordinates": [-122.392221, 37.730521]}, "properties": {"ftype": "station", "name": "3rd St 2", "tier": 1, "lines": ["3rd St Line"], "headway": "90 s"}}, {"type": "Feature", "geometry": {"type": "Point", "coordinates": [-122.389492, 37.738266]}, "properties": {"ftype": "station", "name": "3rd St 3", "tier": 1, "lines": ["3rd St Line"], "headway": "90 s"}}, {"type": "Feature", "geometry": {"type": "Point", "coordinates": [-122.387205, 37.746071]}, "properties": {"ftype": "station", "name": "3rd St 4", "tier": 1, "lines": ["3rd St Line"], "headway": "90 s"}}, {"type": "Feature", "geometry": {"type": "Point", "coordinates": [-122.388588, 37.760629]}, "properties": {"ftype": "station", "name": "3rd St 5", "tier": 1, "lines": ["3rd St Line"], "headway": "90 s"}}, {"type": "Feature", "geometry": {"type": "Point", "coordinates": [-122.389951, 37.775392]}, "properties": {"ftype": "station", "name": "3rd St 6", "tier": 1, "lines": ["3rd St Line"], "headway": "90 s"}}, {"type": "Feature", "geometry": {"type": "Point", "coordinates": [-122.396326, 37.781699]}, "properties": {"ftype": "station", "name": "3rd St 7", "tier": 1, "lines": ["3rd St Line"], "headway": "90 s"}}, {"type": "Feature", "geometry": {"type": "Point", "coordinates": [-122.40694, 37.759451]}, "properties": {"ftype": "station", "name": "Potrero 1", "tier": 1, "lines": ["Potrero Line"], "headway": "90 s"}}, {"type": "Feature", "geometry": {"type": "Point", "coordinates": [-122.407434, 37.807431]}, "properties": {"ftype": "station", "name": "Embarcadero 1", "tier": 1, "lines": ["Embarcadero Line"], "headway": "90 s"}}, {"type": "Feature", "geometry": {"type": "Point", "coordinates": [-122.400217, 37.802209]}, "properties": {"ftype": "station", "name": "Embarcadero 2", "tier": 1, "lines": ["Embarcadero Line"], "headway": "90 s"}}, {"type": "Feature", "geometry": {"type": "Point", "coordinates": [-122.394609, 37.795761]}, "properties": {"ftype": "station", "name": "Embarcadero 3", "tier": 1, "lines": ["Embarcadero Line"], "headway": "90 s"}}, {"type": "Feature", "geometry": {"type": "Point", "coordinates": [-122.388584, 37.789575]}, "properties": {"ftype": "station", "name": "Embarcadero 4", "tier": 1, "lines": ["Embarcadero Line"], "headway": "90 s"}}]}
