{"type": "FeatureCollection", "features": [{"type": "Feature", "geometry": {"type": "LineString", "coordinates": [[-122.2566, 38.1041], [-122.24529, 38.10628], [-122.24556, 38.10739], [-122.24591, 38.10888], [-122.24635, 38.11068], [-122.24707, 38.11365], [-122.2478, 38.11673], [-122.24813, 38.11807], [-122.24854, 38.11977], [-122.24912, 38.12218], [-122.24942, 38.12354], [-122.2496, 38.12485], [-122.24982, 38.127], [-122.25003, 38.12896], [-122.25014, 38.13013], [-122.25057, 38.13488], [-122.25084, 38.13636], [-122.25098, 38.13775], [-122.25125, 38.14039], [-122.25139, 38.14166], [-122.25157, 38.14337], [-122.25171, 38.14469], [-122.2523, 38.15021], [-122.25263, 38.15327], [-122.25284, 38.1553], [-122.25289, 38.15692], [-122.25259, 38.16117], [-122.25243, 38.16338], [-122.25227, 38.16549], [-122.25198, 38.16937], [-122.25183, 38.17144], [-122.25139, 38.17745], [-122.2512, 38.18015], [-122.25084, 38.1851], [-122.25068, 38.18641], [-122.25087, 38.18752], [-122.25172, 38.18843], [-122.25314, 38.18867], [-122.25475, 38.18898], [-122.25648, 38.18976], [-122.25791, 38.19044], [-122.25894, 38.19119], [-122.25937, 38.19229], [-122.25912, 38.19392], [-122.25889, 38.1952], [-122.25859, 38.19688], [-122.25841, 38.19813], [-122.25887, 38.19921], [-122.26, 38.2008], [-122.26071, 38.20182], [-122.26153, 38.20298], [-122.26263, 38.20454], [-122.26401, 38.20649], [-122.26606, 38.20962], [-122.2669, 38.2109], [-122.26805, 38.21267], [-122.26908, 38.21426], [-122.26983, 38.2154], [-122.27069, 38.21672], [-122.27155, 38.21803], [-122.27248, 38.21946], [-122.27426, 38.22219], [-122.2756, 38.22424], [-122.27635, 38.22538], [-122.27766, 38.2274], [-122.27839, 38.22851], [-122.27913, 38.22966], [-122.2802, 38.23129], [-122.28215, 38.23426], [-122.28385, 38.23687], [-122.28463, 38.23818], [-122.28506, 38.23932], [-122.28527, 38.24064], [-122.28527, 38.24181], [-122.28512, 38.2429], [-122.28481, 38.24401], [-122.28435, 38.24504], [-122.28342, 38.24635], [-122.28267, 38.2474], [-122.28207, 38.24839], [-122.28148, 38.24972], [-122.28111, 38.25103], [-122.28095, 38.25212], [-122.2809, 38.25372], [-122.28091, 38.25639], [-122.2809, 38.26029], [-122.2809, 38.26336], [-122.2809, 38.26449], [-122.2809, 38.2656], [-122.28091, 38.26706], [-122.28091, 38.26916], [-122.28091, 38.27061], [-122.2808, 38.27179], [-122.28033, 38.27313], [-122.27993, 38.27419], [-122.27968, 38.27624], [-122.27957, 38.2776], [-122.2797, 38.27873], [-122.2803, 38.27972], [-122.28127, 38.28057], [-122.28208, 38.28157], [-122.28226, 38.28273], [-122.28181, 38.28385], [-122.28112, 38.28486], [-122.2809, 38.28604], [-122.2809, 38.28744], [-122.2808, 38.28879], [-122.28023, 38.29081], [-122.28009, 38.29205], [-122.28083, 38.29426], [-122.28095, 38.29555], [-122.28095, 38.2967], [-122.286, 38.297], [-122.28094, 38.29696], [-122.28114, 38.29814], [-122.28164, 38.29916], [-122.28244, 38.30018], [-122.28377, 38.30183], [-122.28458, 38.30283], [-122.28531, 38.30385], [-122.28572, 38.30489], [-122.28684, 38.30634], [-122.28793, 38.30768], [-122.28879, 38.30874], [-122.28966, 38.30963], [-122.2915, 38.31076], [-122.29436, 38.31244], [-122.29738, 38.31421], [-122.29928, 38.31532], [-122.30272, 38.31734], [-122.30655, 38.31897], [-122.30776, 38.31949], [-122.30885, 38.32041], [-122.31032, 38.32232], [-122.31157, 38.32377], [-122.31741, 38.33056], [-122.31927, 38.3327], [-122.32005, 38.33367], [-122.32194, 38.3361], [-122.32401, 38.33871], [-122.3248, 38.33986], [-122.32638, 38.34289], [-122.32867, 38.34727], [-122.33031, 38.35039], [-122.33171, 38.35299], [-122.33326, 38.35596], [-122.33796, 38.36491], [-122.33894, 38.36674], [-122.34534, 38.37887], [-122.34594, 38.37987], [-122.34777, 38.38268], [-122.34959, 38.38552], [-122.35072, 38.38729], [-122.35186, 38.38909], [-122.35469, 38.39307], [-122.35565, 38.39415], [-122.35857, 38.39643], [-122.35963, 38.39732], [-122.36092, 38.39869], [-122.36196, 38.39974], [-122.3683, 38.40533], [-122.36961, 38.40628], [-122.37163, 38.40725], [-122.37316, 38.40794], [-122.37477, 38.40856], [-122.37932, 38.41014], [-122.38089, 38.41078], [-122.38235, 38.41149], [-122.3836, 38.41221], [-122.38479, 38.41301], [-122.38589, 38.41385], [-122.38692, 38.41475], [-122.38805, 38.41595], [-122.38883, 38.41694], [-122.38977, 38.41838], [-122.3905, 38.41984], [-122.39096, 38.42104], [-122.3917, 38.42327], [-122.39235, 38.42458], [-122.39387, 38.42651], [-122.39517, 38.42811], [-122.39789, 38.43121], [-122.39916, 38.43261], [-122.40009, 38.43367], [-122.40286, 38.4367], [-122.40466, 38.4387], [-122.40606, 38.44023], [-122.40768, 38.44202], [-122.40848, 38.44291], [-122.41063, 38.4453], [-122.41259, 38.44748], [-122.41491, 38.45003], [-122.41708, 38.45239], [-122.41937, 38.45485], [-122.42146, 38.45708], [-122.42286, 38.45858], [-122.42438, 38.46021], [-122.42531, 38.46135], [-122.42612, 38.46249], [-122.42746, 38.46445], [-122.42816, 38.46548], [-122.43019, 38.46841], [-122.43147, 38.47024], [-122.43213, 38.4712], [-122.43339, 38.47306], [-122.43526, 38.47584], [-122.43602, 38.47695], [-122.43686, 38.47791], [-122.4403, 38.48085], [-122.44247, 38.48268], [-122.44573, 38.48544], [-122.44736, 38.48682], [-122.44967, 38.48878], [-122.4516, 38.49042], [-122.45328, 38.49184], [-122.45545, 38.49372], [-122.45664, 38.49475], [-122.45777, 38.49573], [-122.46, 38.49766], [-122.4615, 38.49897], [-122.4641, 38.50123], [-122.46511, 38.50211], [-122.46658, 38.50344], [-122.46818, 38.50489], [-122.46949, 38.50607], [-122.47, 38.505], [-122.47106, 38.50572], [-122.47296, 38.50687], [-122.47434, 38.50765], [-122.47555, 38.50833], [-122.4774, 38.50935], [-122.47862, 38.51009], [-122.48187, 38.51317], [-122.48374, 38.51482], [-122.48485, 38.5157], [-122.48637, 38.51672], [-122.48802, 38.51764], [-122.48926, 38.51833], [-122.49062, 38.51907], [-122.49221, 38.5201], [-122.49338, 38.52096], [-122.49459, 38.52188], [-122.49596, 38.52318], [-122.49685, 38.52414], [-122.49782, 38.52535], [-122.49848, 38.52648], [-122.4994, 38.52753], [-122.50097, 38.52854], [-122.50211, 38.5293], [-122.50322, 38.53014], [-122.50401, 38.53114], [-122.50469, 38.53225], [-122.50478, 38.53342], [-122.50512, 38.53453], [-122.50569, 38.53556], [-122.50688, 38.53665], [-122.50762, 38.53801], [-122.50804, 38.53908], [-122.50841, 38.54033], [-122.5088, 38.54195], [-122.50909, 38.54338], [-122.50955, 38.54488], [-122.51006, 38.54596], [-122.51056, 38.54702], [-122.51153, 38.54804], [-122.51431, 38.5502], [-122.51531, 38.55099], [-122.51694, 38.55166], [-122.51907, 38.55224], [-122.5205, 38.55276], [-122.52184, 38.55315], [-122.52368, 38.55326], [-122.52527, 38.55338], [-122.52664, 38.55388], [-122.52806, 38.55462], [-122.52973, 38.55584], [-122.53095, 38.55667], [-122.53219, 38.55725], [-122.53391, 38.55812], [-122.53604, 38.5596], [-122.53708, 38.56032], [-122.5384, 38.56118], [-122.53997, 38.56182], [-122.54482, 38.56282], [-122.54749, 38.56332], [-122.55001, 38.5638], [-122.55226, 38.56421], [-122.55494, 38.56471], [-122.55744, 38.56497], [-122.55925, 38.56519], [-122.56091, 38.56566], [-122.56325, 38.56638], [-122.56473, 38.56699], [-122.56586, 38.56816], [-122.5667, 38.56953], [-122.56786, 38.57049], [-122.56965, 38.57141], [-122.57146, 38.57248], [-122.57257, 38.57318], [-122.57578, 38.57403], [-122.57716, 38.57427], [-122.57881, 38.57467], [-122.58018, 38.57514], [-122.57983, 38.57678], [-122.57933, 38.5779], [-122.58, 38.579]]}, "properties": {"ftype": "line", "id": "rx-wine", "name": "RX Wine Country (Vallejo\u2013Calistoga)", "tier": 2, "headway": "20 min"}}, {"type": "Feature", "geometry": {"type": "LineString", "coordinates": [[-122.7141, 38.4404], [-122.71782, 38.43769], [-122.71712, 38.43647], [-122.71635, 38.43431], [-122.71588, 38.43324], [-122.71505, 38.4323], [-122.71379, 38.43137], [-122.71245, 38.43106], [-122.71083, 38.43115], [-122.70947, 38.4315], [-122.70677, 38.43227], [-122.70544, 38.43263], [-122.70397, 38.43293], [-122.70234, 38.4332], [-122.69899, 38.43374], [-122.69755, 38.43397], [-122.69613, 38.43422], [-122.69472, 38.43456], [-122.69301, 38.43505], [-122.69128, 38.43559], [-122.68839, 38.43658], [-122.68741, 38.43748], [-122.68727, 38.43864], [-122.68707, 38.43989], [-122.68718, 38.4412], [-122.68735, 38.44244], [-122.68764, 38.44371], [-122.68783, 38.44484], [-122.68804, 38.44613], [-122.68814, 38.44731], [-122.68834, 38.44858], [-122.68826, 38.44971], [-122.68666, 38.44991], [-122.68531, 38.44952], [-122.68373, 38.44974], [-122.68238, 38.4509], [-122.68165, 38.45205], [-122.68108, 38.45369], [-122.68051, 38.45469], [-122.67947, 38.45552], [-122.67802, 38.45655], [-122.67641, 38.45763], [-122.67524, 38.45833], [-122.67388, 38.45883], [-122.67258, 38.4597], [-122.67111, 38.46074], [-122.67011, 38.46151], [-122.66902, 38.46227], [-122.66758, 38.46305], [-122.66615, 38.4635], [-122.66454, 38.4639], [-122.66241, 38.46438], [-122.66079, 38.46475], [-122.65933, 38.46498], [-122.65785, 38.46499], [-122.65628, 38.46496], [-122.65471, 38.46489], [-122.65322, 38.46485], [-122.65149, 38.46478], [-122.64944, 38.46437], [-122.64719, 38.46369], [-122.64574, 38.4632], [-122.6444, 38.46273], [-122.64308, 38.46226], [-122.64184, 38.46176], [-122.64052, 38.46107], [-122.63869, 38.46007], [-122.63744, 38.45937], [-122.63592, 38.45857], [-122.63439, 38.45818], [-122.63278, 38.4579], [-122.63144, 38.45755], [-122.62871, 38.45625], [-122.62749, 38.45573], [-122.626, 38.45502], [-122.62464, 38.45438], [-122.62313, 38.45368], [-122.62142, 38.45289], [-122.62007, 38.45227], [-122.61828, 38.45149], [-122.61593, 38.45038], [-122.61439, 38.44967], [-122.61171, 38.4484], [-122.60843, 38.44684], [-122.60718, 38.44629], [-122.60583, 38.44563], [-122.60454, 38.44502], [-122.60192, 38.44382], [-122.5978, 38.4419], [-122.59639, 38.44136], [-122.59424, 38.44085], [-122.5888, 38.43957], [-122.58718, 38.43916], [-122.58593, 38.43868], [-122.5837, 38.43775], [-122.58019, 38.43629], [-122.5782, 38.43548], [-122.57493, 38.43407], [-122.57311, 38.43333], [-122.57107, 38.43246], [-122.56973, 38.43189], [-122.56741, 38.43092], [-122.56617, 38.4304], [-122.56486, 38.42985], [-122.56344, 38.42925], [-122.56176, 38.42852], [-122.56026, 38.42789], [-122.55912, 38.42716], [-122.55649, 38.42458], [-122.55514, 38.42327], [-122.55317, 38.42128], [-122.55231, 38.42043], [-122.55114, 38.41925], [-122.55009, 38.41823], [-122.54906, 38.41719], [-122.54753, 38.41567], [-122.54664, 38.41484], [-122.54562, 38.41373], [-122.54464, 38.41212], [-122.54399, 38.41087], [-122.54339, 38.4097], [-122.54281, 38.40858], [-122.5418, 38.4065], [-122.54112, 38.40542], [-122.54016, 38.40435], [-122.53965, 38.40312], [-122.53877, 38.40087], [-122.53822, 38.39971], [-122.53737, 38.39861], [-122.53622, 38.39758], [-122.535, 38.39656], [-122.53386, 38.39556], [-122.53206, 38.394], [-122.53076, 38.39265], [-122.52941, 38.39166], [-122.52663, 38.39039], [-122.52432, 38.38933], [-122.52258, 38.38848], [-122.52109, 38.38775], [-122.51931, 38.38679], [-122.51822, 38.38574], [-122.51672, 38.38326], [-122.51549, 38.38131], [-122.51442, 38.37945], [-122.5138, 38.37844], [-122.51316, 38.37694], [-122.51321, 38.37576], [-122.51361, 38.3747], [-122.51511, 38.37274], [-122.51576, 38.37175], [-122.51576, 38.37061], [-122.51498, 38.36951], [-122.51393, 38.36836], [-122.51307, 38.36744], [-122.51219, 38.36656], [-122.51101, 38.36539], [-122.51012, 38.3645], [-122.50918, 38.36358], [-122.50804, 38.36243], [-122.50721, 38.36149], [-122.50638, 38.36053], [-122.505, 38.35899], [-122.50399, 38.35782], [-122.503, 38.35642], [-122.50098, 38.35357], [-122.50023, 38.35234], [-122.49969, 38.35119], [-122.49904, 38.34995], [-122.49885, 38.34797], [-122.49889, 38.34621], [-122.49863, 38.34506], [-122.49787, 38.34389], [-122.49671, 38.34243], [-122.49591, 38.34145], [-122.49491, 38.34017], [-122.49386, 38.33864], [-122.49309, 38.33751], [-122.4922, 38.33605], [-122.49148, 38.33473], [-122.49078, 38.33329], [-122.49023, 38.33224], [-122.48972, 38.33082], [-122.48947, 38.32919], [-122.48926, 38.32789], [-122.48877, 38.32684], [-122.48828, 38.32583], [-122.48781, 38.32457], [-122.48743, 38.3232], [-122.48695, 38.32151], [-122.48651, 38.32046], [-122.48578, 38.31954], [-122.4844, 38.31778], [-122.48361, 38.31685], [-122.4826, 38.31577], [-122.48185, 38.31449], [-122.48129, 38.31342], [-122.48062, 38.31216], [-122.48005, 38.31117], [-122.47952, 38.31011], [-122.479, 38.3091], [-122.47845, 38.30805], [-122.47803, 38.3068], [-122.47774, 38.30574], [-122.47737, 38.30454], [-122.47677, 38.30341], [-122.47586, 38.30245], [-122.47503, 38.30154], [-122.47496, 38.30042], [-122.47517, 38.29923], [-122.47531, 38.2981], [-122.47551, 38.29669], [-122.47566, 38.29551], [-122.47584, 38.29443], [-122.47473, 38.29358], [-122.47322, 38.29343], [-122.47183, 38.29329], [-122.4704, 38.29315], [-122.46901, 38.29301], [-122.46751, 38.29288], [-122.46607, 38.29273], [-122.46449, 38.29257], [-122.46299, 38.29243], [-122.4614, 38.29227], [-122.45997, 38.29213], [-122.45848, 38.29201], [-122.45803, 38.29091], [-122.4582, 38.28982], [-122.45837, 38.28872], [-122.45858, 38.28734], [-122.45878, 38.28594], [-122.45895, 38.28482], [-122.45916, 38.28357], [-122.45939, 38.28214], [-122.45956, 38.28101], [-122.45973, 38.27992], [-122.45989, 38.27876], [-122.46004, 38.27765], [-122.46021, 38.27653], [-122.46041, 38.2751], [-122.46059, 38.27398], [-122.46083, 38.27246], [-122.46102, 38.27131], [-122.46122, 38.27016], [-122.46149, 38.26859], [-122.46166, 38.26736], [-122.46184, 38.26588], [-122.46206, 38.26449], [-122.46224, 38.26334], [-122.46168, 38.26223], [-122.45959, 38.26203], [-122.45822, 38.26193], [-122.45681, 38.26124], [-122.45617, 38.26015], [-122.45508, 38.25835], [-122.45439, 38.25727], [-122.45336, 38.25566], [-122.45263, 38.25424], [-122.45203, 38.25296], [-122.45142, 38.25167], [-122.45051, 38.25041], [-122.44986, 38.2494], [-122.44968, 38.24831], [-122.44944, 38.2466], [-122.44928, 38.24544], [-122.44816, 38.24463], [-122.4463, 38.24488], [-122.44454, 38.24517], [-122.43929, 38.24594], [-122.43771, 38.24611], [-122.4353, 38.24616], [-122.43304, 38.24621], [-122.43046, 38.24626], [-122.42905, 38.24629], [-122.42269, 38.24643], [-122.41941, 38.24651], [-122.41741, 38.24655], [-122.41549, 38.24659], [-122.41408, 38.24664], [-122.41282, 38.24715], [-122.41098, 38.24831], [-122.41007, 38.24922], [-122.40882, 38.25074], [-122.40779, 38.25147], [-122.40613, 38.25196], [-122.40376, 38.25263], [-122.40233, 38.25266], [-122.39993, 38.25193], [-122.39858, 38.25171], [-122.39723, 38.25199], [-122.39552, 38.25279], [-122.39419, 38.25336], [-122.39253, 38.25339], [-122.38974, 38.25245], [-122.38817, 38.25195], [-122.38236, 38.25055], [-122.3808, 38.2504], [-122.37897, 38.2507], [-122.37701, 38.25168], [-122.37405, 38.2533], [-122.37247, 38.254], [-122.37092, 38.25458], [-122.36905, 38.25522], [-122.36718, 38.25583], [-122.36571, 38.25618], [-122.36434, 38.25616], [-122.36276, 38.25612], [-122.36016, 38.25701], [-122.35812, 38.25799], [-122.35677, 38.25821], [-122.3548, 38.25779], [-122.35183, 38.25669], [-122.34736, 38.25599], [-122.3459, 38.25582], [-122.34371, 38.25556], [-122.3423, 38.25535], [-122.34096, 38.25509], [-122.33943, 38.25481], [-122.338, 38.25456], [-122.33648, 38.25454], [-122.33454, 38.25484], [-122.33318, 38.25507], [-122.33182, 38.25531], [-122.33018, 38.25562], [-122.32851, 38.2559], [-122.32671, 38.25623], [-122.32462, 38.25661], [-122.32264, 38.25697], [-122.32083, 38.2573], [-122.31867, 38.25768], [-122.31541, 38.25826], [-122.31255, 38.25877], [-122.31105, 38.25893], [-122.30912, 38.25875], [-122.30757, 38.2585], [-122.30519, 38.25812], [-122.30364, 38.25778], [-122.30218, 38.25824], [-122.30076, 38.26], [-122.29996, 38.26115], [-122.29939, 38.26237], [-122.29908, 38.26366], [-122.29869, 38.26701], [-122.29853, 38.26846], [-122.29845, 38.26997], [-122.29846, 38.27149], [-122.29855, 38.27298], [-122.29874, 38.27457], [-122.299, 38.27609], [-122.29927, 38.27762], [-122.29959, 38.28025], [-122.29975, 38.28146], [-122.29844, 38.2819], [-122.29632, 38.28191], [-122.29454, 38.28192], [-122.29301, 38.28191], [-122.29162, 38.28186], [-122.28934, 38.28167], [-122.28794, 38.2816], [-122.28597, 38.28159], [-122.28459, 38.28153], [-122.2826, 38.28132], [-122.28122, 38.28112], [-122.2797, 38.28092], [-122.27763, 38.2808], [-122.27573, 38.28059], [-122.27434, 38.28049], [-122.27438, 38.28163], [-122.27451, 38.28288], [-122.2746, 38.28399], [-122.27463, 38.28519], [-122.27475, 38.28645], [-122.27506, 38.28768], [-122.27518, 38.2888], [-122.27482, 38.28997], [-122.275, 38.29115], [-122.27529, 38.29242], [-122.27559, 38.29371], [-122.27555, 38.29492], [-122.27537, 38.29613], [-122.2752, 38.29736], [-122.27546, 38.29853], [-122.27593, 38.29959], [-122.286, 38.297]]}, "properties": {"ftype": "line", "id": "rx-sonoma", "name": "RX Sonoma (Santa Rosa\u2013Napa)", "tier": 2, "headway": "20 min"}}, {"type": "Feature", "geometry": {"type": "LineString", "coordinates": [[-122.7141, 38.4404], [-122.71782, 38.43769], [-122.71712, 38.43647], [-122.71815, 38.43772], [-122.71933, 38.43928], [-122.72132, 38.44221], [-122.72365, 38.44557], [-122.72491, 38.44736], [-122.72555, 38.44861], [-122.72588, 38.44968], [-122.72603, 38.45092], [-122.72595, 38.45407], [-122.72591, 38.45573], [-122.72612, 38.45971], [-122.72634, 38.46269], [-122.72651, 38.46386], [-122.72743, 38.46624], [-122.72881, 38.46945], [-122.73019, 38.47268], [-122.73104, 38.47477], [-122.73178, 38.47652], [-122.7325, 38.47821], [-122.73332, 38.47953], [-122.73437, 38.48068], [-122.73663, 38.48238], [-122.74251, 38.48652], [-122.74551, 38.48867], [-122.75139, 38.49283], [-122.75333, 38.49421], [-122.75436, 38.49494], [-122.75577, 38.49595], [-122.75756, 38.49721], [-122.75861, 38.49796], [-122.76012, 38.49905], [-122.76459, 38.50261], [-122.76814, 38.50546], [-122.76951, 38.50655], [-122.77099, 38.50773], [-122.77238, 38.50884], [-122.77404, 38.51017], [-122.77597, 38.51175], [-122.77824, 38.51351], [-122.77943, 38.51451], [-122.78046, 38.51549], [-122.78217, 38.51735], [-122.784, 38.51934], [-122.78655, 38.52212], [-122.78985, 38.52566], [-122.79163, 38.52766], [-122.79346, 38.52964], [-122.79972, 38.53644], [-122.80434, 38.54154], [-122.80524, 38.54266], [-122.80697, 38.54548], [-122.80793, 38.54691], [-122.80868, 38.54784], [-122.80961, 38.54881], [-122.81082, 38.54988], [-122.81223, 38.5511], [-122.81394, 38.55258], [-122.81523, 38.55378], [-122.82018, 38.55896], [-122.82265, 38.56154], [-122.83005, 38.56935], [-122.83091, 38.5703], [-122.83185, 38.57141], [-122.83561, 38.5765], [-122.83803, 38.57974], [-122.84424, 38.5881], [-122.8455, 38.58979], [-122.84633, 38.59083], [-122.84749, 38.59191], [-122.84889, 38.59289], [-122.85012, 38.59353], [-122.85132, 38.59416], [-122.8534, 38.59524], [-122.85611, 38.59663], [-122.85806, 38.59765], [-122.85957, 38.59842], [-122.86132, 38.59935], [-122.86511, 38.60187], [-122.86826, 38.60398], [-122.86939, 38.60475], [-122.87119, 38.60594], [-122.87232, 38.60675], [-122.87324, 38.60758], [-122.87552, 38.61014], [-122.87448, 38.6091], [-122.87252, 38.60747], [-122.869, 38.61], [-122.87252, 38.60747], [-122.87448, 38.6091], [-122.87552, 38.61014], [-122.8772, 38.61206], [-122.87793, 38.61308], [-122.87848, 38.61436], [-122.87868, 38.61556], [-122.8786, 38.6175], [-122.8785, 38.61901], [-122.87834, 38.62172], [-122.87825, 38.62295], [-122.87807, 38.626], [-122.87782, 38.63015], [-122.87745, 38.63581], [-122.8772, 38.63695], [-122.87586, 38.64025], [-122.87441, 38.64364], [-122.87197, 38.64939], [-122.8716, 38.65055], [-122.87143, 38.65179], [-122.87148, 38.65299], [-122.87186, 38.65446], [-122.87242, 38.65569], [-122.87359, 38.65808], [-122.87415, 38.6592], [-122.87481, 38.66056], [-122.87538, 38.66186], [-122.87595, 38.66383], [-122.87642, 38.6658], [-122.87687, 38.66716], [-122.87753, 38.66831], [-122.87865, 38.66972], [-122.8793, 38.67077], [-122.87974, 38.6719], [-122.88027, 38.67398], [-122.88046, 38.6751], [-122.88052, 38.67671], [-122.88051, 38.67977], [-122.88051, 38.68165], [-122.88058, 38.68328], [-122.88077, 38.68441], [-122.88168, 38.68902], [-122.88213, 38.69048], [-122.88275, 38.6916], [-122.88362, 38.69268], [-122.88489, 38.69376], [-122.88633, 38.69459], [-122.88804, 38.69567], [-122.89055, 38.69737], [-122.89164, 38.69812], [-122.89356, 38.69934], [-122.89498, 38.7003], [-122.89602, 38.70108], [-122.89753, 38.702], [-122.89924, 38.70283], [-122.90054, 38.70333], [-122.90206, 38.70379], [-122.90343, 38.70417], [-122.90486, 38.70471], [-122.9098, 38.70743], [-122.9117, 38.70835], [-122.91304, 38.70889], [-122.91455, 38.70959], [-122.91605, 38.7106], [-122.91697, 38.71146], [-122.91874, 38.71344], [-122.92069, 38.71564], [-122.92215, 38.71725], [-122.92357, 38.71886], [-122.92464, 38.71992], [-122.92579, 38.72086], [-122.92719, 38.72179], [-122.9285, 38.72252], [-122.92987, 38.72313], [-122.93605, 38.72569], [-122.93742, 38.72631], [-122.93877, 38.72709], [-122.9399, 38.72791], [-122.94085, 38.72876], [-122.94183, 38.72982], [-122.9426, 38.73089], [-122.94322, 38.73194], [-122.94627, 38.7382], [-122.94708, 38.7395], [-122.94825, 38.74068], [-122.94971, 38.74162], [-122.95311, 38.74315], [-122.96453, 38.74938], [-122.96588, 38.75035], [-122.96735, 38.75181], [-122.9725, 38.75699], [-122.9734, 38.75783], [-122.97478, 38.75873], [-122.97639, 38.75939], [-122.97864, 38.76008], [-122.98008, 38.76054], [-122.98361, 38.76165], [-122.98488, 38.7621], [-122.9866, 38.76292], [-122.98902, 38.76416], [-122.9915, 38.76547], [-122.99316, 38.76669], [-122.99432, 38.76785], [-122.99538, 38.76866], [-122.99695, 38.77012], [-122.99952, 38.77329], [-123.00063, 38.77452], [-123.00578, 38.77848], [-123.00694, 38.77954], [-123.00786, 38.78081], [-123.00827, 38.78191], [-123.00849, 38.78307], [-123.0089, 38.78431], [-123.00954, 38.78553], [-123.01013, 38.78692], [-123.01135, 38.79162], [-123.01256, 38.79674], [-123.01264, 38.79813], [-123.01253, 38.79934], [-123.01228, 38.8005], [-123.01234, 38.80185], [-123.01238, 38.80302], [-123.01232, 38.80441], [-123.01197, 38.80674], [-123.01169, 38.8083], [-123.01161, 38.80969], [-123.01173, 38.81099], [-123.01214, 38.81248], [-123.01256, 38.81376], [-123.01441, 38.8194], [-123.01479, 38.82074], [-123.015, 38.82207], [-123.01501, 38.82363], [-123.01487, 38.82509], [-123.01437, 38.82741], [-123.01416, 38.82896], [-123.01451, 38.83044], [-123.01539, 38.83181], [-123.01713, 38.83314], [-123.01881, 38.83396], [-123.02001, 38.83493], [-123.02052, 38.83598], [-123.02059, 38.83782], [-123.02141, 38.83962], [-123.02239, 38.84041], [-123.02459, 38.84123], [-123.02588, 38.84194], [-123.02676, 38.843], [-123.02692, 38.84482], [-123.02681, 38.84596], [-123.02711, 38.84719], [-123.02787, 38.84817], [-123.02915, 38.84914], [-123.03017, 38.85016], [-123.03076, 38.85119], [-123.03147, 38.85227], [-123.03276, 38.85331], [-123.03535, 38.85485], [-123.0364, 38.85577], [-123.03765, 38.85722], [-123.03843, 38.8586], [-123.03934, 38.86013], [-123.03994, 38.86112], [-123.04074, 38.8627], [-123.04148, 38.86441], [-123.04199, 38.86566], [-123.0428, 38.86709], [-123.04342, 38.86812], [-123.04395, 38.86938], [-123.04434, 38.87105], [-123.04444, 38.87221], [-123.04453, 38.87359], [-123.04506, 38.87478], [-123.04521, 38.87645], [-123.04558, 38.87751], [-123.0468, 38.87864], [-123.04834, 38.87977], [-123.04973, 38.88036], [-123.05117, 38.88065], [-123.05255, 38.881], [-123.05373, 38.88178], [-123.05442, 38.88292], [-123.05426, 38.88436], [-123.05388, 38.88576], [-123.05354, 38.8874], [-123.05329, 38.88849], [-123.05317, 38.88958], [-123.05346, 38.89083], [-123.0543, 38.8932], [-123.05509, 38.89426], [-123.05619, 38.89506], [-123.05705, 38.89622], [-123.05714, 38.89739], [-123.05641, 38.89883], [-123.05587, 38.90019], [-123.05587, 38.90142], [-123.05645, 38.9027], [-123.05724, 38.90374], [-123.05754, 38.90523], [-123.05718, 38.90631], [-123.05631, 38.90725], [-123.05512, 38.90795], [-123.05409, 38.90908], [-123.05335, 38.91108], [-123.05331, 38.91227], [-123.05384, 38.91346], [-123.05507, 38.91449], [-123.05628, 38.91525], [-123.05745, 38.91618], [-123.05815, 38.91712], [-123.05855, 38.91826], [-123.05854, 38.91965], [-123.05796, 38.9217], [-123.05647, 38.92464], [-123.05617, 38.92574], [-123.0563, 38.92711], [-123.05683, 38.92823], [-123.05789, 38.92936], [-123.06107, 38.93212], [-123.06214, 38.93327], [-123.06283, 38.9343], [-123.0636, 38.93524], [-123.06554, 38.93703], [-123.06668, 38.93787], [-123.06928, 38.93933], [-123.07052, 38.93987], [-123.07218, 38.94017], [-123.07387, 38.94012], [-123.07568, 38.94021], [-123.07743, 38.94073], [-123.07874, 38.94154], [-123.0798, 38.94273], [-123.08034, 38.94396], [-123.0809, 38.94521], [-123.08231, 38.94706], [-123.08336, 38.94809], [-123.08466, 38.94883], [-123.08736, 38.94972], [-123.09031, 38.95062], [-123.09205, 38.95111], [-123.09421, 38.95162], [-123.09613, 38.95213], [-123.09767, 38.95261], [-123.09961, 38.95322], [-123.10332, 38.95439], [-123.10568, 38.95526], [-123.10699, 38.95586], [-123.10809, 38.95658], [-123.10912, 38.95753], [-123.11003, 38.95851], [-123.1113, 38.95987], [-123.11268, 38.96132], [-123.11359, 38.96246], [-123.11415, 38.96347], [-123.11481, 38.96525], [-123.11542, 38.96689], [-123.11584, 38.96796], [-123.11627, 38.96916], [-123.11654, 38.97023], [-123.11663, 38.97175], [-123.11652, 38.97285], [-123.11598, 38.97394], [-123.1154, 38.97509], [-123.11485, 38.97627], [-123.11472, 38.97749], [-123.11519, 38.97855], [-123.11598, 38.97966], [-123.11655, 38.98078], [-123.11694, 38.98233], [-123.11748, 38.98498], [-123.11782, 38.98671], [-123.11827, 38.98901], [-123.11854, 38.99093], [-123.11868, 38.99238], [-123.11864, 38.99372], [-123.11822, 38.9953], [-123.11779, 38.99679], [-123.11764, 38.99793], [-123.1177, 38.99929], [-123.11796, 39.00047], [-123.11851, 39.00188], [-123.11935, 39.00321], [-123.12009, 39.00427], [-123.12137, 39.00607], [-123.1236, 39.00917], [-123.12686, 39.01323], [-123.12817, 39.0148], [-123.12955, 39.01648], [-123.13192, 39.01927], [-123.13275, 39.02029], [-123.13359, 39.02124], [-123.13437, 39.02217], [-123.13565, 39.0237], [-123.13646, 39.02466], [-123.13746, 39.02586], [-123.13828, 39.02683], [-123.1392, 39.02798], [-123.14013, 39.02933], [-123.14088, 39.03044], [-123.14175, 39.03176], [-123.14254, 39.03293], [-123.14353, 39.03441], [-123.1442, 39.03546], [-123.14524, 39.03695], [-123.14592, 39.03793], [-123.1471, 39.03963], [-123.14836, 39.04147], [-123.14939, 39.04296], [-123.15048, 39.04448], [-123.15122, 39.04562], [-123.15223, 39.04701], [-123.15366, 39.04909], [-123.15437, 39.05012], [-123.15557, 39.05186], [-123.15629, 39.0529], [-123.15706, 39.05401], [-123.15782, 39.0551], [-123.1585, 39.05608], [-123.15935, 39.0573], [-123.16003, 39.05832], [-123.16099, 39.05971], [-123.16195, 39.0611], [-123.16279, 39.06223], [-123.16376, 39.06331], [-123.16484, 39.06431], [-123.16608, 39.06543], [-123.16714, 39.06641], [-123.16808, 39.06751], [-123.1689, 39.06895], [-123.16964, 39.07012], [-123.17065, 39.07117], [-123.17242, 39.07257], [-123.17395, 39.07378], [-123.17547, 39.07499], [-123.1769, 39.07612], [-123.17806, 39.07709], [-123.17903, 39.07817], [-123.17979, 39.07934], [-123.18086, 39.08127], [-123.18193, 39.08321], [-123.183, 39.08514], [-123.18379, 39.08657], [-123.1846, 39.08804], [-123.18567, 39.08998], [-123.18674, 39.09191], [-123.18781, 39.09384], [-123.18883, 39.09565], [-123.18941, 39.09674], [-123.19009, 39.09795], [-123.19083, 39.09914], [-123.19162, 39.10028], [-123.19258, 39.10168], [-123.19324, 39.10265], [-123.19392, 39.10385], [-123.19445, 39.1051], [-123.19483, 39.10638], [-123.19516, 39.10834], [-123.19536, 39.10965], [-123.19557, 39.1111], [-123.19585, 39.11293], [-123.19608, 39.11451], [-123.19613, 39.11569], [-123.19593, 39.11687], [-123.19545, 39.11835], [-123.19505, 39.11958], [-123.19481, 39.12075], [-123.19503, 39.12483], [-123.19517, 39.12675], [-123.19528, 39.12826], [-123.19537, 39.12944], [-123.1955, 39.13128], [-123.19562, 39.13299], [-123.19577, 39.13497], [-123.19592, 39.13706], [-123.19611, 39.13971], [-123.19622, 39.14116], [-123.19631, 39.14234], [-123.19645, 39.14431], [-123.19659, 39.1461], [-123.19666, 39.1472], [-123.19676, 39.14861], [-123.19684, 39.1497], [-123.19696, 39.15129], [-123.19734, 39.15236], [-123.208, 39.15], [-123.19815, 39.15164], [-123.19754, 39.15271], [-123.19735, 39.15405], [-123.19753, 39.15521], [-123.19789, 39.15692], [-123.19822, 39.15846], [-123.1985, 39.15977], [-123.19891, 39.16105], [-123.19953, 39.16227], [-123.20033, 39.16343], [-123.2013, 39.16451], [-123.20243, 39.16548], [-123.2037, 39.16634], [-123.20597, 39.16771], [-123.20731, 39.16851], [-123.21039, 39.17036], [-123.2115, 39.17108], [-123.21239, 39.17203], [-123.21291, 39.17314], [-123.21301, 39.17431], [-123.21285, 39.17589], [-123.21252, 39.17917], [-123.21239, 39.18047], [-123.21223, 39.18206], [-123.21204, 39.18364], [-123.21177, 39.18529], [-123.21158, 39.18641], [-123.21131, 39.18787], [-123.21108, 39.18901], [-123.21072, 39.19118], [-123.21027, 39.19373], [-123.21001, 39.19519], [-123.20971, 39.19693], [-123.20948, 39.19814], [-123.20835, 39.20122], [-123.20757, 39.20329], [-123.20584, 39.20759], [-123.20507, 39.20949], [-123.20469, 39.21061], [-123.2046, 39.21179], [-123.20484, 39.21299], [-123.20587, 39.21565], [-123.20651, 39.21729], [-123.20685, 39.21855], [-123.20696, 39.2198], [-123.2072, 39.22216], [-123.20745, 39.2247], [-123.20761, 39.22631], [-123.20795, 39.2291], [-123.20806, 39.23026], [-123.20816, 39.2314], [-123.2083, 39.23316], [-123.20837, 39.23447], [-123.20806, 39.23647], [-123.20787, 39.23777], [-123.20769, 39.239], [-123.20752, 39.24013], [-123.20736, 39.24124], [-123.20736, 39.24276], [-123.20763, 39.24411], [-123.20841, 39.24576], [-123.20938, 39.24753], [-123.21105, 39.25019], [-123.2118, 39.25156], [-123.21271, 39.25317], [-123.21346, 39.25422], [-123.21432, 39.25514], [-123.21539, 39.25607], [-123.21642, 39.25681], [-123.21832, 39.258], [-123.2198, 39.25897], [-123.22137, 39.26035], [-123.22263, 39.26162], [-123.22375, 39.26256], [-123.22511, 39.26338], [-123.22656, 39.26399], [-123.22938, 39.26506], [-123.23088, 39.2658], [-123.23276, 39.26694], [-123.23395, 39.26769], [-123.23538, 39.26846], [-123.23663, 39.26897], [-123.23861, 39.26962], [-123.24057, 39.2702], [-123.24253, 39.27085], [-123.24576, 39.27181], [-123.24749, 39.27237], [-123.24885, 39.27291], [-123.25023, 39.27361], [-123.25318, 39.27523], [-123.25556, 39.27653], [-123.25678, 39.27724], [-123.2578, 39.27822], [-123.25839, 39.27925], [-123.25889, 39.28089], [-123.25915, 39.28206], [-123.25985, 39.28308], [-123.26111, 39.2843], [-123.26214, 39.28548], [-123.26299, 39.28656], [-123.26397, 39.28792], [-123.26485, 39.28881], [-123.26598, 39.28957], [-123.26794, 39.29057], [-123.26909, 39.2912], [-123.27079, 39.29246], [-123.27196, 39.29314], [-123.27372, 39.29357], [-123.27551, 39.29378], [-123.27678, 39.29424], [-123.27795, 39.29514], [-123.27886, 39.29604], [-123.28064, 39.29673], [-123.28221, 39.29709], [-123.28351, 39.29775], [-123.28616, 39.29939], [-123.28838, 39.3], [-123.29022, 39.30016], [-123.29189, 39.29995], [-123.29336, 39.3002], [-123.29469, 39.30065], [-123.29609, 39.30143], [-123.2987, 39.3038], [-123.29953, 39.30473], [-123.30039, 39.30625], [-123.30057, 39.30736], [-123.29993, 39.30879], [-123.29899, 39.30999], [-123.29808, 39.31126], [-123.2977, 39.31236], [-123.29786, 39.31355], [-123.29852, 39.31466], [-123.2997, 39.31558], [-123.30069, 39.31639], [-123.30136, 39.31756], [-123.30131, 39.31867], [-123.30098, 39.3201], [-123.30083, 39.32132], [-123.30119, 39.324], [-123.30143, 39.32561], [-123.30185, 39.32703], [-123.30225, 39.32856], [-123.30371, 39.33014], [-123.30445, 39.3311], [-123.30405, 39.33343], [-123.30431, 39.33462], [-123.30599, 39.33568], [-123.30884, 39.33704], [-123.31092, 39.338], [-123.31237, 39.33883], [-123.31357, 39.33988], [-123.31498, 39.34124], [-123.31594, 39.34216], [-123.31821, 39.34431], [-123.31926, 39.34533], [-123.32021, 39.34619], [-123.32123, 39.34716], [-123.32199, 39.34832], [-123.32234, 39.34953], [-123.32229, 39.35081], [-123.32168, 39.35224], [-123.31998, 39.35487], [-123.31926, 39.35597], [-123.31778, 39.35829], [-123.31685, 39.35975], [-123.31611, 39.36089], [-123.31561, 39.36217], [-123.31539, 39.3635], [-123.31553, 39.36483], [-123.31591, 39.36589], [-123.31654, 39.36695], [-123.31753, 39.36801], [-123.31864, 39.36908], [-123.31974, 39.37014], [-123.32085, 39.3712], [-123.32193, 39.37222], [-123.32322, 39.37332], [-123.32428, 39.37416], [-123.32565, 39.37463], [-123.32706, 39.37518], [-123.32874, 39.37563], [-123.33016, 39.37553], [-123.33157, 39.37556], [-123.33308, 39.37599], [-123.33463, 39.37651], [-123.336, 39.37697], [-123.33756, 39.37751], [-123.33903, 39.37828], [-123.34026, 39.37921], [-123.3413, 39.38035], [-123.34279, 39.38297], [-123.34342, 39.3842], [-123.34442, 39.3861], [-123.3453, 39.38778], [-123.34585, 39.3888], [-123.3464, 39.38988], [-123.34713, 39.39126], [-123.34785, 39.39264], [-123.34844, 39.39377], [-123.34896, 39.39482], [-123.3493, 39.39597], [-123.34948, 39.39751], [-123.34957, 39.39892], [-123.34964, 39.40011], [-123.34973, 39.40124], [-123.35028, 39.40236], [-123.35128, 39.40357], [-123.35256, 39.40405], [-123.35472, 39.40381], [-123.35628, 39.40381], [-123.35766, 39.40429], [-123.35893, 39.40494], [-123.356, 39.41], [-123.35923, 39.40508], [-123.35797, 39.40446], [-123.35654, 39.40386], [-123.35494, 39.40379], [-123.35312, 39.40399], [-123.35169, 39.40413], [-123.35057, 39.40275], [-123.3498, 39.40158], [-123.34965, 39.40028], [-123.34957, 39.39892], [-123.3495, 39.39778], [-123.34939, 39.3964], [-123.34909, 39.39519], [-123.34851, 39.39389], [-123.34793, 39.39278], [-123.3473, 39.39157], [-123.34676, 39.39055], [-123.34614, 39.38937], [-123.34548, 39.38815], [-123.34442, 39.3861], [-123.34376, 39.38487], [-123.34279, 39.38297], [-123.34184, 39.38114], [-123.34089, 39.37986], [-123.33996, 39.37896], [-123.3387, 39.37807], [-123.33719, 39.37735], [-123.33546, 39.37678], [-123.33409, 39.37634], [-123.33259, 39.3758], [-123.33118, 39.37551], [-123.32956, 39.37557], [-123.32731, 39.37575], [-123.3275, 39.37688], [-123.32808, 39.37789], [-123.32895, 39.37892], [-123.33044, 39.38036], [-123.3317, 39.38176], [-123.33247, 39.38281], [-123.3332, 39.38395], [-123.33377, 39.38514], [-123.33437, 39.38656], [-123.33488, 39.38829], [-123.33529, 39.39057], [-123.33559, 39.39172], [-123.33607, 39.39275], [-123.33675, 39.39374], [-123.33795, 39.39497], [-123.34025, 39.39652], [-123.34135, 39.39736], [-123.3426, 39.39868], [-123.34343, 39.40008], [-123.34383, 39.40122], [-123.34402, 39.40251], [-123.34396, 39.40373], [-123.34361, 39.40511], [-123.34307, 39.40623], [-123.34098, 39.40934], [-123.34007, 39.4107], [-123.33932, 39.41196], [-123.33883, 39.41339], [-123.33871, 39.41494], [-123.33881, 39.41604], [-123.33909, 39.41723], [-123.33955, 39.41842], [-123.34027, 39.4196], [-123.34122, 39.42056], [-123.34238, 39.42136], [-123.34394, 39.42206], [-123.34618, 39.42264], [-123.34755, 39.423], [-123.34919, 39.42356], [-123.3509, 39.42436], [-123.35239, 39.42545], [-123.35337, 39.42638], [-123.3545, 39.42815], [-123.35529, 39.42908], [-123.35638, 39.43043], [-123.35692, 39.43149], [-123.3573, 39.43277], [-123.35751, 39.43391], [-123.35746, 39.4351], [-123.35703, 39.43687], [-123.35649, 39.43825], [-123.35598, 39.43954], [-123.35536, 39.44068], [-123.35464, 39.4418], [-123.35184, 39.44509], [-123.35037, 39.44685], [-123.34889, 39.4486], [-123.34814, 39.44988], [-123.34798, 39.45111], [-123.3482, 39.45337], [-123.34851, 39.45624], [-123.34934, 39.4593], [-123.34976, 39.46071], [-123.35027, 39.46259], [-123.35061, 39.46384], [-123.35111, 39.46489], [-123.35209, 39.4657], [-123.35338, 39.46634], [-123.35428, 39.46721], [-123.35495, 39.4683], [-123.35598, 39.46908], [-123.35887, 39.47007], [-123.36021, 39.47043], [-123.36174, 39.47085], [-123.36288, 39.47164], [-123.36349, 39.47284], [-123.36339, 39.47418], [-123.36343, 39.47527], [-123.36371, 39.47647], [-123.36348, 39.47783], [-123.36285, 39.47934], [-123.36229, 39.48063], [-123.3618, 39.48183], [-123.36124, 39.48319], [-123.36063, 39.48468], [-123.36056, 39.4859], [-123.36139, 39.48758], [-123.36241, 39.48906], [-123.36306, 39.49058], [-123.3634, 39.49177], [-123.36398, 39.49285], [-123.36481, 39.49383], [-123.36594, 39.49489], [-123.36752, 39.49612], [-123.36877, 39.49706], [-123.37118, 39.49815], [-123.37268, 39.49884], [-123.37403, 39.49946], [-123.37588, 39.50055], [-123.37766, 39.50198], [-123.37928, 39.50385], [-123.38038, 39.50563], [-123.3813, 39.50677], [-123.38254, 39.50783], [-123.38399, 39.50887], [-123.38523, 39.50986], [-123.38664, 39.51167], [-123.38747, 39.51263], [-123.3884, 39.51351], [-123.38971, 39.51473], [-123.3905, 39.51595], [-123.39098, 39.51707], [-123.39196, 39.51925], [-123.39269, 39.52086], [-123.39334, 39.52191], [-123.3945, 39.52262], [-123.39652, 39.52289], [-123.39784, 39.52332], [-123.39919, 39.52467], [-123.39996, 39.52558], [-123.40122, 39.52706], [-123.40259, 39.52824], [-123.40402, 39.52999], [-123.40457, 39.53121], [-123.40451, 39.53272], [-123.40431, 39.53394], [-123.4048, 39.53518], [-123.40602, 39.536], [-123.40742, 39.53621], [-123.40882, 39.53586], [-123.41014, 39.53505], [-123.41168, 39.53456], [-123.41338, 39.53474], [-123.41543, 39.53583], [-123.41673, 39.53668], [-123.41743, 39.53777], [-123.41762, 39.53911], [-123.41799, 39.54018], [-123.4189, 39.54122], [-123.42077, 39.5422], [-123.42213, 39.54297], [-123.42343, 39.54398], [-123.42419, 39.54497], [-123.42463, 39.54649], [-123.42491, 39.54763], [-123.42482, 39.54896], [-123.42476, 39.55013], [-123.42535, 39.55126], [-123.42678, 39.55242], [-123.42881, 39.55398], [-123.43025, 39.55515], [-123.4313, 39.55616], [-123.43243, 39.55726], [-123.43287, 39.55838], [-123.43287, 39.55997], [-123.433, 39.56117], [-123.43318, 39.56229], [-123.43378, 39.56356], [-123.43453, 39.56456], [-123.43497, 39.56575], [-123.43509, 39.56713], [-123.43543, 39.56854], [-123.43582, 39.57003], [-123.43657, 39.57107], [-123.43759, 39.57195], [-123.4382, 39.57299], [-123.43851, 39.57421], [-123.43889, 39.57538], [-123.44045, 39.57795], [-123.44122, 39.5789], [-123.44294, 39.57989], [-123.44403, 39.58082], [-123.4446, 39.58269], [-123.44527, 39.58377], [-123.44674, 39.58503], [-123.44921, 39.58714], [-123.45023, 39.588], [-123.45122, 39.58887], [-123.4533, 39.59207], [-123.45396, 39.59315], [-123.4543, 39.59443], [-123.4542, 39.59557], [-123.45421, 39.59681], [-123.4546, 39.59836], [-123.45447, 39.59965], [-123.45394, 39.60072], [-123.45378, 39.60192], [-123.45421, 39.60296], [-123.45511, 39.60464], [-123.45575, 39.60602], [-123.45633, 39.60753], [-123.45725, 39.60858], [-123.45852, 39.60958], [-123.4591, 39.61077], [-123.45879, 39.61264], [-123.45881, 39.61379], [-123.45941, 39.61495], [-123.46133, 39.61651], [-123.46238, 39.61725], [-123.46341, 39.618], [-123.46457, 39.61897], [-123.46512, 39.62007], [-123.46497, 39.62236], [-123.46448, 39.6239], [-123.4638, 39.62497], [-123.46284, 39.62651], [-123.46226, 39.62772], [-123.46263, 39.62946], [-123.4631, 39.6306], [-123.46397, 39.63146], [-123.46519, 39.63212], [-123.46697, 39.63304], [-123.46803, 39.63408], [-123.46865, 39.63528], [-123.46942, 39.63685], [-123.47087, 39.63973], [-123.47174, 39.64078], [-123.47273, 39.64162], [-123.47357, 39.64287], [-123.47435, 39.64422], [-123.47508, 39.64543], [-123.47589, 39.6468], [-123.47628, 39.64796], [-123.47638, 39.64986], [-123.47638, 39.65098], [-123.47638, 39.65273], [-123.4764, 39.65449], [-123.47643, 39.6559], [-123.47683, 39.65696], [-123.47755, 39.65814], [-123.47771, 39.65944], [-123.47728, 39.66059], [-123.47652, 39.6618], [-123.47627, 39.66295], [-123.47626, 39.66454], [-123.47622, 39.66582], [-123.47616, 39.66723], [-123.47599, 39.66985], [-123.47586, 39.67096], [-123.47562, 39.67205], [-123.47557, 39.67328], [-123.47565, 39.67521], [-123.47569, 39.67638], [-123.47591, 39.67881], [-123.47605, 39.68], [-123.4763, 39.68107], [-123.47701, 39.68235], [-123.47769, 39.68338], [-123.47873, 39.68448], [-123.48005, 39.68542], [-123.48156, 39.68643], [-123.48264, 39.68715], [-123.48313, 39.68823], [-123.48303, 39.68938], [-123.48308, 39.69058], [-123.48349, 39.69211], [-123.48457, 39.69513], [-123.48547, 39.69763], [-123.48677, 39.70126], [-123.48722, 39.70251], [-123.48767, 39.70372], [-123.48845, 39.70591], [-123.48916, 39.70732], [-123.49003, 39.7087], [-123.49107, 39.7099], [-123.49206, 39.71097], [-123.49481, 39.71281], [-123.4969, 39.71409], [-123.49813, 39.71503], [-123.49906, 39.71606], [-123.49966, 39.71705], [-123.50016, 39.71807], [-123.50073, 39.71929], [-123.50124, 39.72033], [-123.50195, 39.7218], [-123.50333, 39.72461], [-123.50404, 39.72611], [-123.50487, 39.72744], [-123.50592, 39.72857], [-123.50765, 39.7299], [-123.50896, 39.73084], [-123.5101, 39.73166], [-123.51115, 39.73242], [-123.51222, 39.73325], [-123.51317, 39.73436], [-123.51368, 39.73555], [-123.51378, 39.73708], [-123.51405, 39.7384], [-123.51466, 39.73953], [-123.51553, 39.74048], [-123.51662, 39.74126], [-123.51787, 39.74202], [-123.51913, 39.74282], [-123.52117, 39.74406], [-123.52265, 39.74498], [-123.52396, 39.74578], [-123.52523, 39.74658], [-123.52689, 39.7475], [-123.5285, 39.74814], [-123.53026, 39.74878], [-123.53229, 39.74946], [-123.53351, 39.75013], [-123.53458, 39.75098], [-123.53556, 39.75226], [-123.5363, 39.75342], [-123.53693, 39.75468], [-123.53701, 39.7558], [-123.53696, 39.75689], [-123.53742, 39.75797], [-123.53847, 39.75892], [-123.53961, 39.75988], [-123.54029, 39.76107], [-123.54117, 39.76226], [-123.54258, 39.7632], [-123.54335, 39.76442], [-123.54373, 39.76549], [-123.54358, 39.76665], [-123.54402, 39.76777], [-123.54507, 39.76856], [-123.54525, 39.77005], [-123.54582, 39.77107], [-123.54635, 39.77216], [-123.5461, 39.77378], [-123.54576, 39.77483], [-123.54475, 39.77595], [-123.54385, 39.77691], [-123.54368, 39.77837], [-123.54374, 39.77971], [-123.54288, 39.78116], [-123.5427, 39.78241], [-123.54352, 39.78341], [-123.54404, 39.78444], [-123.54454, 39.78558], [-123.54447, 39.78686], [-123.54404, 39.78816], [-123.54335, 39.78973], [-123.54262, 39.79101], [-123.54248, 39.79213], [-123.54261, 39.79342], [-123.54253, 39.79453], [-123.54217, 39.796], [-123.54213, 39.79727], [-123.54258, 39.79878], [-123.54289, 39.79988], [-123.54305, 39.80102], [-123.54363, 39.80326], [-123.54442, 39.80436], [-123.54557, 39.80503], [-123.54675, 39.80576], [-123.54761, 39.80673], [-123.54831, 39.80782], [-123.5494, 39.80878], [-123.55071, 39.80927], [-123.55272, 39.80934], [-123.55425, 39.80969], [-123.55677, 39.81177], [-123.55849, 39.81336], [-123.55937, 39.8145], [-123.56054, 39.81551], [-123.56269, 39.8167], [-123.56378, 39.81766], [-123.56432, 39.8209], [-123.56477, 39.82213], [-123.56589, 39.82319], [-123.56752, 39.82467], [-123.56885, 39.82587], [-123.56981, 39.82672], [-123.57124, 39.82725], [-123.57288, 39.82744], [-123.5748, 39.8279], [-123.57664, 39.82817], [-123.5782, 39.82824], [-123.57957, 39.82776], [-123.58074, 39.82697], [-123.58207, 39.82653], [-123.58364, 39.82667], [-123.5851, 39.82748], [-123.58642, 39.82808], [-123.58795, 39.82813], [-123.58953, 39.8278], [-123.59121, 39.82672], [-123.59239, 39.8261], [-123.59385, 39.82597], [-123.59525, 39.82644], [-123.59667, 39.82742], [-123.59831, 39.82863], [-123.59968, 39.8292], [-123.6029, 39.82914], [-123.60433, 39.82874], [-123.6057, 39.82803], [-123.60734, 39.82766], [-123.60896, 39.82756], [-123.61051, 39.82777], [-123.61168, 39.82849], [-123.61294, 39.82973], [-123.61413, 39.83038], [-123.61563, 39.83062], [-123.61717, 39.831], [-123.61953, 39.83222], [-123.62102, 39.83275], [-123.62403, 39.83282], [-123.62584, 39.83293], [-123.62719, 39.83328], [-123.62868, 39.83367], [-123.63019, 39.834], [-123.63176, 39.83429], [-123.63368, 39.8343], [-123.63615, 39.83425], [-123.63875, 39.83391], [-123.64126, 39.83358], [-123.64341, 39.83333], [-123.64508, 39.83321], [-123.64726, 39.83294], [-123.64896, 39.83234], [-123.65017, 39.83163], [-123.65229, 39.82954], [-123.65393, 39.82861], [-123.65543, 39.82837], [-123.65694, 39.82858], [-123.65879, 39.82915], [-123.66078, 39.82924], [-123.66376, 39.8284], [-123.66557, 39.82779], [-123.66777, 39.82672], [-123.66931, 39.82604], [-123.67074, 39.82591], [-123.67247, 39.82643], [-123.67357, 39.82741], [-123.67411, 39.82927], [-123.67485, 39.83064], [-123.67598, 39.83149], [-123.68309, 39.83635], [-123.68463, 39.83736], [-123.68592, 39.83792], [-123.68754, 39.83847], [-123.68896, 39.8392], [-123.69219, 39.84176], [-123.69364, 39.8429], [-123.69476, 39.84366], [-123.69639, 39.84444], [-123.69835, 39.84528], [-123.70083, 39.84621], [-123.70337, 39.84706], [-123.70981, 39.84929], [-123.71115, 39.84975], [-123.71392, 39.8507], [-123.71547, 39.85142], [-123.71639, 39.85236], [-123.71682, 39.85352], [-123.71655, 39.85499], [-123.71568, 39.85627], [-123.71494, 39.85745], [-123.71483, 39.85937], [-123.71475, 39.86051], [-123.71376, 39.86253], [-123.7131, 39.86373], [-123.71282, 39.8649], [-123.71299, 39.86619], [-123.71351, 39.86736], [-123.71349, 39.86847], [-123.71279, 39.86971], [-123.71178, 39.87121], [-123.71082, 39.87271], [-123.71039, 39.87403], [-123.71076, 39.87517], [-123.71173, 39.87606], [-123.7123, 39.87715], [-123.71372, 39.87768], [-123.71477, 39.87856], [-123.71645, 39.87889], [-123.71807, 39.87858], [-123.71903, 39.87772], [-123.72024, 39.87705], [-123.72196, 39.87748], [-123.72361, 39.87802], [-123.72558, 39.87807], [-123.7278, 39.87802], [-123.72938, 39.87801], [-123.73095, 39.87811], [-123.73239, 39.87869], [-123.7332, 39.87961], [-123.73382, 39.88109], [-123.73445, 39.88233], [-123.73534, 39.88365], [-123.73585, 39.88471], [-123.73648, 39.88577], [-123.73772, 39.88678], [-123.73912, 39.88741], [-123.7416, 39.88725], [-123.74458, 39.88681], [-123.74614, 39.88691], [-123.74739, 39.8874], [-123.74788, 39.88849], [-123.7481, 39.89009], [-123.749, 39.89113], [-123.75073, 39.89153], [-123.7524, 39.89179], [-123.75367, 39.8923], [-123.75406, 39.89343], [-123.75395, 39.89453], [-123.75334, 39.8956], [-123.75196, 39.89618], [-123.75073, 39.897], [-123.7507, 39.89814], [-123.75145, 39.89912], [-123.75263, 39.89983], [-123.75397, 39.9004], [-123.75483, 39.90143], [-123.75391, 39.90228], [-123.75236, 39.90242], [-123.75088, 39.90292], [-123.74974, 39.90388], [-123.74936, 39.90502], [-123.74965, 39.90614], [-123.75112, 39.90687], [-123.75259, 39.90709], [-123.75402, 39.90733], [-123.75556, 39.9069], [-123.75686, 39.90633], [-123.75839, 39.90641], [-123.75906, 39.90749], [-123.75787, 39.90921], [-123.75762, 39.9104], [-123.75784, 39.91149], [-123.75845, 39.91269], [-123.75931, 39.91355], [-123.76066, 39.9144], [-123.76258, 39.9151], [-123.76416, 39.91555], [-123.76592, 39.91624], [-123.76703, 39.91696], [-123.76741, 39.91821], [-123.76632, 39.91925], [-123.76477, 39.91983], [-123.76321, 39.92136], [-123.7616, 39.92285], [-123.76101, 39.92408], [-123.7609, 39.92526], [-123.76077, 39.92655], [-123.76076, 39.92765], [-123.76115, 39.92873], [-123.76216, 39.92984], [-123.76326, 39.93082], [-123.76437, 39.9317], [-123.76585, 39.93246], [-123.76893, 39.93352], [-123.77056, 39.93437], [-123.7769, 39.93962], [-123.77784, 39.94075], [-123.78086, 39.94778], [-123.78116, 39.94897], [-123.7811, 39.95062], [-123.78063, 39.95207], [-123.7801, 39.95344], [-123.77992, 39.95489], [-123.78012, 39.95609], [-123.78084, 39.95753], [-123.78184, 39.95863], [-123.78348, 39.95973], [-123.78548, 39.96099], [-123.78665, 39.9617], [-123.78792, 39.96232], [-123.78994, 39.963], [-123.79139, 39.96345], [-123.79279, 39.96433], [-123.79406, 39.96534], [-123.79521, 39.96667], [-123.79612, 39.96789], [-123.79692, 39.96903], [-123.80023, 39.97493], [-123.80096, 39.97637], [-123.80162, 39.978], [-123.80228, 39.97974], [-123.8024, 39.98095], [-123.80187, 39.98247], [-123.80098, 39.98352], [-123.79991, 39.98425], [-123.79818, 39.98498], [-123.7968, 39.98574], [-123.79575, 39.98663], [-123.79489, 39.98753], [-123.79377, 39.98852], [-123.7915, 39.98948], [-123.78992, 39.9902], [-123.78894, 39.99121], [-123.78852, 39.99226], [-123.78857, 39.99465], [-123.78848, 39.99598], [-123.78792, 39.99731], [-123.787, 39.99833], [-123.7859, 39.99929], [-123.7846, 40.00037], [-123.78365, 40.00122], [-123.78318, 40.00224], [-123.78318, 40.00337], [-123.78375, 40.00442], [-123.78513, 40.005], [-123.78662, 40.0053], [-123.78775, 40.00604], [-123.78849, 40.007], [-123.7894, 40.00804], [-123.79008, 40.00909], [-123.79046, 40.01013], [-123.79088, 40.01118], [-123.79103, 40.01234], [-123.79103, 40.01354], [-123.79154, 40.01462], [-123.79132, 40.01574], [-123.79135, 40.01686], [-123.79125, 40.01832], [-123.7916, 40.01941], [-123.79245, 40.02034], [-123.79329, 40.02123], [-123.79374, 40.02239], [-123.79412, 40.02367], [-123.79395, 40.02494], [-123.79369, 40.02605], [-123.79364, 40.02731], [-123.79399, 40.02852], [-123.79392, 40.02972], [-123.79372, 40.03143], [-123.79327, 40.03268], [-123.79314, 40.0338], [-123.79212, 40.0348], [-123.79091, 40.03537], [-123.78921, 40.03554], [-123.78775, 40.0353], [-123.7863, 40.03472], [-123.78489, 40.03378], [-123.78357, 40.0328], [-123.78232, 40.03224], [-123.78081, 40.03184], [-123.77915, 40.03196], [-123.77775, 40.03239], [-123.77647, 40.03322], [-123.77575, 40.03433], [-123.77559, 40.03541], [-123.77578, 40.03658], [-123.77638, 40.03757], [-123.78025, 40.04234], [-123.78112, 40.04334], [-123.7821, 40.04463], [-123.78315, 40.04581], [-123.78423, 40.04664], [-123.78578, 40.04745], [-123.78716, 40.04792], [-123.78868, 40.04836], [-123.79012, 40.04888], [-123.79126, 40.04961], [-123.7923, 40.05081], [-123.79274, 40.05188], [-123.79285, 40.053], [-123.79242, 40.05454], [-123.79142, 40.05581], [-123.7897, 40.05692], [-123.7869, 40.05843], [-123.7856, 40.05913], [-123.78444, 40.05982], [-123.78354, 40.06091], [-123.78328, 40.06198], [-123.78354, 40.06311], [-123.78432, 40.06408], [-123.78537, 40.06485], [-123.7871, 40.06598], [-123.78825, 40.067], [-123.789, 40.06821], [-123.78962, 40.06935], [-123.79023, 40.07056], [-123.79088, 40.0725], [-123.79111, 40.07361], [-123.79082, 40.07475], [-123.78965, 40.07714], [-123.78943, 40.07849], [-123.7898, 40.07955], [-123.79046, 40.08095], [-123.79063, 40.08216], [-123.79037, 40.08382], [-123.79005, 40.08527], [-123.78984, 40.08637], [-123.78988, 40.08754], [-123.79058, 40.09038], [-123.79105, 40.09142], [-123.792, 40.09258], [-123.79384, 40.09399], [-123.79473, 40.09484], [-123.79569, 40.09625], [-123.79674, 40.09782], [-123.79731, 40.09938], [-123.8, 40.1], [-123.95, 40.45], [-123.94563, 40.47602], [-123.94899, 40.47726], [-123.95044, 40.47805], [-123.95094, 40.47941], [-123.95235, 40.47975], [-123.95333, 40.47893], [-123.95465, 40.4781], [-123.95642, 40.4769], [-123.95899, 40.47613], [-123.96066, 40.47582], [-123.96209, 40.47594], [-123.96327, 40.47686], [-123.963, 40.47866], [-123.96253, 40.4799], [-123.96216, 40.48098], [-123.96242, 40.48214], [-123.96335, 40.48307], [-123.9644, 40.48408], [-123.96599, 40.48574], [-123.96754, 40.48733], [-123.96857, 40.4886], [-123.96911, 40.4898], [-123.96919, 40.49156], [-123.96926, 40.49271], [-123.96948, 40.49411], [-123.97033, 40.49649], [-123.97066, 40.49757], [-123.97131, 40.49874], [-123.97356, 40.49972], [-123.97516, 40.49986], [-123.97701, 40.49936], [-123.97864, 40.49963], [-123.98008, 40.49982], [-123.98205, 40.49936], [-123.9845, 40.49876], [-123.98647, 40.49881], [-123.98797, 40.49902], [-123.98887, 40.5002], [-123.98986, 40.50104], [-123.99094, 40.50235], [-123.9915, 40.50335], [-123.9915, 40.50453], [-123.9906, 40.50601], [-123.98967, 40.50726], [-123.98888, 40.5085], [-123.98849, 40.50968], [-123.98897, 40.5113], [-123.98997, 40.5122], [-123.99214, 40.51193], [-123.99438, 40.51218], [-123.99644, 40.51225], [-123.99817, 40.51183], [-123.99939, 40.51104], [-124.00116, 40.51005], [-124.00277, 40.50947], [-124.0042, 40.50933], [-124.00568, 40.51045], [-124.00675, 40.51122], [-124.00772, 40.51213], [-124.00915, 40.51277], [-124.01061, 40.51281], [-124.01257, 40.51232], [-124.01398, 40.51208], [-124.01543, 40.51234], [-124.01709, 40.51316], [-124.01827, 40.51396], [-124.01914, 40.51527], [-124.02126, 40.51736], [-124.02238, 40.51848], [-124.02363, 40.51945], [-124.02479, 40.52025], [-124.02591, 40.5216], [-124.02696, 40.52255], [-124.02869, 40.52364], [-124.03017, 40.52474], [-124.03118, 40.52563], [-124.0325, 40.52656], [-124.03441, 40.52765], [-124.03593, 40.5285], [-124.03745, 40.52955], [-124.03906, 40.53081], [-124.04059, 40.53217], [-124.04369, 40.53364], [-124.04519, 40.53376], [-124.04677, 40.53379], [-124.0486, 40.53421], [-124.05019, 40.53431], [-124.05188, 40.53393], [-124.05553, 40.53385], [-124.05698, 40.53394], [-124.05819, 40.53479], [-124.05839, 40.53616], [-124.05892, 40.53717], [-124.06054, 40.53744], [-124.06205, 40.53746], [-124.06351, 40.53748], [-124.06541, 40.5375], [-124.06883, 40.53755], [-124.07046, 40.53769], [-124.07179, 40.53839], [-124.07294, 40.54048], [-124.07353, 40.54178], [-124.0745, 40.54262], [-124.07611, 40.54292], [-124.07757, 40.54317], [-124.07918, 40.54353], [-124.08199, 40.54417], [-124.08494, 40.54486], [-124.08647, 40.54522], [-124.09104, 40.54626], [-124.09277, 40.54666], [-124.09495, 40.54716], [-124.09647, 40.54752], [-124.09785, 40.5471], [-124.09834, 40.54593], [-124.09936, 40.54501], [-124.10026, 40.54412], [-124.10129, 40.54321], [-124.10241, 40.54245], [-124.10455, 40.54274], [-124.10699, 40.54292], [-124.10847, 40.54323], [-124.11006, 40.54417], [-124.11142, 40.54505], [-124.11441, 40.54589], [-124.11596, 40.54624], [-124.11744, 40.54631], [-124.11925, 40.54629], [-124.1211, 40.54652], [-124.12255, 40.5468], [-124.12449, 40.54728], [-124.126, 40.54756], [-124.12778, 40.54777], [-124.12991, 40.54818], [-124.13165, 40.54845], [-124.13351, 40.5485], [-124.13509, 40.54844], [-124.13705, 40.54849], [-124.14025, 40.54853], [-124.14217, 40.54858], [-124.14413, 40.5486], [-124.14498, 40.55011], [-124.14557, 40.55138], [-124.14604, 40.55313], [-124.14631, 40.5547], [-124.14676, 40.55723], [-124.14715, 40.55946], [-124.1474, 40.56093], [-124.14768, 40.5625], [-124.14787, 40.56361], [-124.14821, 40.56561], [-124.14834, 40.56672], [-124.14847, 40.56836], [-124.14863, 40.57036], [-124.14874, 40.57194], [-124.14885, 40.57352], [-124.14895, 40.57468], [-124.14912, 40.57603], [-124.14939, 40.57719], [-124.14982, 40.57861], [-124.15065, 40.58069], [-124.15111, 40.58179], [-124.15157, 40.5829], [-124.15211, 40.58419], [-124.1528, 40.58525], [-124.15366, 40.58623], [-124.15516, 40.58788], [-124.15602, 40.58887], [-124.15665, 40.59006], [-124.15699, 40.59115], [-124.15749, 40.59255], [-124.15817, 40.59358], [-124.15904, 40.59448], [-124.16015, 40.59526], [-124.16451, 40.59711], [-124.16582, 40.59766], [-124.16732, 40.59888], [-124.16829, 40.59989], [-124.16925, 40.60075], [-124.17125, 40.60169], [-124.17377, 40.60277], [-124.17565, 40.60368], [-124.17685, 40.60435], [-124.17835, 40.60505], [-124.1801, 40.60561], [-124.18163, 40.60607], [-124.18323, 40.60665], [-124.18484, 40.60746], [-124.18756, 40.60938], [-124.18865, 40.61023], [-124.19102, 40.61226], [-124.1923, 40.61335], [-124.19362, 40.61416], [-124.19631, 40.6156], [-124.19753, 40.61625], [-124.199, 40.61685], [-124.20067, 40.61733], [-124.20198, 40.61788], [-124.20436, 40.6195], [-124.20568, 40.62028], [-124.20717, 40.62073], [-124.20879, 40.62096], [-124.21026, 40.62121], [-124.21171, 40.62172], [-124.21308, 40.62253], [-124.21413, 40.62333], [-124.21527, 40.62423], [-124.216, 40.62518], [-124.21639, 40.62646], [-124.21625, 40.62772], [-124.21545, 40.6294], [-124.21047, 40.63941], [-124.20871, 40.64296], [-124.20828, 40.64428], [-124.20845, 40.64571], [-124.21094, 40.6501], [-124.21145, 40.65132], [-124.21145, 40.65255], [-124.21102, 40.65373], [-124.21012, 40.65477], [-124.20715, 40.65716], [-124.20606, 40.65814], [-124.20532, 40.65908], [-124.20465, 40.66029], [-124.20425, 40.66146], [-124.20268, 40.66707], [-124.20215, 40.66897], [-124.20188, 40.6702], [-124.20165, 40.67197], [-124.20146, 40.67334], [-124.2007, 40.68], [-124.20061, 40.6812], [-124.20067, 40.68237], [-124.20087, 40.68363], [-124.20351, 40.69651], [-124.20383, 40.69773], [-124.20439, 40.69884], [-124.20533, 40.70003], [-124.20658, 40.70106], [-124.20788, 40.70196], [-124.20898, 40.70301], [-124.20954, 40.70425], [-124.20969, 40.70623], [-124.2098, 40.70744], [-124.21034, 40.70859], [-124.2114, 40.70999], [-124.21448, 40.71406], [-124.21525, 40.71538], [-124.21549, 40.71694], [-124.21546, 40.71905], [-124.21532, 40.7207], [-124.21517, 40.72208], [-124.21493, 40.72469], [-124.21481, 40.72593], [-124.21464, 40.72746], [-124.21453, 40.7288], [-124.21429, 40.73076], [-124.21389, 40.73213], [-124.21286, 40.73351], [-124.21164, 40.73474], [-124.21067, 40.73572], [-124.2087, 40.73762], [-124.20745, 40.73868], [-124.2024, 40.74269], [-124.19889, 40.74563], [-124.19693, 40.74735], [-124.19419, 40.74977], [-124.19324, 40.75071], [-124.19255, 40.75171], [-124.19059, 40.75521], [-124.18992, 40.75637], [-124.18945, 40.7576], [-124.18934, 40.75879], [-124.18958, 40.76003], [-124.19033, 40.76198], [-124.19103, 40.76369], [-124.19133, 40.76514], [-124.19155, 40.76633], [-124.19164, 40.76766], [-124.19159, 40.76879], [-124.19139, 40.77017], [-124.19106, 40.77173], [-124.19076, 40.77339], [-124.19051, 40.77462], [-124.19028, 40.7759], [-124.18991, 40.77704], [-124.18915, 40.77807], [-124.18798, 40.77878], [-124.18677, 40.7794], [-124.18575, 40.78019], [-124.18437, 40.78196], [-124.18366, 40.78297], [-124.18265, 40.7844], [-124.18182, 40.78557], [-124.18098, 40.78704], [-124.18019, 40.78839], [-124.17953, 40.78956], [-124.17885, 40.79068], [-124.17819, 40.7918], [-124.17756, 40.7929], [-124.17697, 40.79393], [-124.17636, 40.79496], [-124.17542, 40.79658], [-124.1751, 40.79781], [-124.17509, 40.79897], [-124.17508, 40.80018], [-124.17345, 40.8009], [-124.17158, 40.80114], [-124.17017, 40.80134], [-124.16821, 40.8016], [-124.16609, 40.80192], [-124.16395, 40.80221], [-124.16171, 40.80252], [-124.15986, 40.80277], [-124.15836, 40.80298], [-124.15693, 40.80319], [-124.15526, 40.80342], [-124.15391, 40.80381], [-124.15217, 40.80389], [-124.15063, 40.80388], [-124.14921, 40.80386], [-124.14764, 40.80385], [-124.14574, 40.80411], [-124.14387, 40.80451], [-124.14237, 40.80485], [-124.13917, 40.80553], [-124.13762, 40.80572], [-124.13584, 40.80561], [-124.13427, 40.80535], [-124.13028, 40.80471], [-124.12834, 40.80461], [-124.1265, 40.8047], [-124.12469, 40.80498], [-124.12312, 40.80536], [-124.12136, 40.80614], [-124.11997, 40.80687], [-124.11862, 40.80755], [-124.11429, 40.8097], [-124.10774, 40.81306], [-124.10651, 40.81369], [-124.10417, 40.81491], [-124.09346, 40.82049], [-124.09003, 40.82219], [-124.08811, 40.82341], [-124.08682, 40.82445], [-124.08528, 40.82598], [-124.08454, 40.82692], [-124.08361, 40.82834], [-124.08293, 40.8298], [-124.0825, 40.83129], [-124.08227, 40.83261], [-124.08217, 40.83399], [-124.08217, 40.83557], [-124.08211, 40.84335], [-124.08208, 40.84616], [-124.08206, 40.84725], [-124.08205, 40.84929], [-124.08202, 40.85072], [-124.08204, 40.85183], [-124.08214, 40.85355], [-124.08225, 40.85487], [-124.08235, 40.85632], [-124.08266, 40.85882], [-124.08288, 40.86043], [-124.08298, 40.86199], [-124.08308, 40.86323], [-124.08317, 40.86456], [-124.0833, 40.86615], [-124.087, 40.867]]}, "properties": {"ftype": "line", "id": "rx-redwood", "name": "RX Redwood (Santa Rosa\u2013Arcata)", "tier": 2, "headway": "60 min"}}, {"type": "Feature", "geometry": {"type": "Point", "coordinates": [-122.2566, 38.1041]}, "properties": {"ftype": "station", "id": "vallejo", "name": "Vallejo", "tier": 2, "lines": ["RX Wine Country (Vallejo\u2013Calistoga)"]}}, {"type": "Feature", "geometry": {"type": "Point", "coordinates": [-122.286, 38.297]}, "properties": {"ftype": "station", "id": "napa", "name": "Napa", "tier": 2, "lines": ["RX Wine Country (Vallejo\u2013Calistoga)", "RX Sonoma (Santa Rosa\u2013Napa)"]}}, {"type": "Feature", "geometry": {"type": "Point", "coordinates": [-122.47, 38.505]}, "properties": {"ftype": "station", "id": "st-helena", "name": "St Helena", "tier": 2, "lines": ["RX Wine Country (Vallejo\u2013Calistoga)"]}}, {"type": "Feature", "geometry": {"type": "Point", "coordinates": [-122.58, 38.579]}, "properties": {"ftype": "station", "id": "calistoga", "name": "Calistoga", "tier": 2, "lines": ["RX Wine Country (Vallejo\u2013Calistoga)"]}}, {"type": "Feature", "geometry": {"type": "Point", "coordinates": [-122.7141, 38.4404]}, "properties": {"ftype": "station", "id": "santa-rosa", "name": "Santa Rosa", "tier": 2, "lines": ["RX Sonoma (Santa Rosa\u2013Napa)", "RX Redwood (Santa Rosa\u2013Arcata)"]}}, {"type": "Feature", "geometry": {"type": "Point", "coordinates": [-122.458, 38.292]}, "properties": {"ftype": "station", "id": "sonoma", "name": "Sonoma", "tier": 2, "lines": ["RX Sonoma (Santa Rosa\u2013Napa)"]}}, {"type": "Feature", "geometry": {"type": "Point", "coordinates": [-122.869, 38.61]}, "properties": {"ftype": "station", "id": "healdsburg", "name": "Healdsburg", "tier": 2, "lines": ["RX Redwood (Santa Rosa\u2013Arcata)"]}}, {"type": "Feature", "geometry": {"type": "Point", "coordinates": [-123.208, 39.15]}, "properties": {"ftype": "station", "id": "ukiah", "name": "Ukiah", "tier": 2, "lines": ["RX Redwood (Santa Rosa\u2013Arcata)"]}}, {"type": "Feature", "geometry": {"type": "Point", "coordinates": [-123.356, 39.41]}, "properties": {"ftype": "station", "id": "willits", "name": "Willits", "tier": 2, "lines": ["RX Redwood (Santa Rosa\u2013Arcata)"]}}, {"type": "Feature", "geometry": {"type": "Point", "coordinates": [-124.164, 40.802]}, "properties": {"ftype": "station", "id": "eureka", "name": "Eureka", "tier": 2, "lines": ["RX Redwood (Santa Rosa\u2013Arcata)"]}}, {"type": "Feature", "geometry": {"type": "Point", "coordinates": [-124.087, 40.867]}, "properties": {"ftype": "station", "id": "arcata", "name": "Arcata", "tier": 2, "lines": ["RX Redwood (Santa Rosa\u2013Arcata)"]}}]}
