{"type": "FeatureCollection", "features": [{"type": "Feature", "geometry": {"type": "Point", "coordinates": [-119.790717, 36.808429]}, "properties": {"ftype": "station", "name": "Shaw & Blackstone", "tier": 1, "lines": ["Shaw Line", "Blackstone Line"], "headway": "90 s"}}, {"type": "Feature", "geometry": {"type": "Point", "coordinates": [-119.808384, 36.808404]}, "properties": {"ftype": "station", "name": "Shaw & Palm", "tier": 1, "lines": ["Shaw Line", "Palm Line"], "headway": "90 s"}}, {"type": "Feature", "geometry": {"type": "Point", "coordinates": [-119.754928, 36.80848]}, "properties": {"ftype": "station", "name": "Shaw & Cedar", "tier": 1, "lines": ["Shaw Line", "Cedar Line"], "headway": "90 s"}}, {"type": "Feature", "geometry": {"type": "Point", "coordinates": [-119.772859, 36.808454]}, "properties": {"ftype": "station", "name": "Shaw & First", "tier": 1, "lines": ["Shaw Line", "First Line"], "headway": "90 s"}}, {"type": "Feature", "geometry": {"type": "Point", "coordinates": [-119.790578, 36.764926]}, "properties": {"ftype": "station", "name": "McKinley & Blackstone", "tier": 1, "lines": ["McKinley Line", "Blackstone Line"], "headway": "90 s"}}, {"type": "Feature", "geometry": {"type": "Point", "coordinates": [-119.808325, 36.764832]}, "properties": {"ftype": "station", "name": "McKinley & Palm", "tier": 1, "lines": ["McKinley Line", "Palm Line"], "headway": "90 s"}}, {"type": "Feature", "geometry": {"type": "Point", "coordinates": [-119.754717, 36.765107]}, "properties": {"ftype": "station", "name": "McKinley & Cedar", "tier": 1, "lines": ["McKinley Line", "Cedar Line"], "headway": "90 s"}}, {"type": "Feature", "geometry": {"type": "Point", "coordinates": [-119.772608, 36.765021]}, "properties": {"ftype": "station", "name": "McKinley & First", "tier": 1, "lines": ["McKinley Line", "First Line"], "headway": "90 s"}}, {"type": "Feature", "geometry": {"type": "Point", "coordinates": [-119.790558, 36.757541]}, "properties": {"ftype": "station", "name": "Olive & Blackstone", "tier": 1, "lines": ["Olive Line", "Blackstone Line"], "headway": "90 s"}}, {"type": "Feature", "geometry": {"type": "Point", "coordinates": [-119.808308, 36.757539]}, "properties": {"ftype": "station", "name": "Olive & Palm", "tier": 1, "lines": ["Olive Line", "Palm Line"], "headway": "90 s"}}, {"type": "Feature", "geometry": {"type": "Point", "coordinates": [-119.754712, 36.757533]}, "properties": {"ftype": "station", "name": "Olive & Cedar", "tier": 1, "lines": ["Olive Line", "Cedar Line"], "headway": "90 s"}}, {"type": "Feature", "geometry": {"type": "Point", "coordinates": [-119.772586, 36.75754]}, "properties": {"ftype": "station", "name": "Olive & First", "tier": 1, "lines": ["Olive Line", "First Line"], "headway": "90 s"}}, {"type": "Feature", "geometry": {"type": "Point", "coordinates": [-119.754753, 36.736053]}, "properties": {"ftype": "station", "name": "Kings Canyon & Cedar", "tier": 1, "lines": ["Kings Canyon Line", "Cedar Line"], "headway": "90 s"}}, {"type": "Feature", "geometry": {"type": "Point", "coordinates": [-119.896457, 36.808058]}, "properties": {"ftype": "station", "name": "Shaw 1", "tier": 1, "lines": ["Shaw Line"], "headway": "90 s"}}, {"type": "Feature", "geometry": {"type": "Point", "coordinates": [-119.885448, 36.808146]}, "properties": {"ftype": "station", "name": "Shaw & Barcus Avenue", "tier": 1, "lines": ["Shaw Line"], "headway": "90 s"}}, {"type": "Feature", "geometry": {"type": "Point", "coordinates": [-119.874439, 36.808211]}, "properties": {"ftype": "station", "name": "Shaw & Jennifer Avenue", "tier": 1, "lines": ["Shaw Line"], "headway": "90 s"}}, {"type": "Feature", "geometry": {"type": "Point", "coordinates": [-119.86343, 36.808276]}, "properties": {"ftype": "station", "name": "Shaw & Brawley Avenue", "tier": 1, "lines": ["Shaw Line"], "headway": "90 s"}}, {"type": "Feature", "geometry": {"type": "Point", "coordinates": [-119.852421, 36.808311]}, "properties": {"ftype": "station", "name": "Shaw 5", "tier": 1, "lines": ["Shaw Line"], "headway": "90 s"}}, {"type": "Feature", "geometry": {"type": "Point", "coordinates": [-119.841412, 36.808336]}, "properties": {"ftype": "station", "name": "Shaw & Santa Fe Avenue", "tier": 1, "lines": ["Shaw Line"], "headway": "90 s"}}, {"type": "Feature", "geometry": {"type": "Point", "coordinates": [-119.830402, 36.808361]}, "properties": {"ftype": "station", "name": "Shaw & Forkner Avenue", "tier": 1, "lines": ["Shaw Line"], "headway": "90 s"}}, {"type": "Feature", "geometry": {"type": "Point", "coordinates": [-119.819393, 36.808386]}, "properties": {"ftype": "station", "name": "Shaw & Delno Avenue", "tier": 1, "lines": ["Shaw Line"], "headway": "90 s"}}, {"type": "Feature", "geometry": {"type": "Point", "coordinates": [-119.79955, 36.808417]}, "properties": {"ftype": "station", "name": "Shaw & Maroa Avenue", "tier": 1, "lines": ["Shaw Line"], "headway": "90 s"}}, {"type": "Feature", "geometry": {"type": "Point", "coordinates": [-119.781788, 36.808442]}, "properties": {"ftype": "station", "name": "Shaw & Fresno Street", "tier": 1, "lines": ["Shaw Line"], "headway": "90 s"}}, {"type": "Feature", "geometry": {"type": "Point", "coordinates": [-119.763893, 36.808467]}, "properties": {"ftype": "station", "name": "Shaw & Shaw Avenue Frontage", "tier": 1, "lines": ["Shaw Line"], "headway": "90 s"}}, {"type": "Feature", "geometry": {"type": "Point", "coordinates": [-119.744703, 36.808488]}, "properties": {"ftype": "station", "name": "Shaw & Maple Avenue", "tier": 1, "lines": ["Shaw Line"], "headway": "90 s"}}, {"type": "Feature", "geometry": {"type": "Point", "coordinates": [-119.734478, 36.808494]}, "properties": {"ftype": "station", "name": "Shaw & Sierra Freeway", "tier": 1, "lines": ["Shaw Line"], "headway": "90 s"}}, {"type": "Feature", "geometry": {"type": "Point", "coordinates": [-119.724253, 36.8085]}, "properties": {"ftype": "station", "name": "Shaw & Helm Avenue", "tier": 1, "lines": ["Shaw Line"], "headway": "90 s"}}, {"type": "Feature", "geometry": {"type": "Point", "coordinates": [-119.714028, 36.808506]}, "properties": {"ftype": "station", "name": "Shaw & Villa Avenue", "tier": 1, "lines": ["Shaw Line"], "headway": "90 s"}}, {"type": "Feature", "geometry": {"type": "Point", "coordinates": [-119.703803, 36.808512]}, "properties": {"ftype": "station", "name": "Shaw & Dewitt Avenue", "tier": 1, "lines": ["Shaw Line"], "headway": "90 s"}}, {"type": "Feature", "geometry": {"type": "Point", "coordinates": [-119.693577, 36.808518]}, "properties": {"ftype": "station", "name": "Shaw 17", "tier": 1, "lines": ["Shaw Line"], "headway": "90 s"}}, {"type": "Feature", "geometry": {"type": "Point", "coordinates": [-119.683352, 36.808524]}, "properties": {"ftype": "station", "name": "Shaw 18", "tier": 1, "lines": ["Shaw Line"], "headway": "90 s"}}, {"type": "Feature", "geometry": {"type": "Point", "coordinates": [-119.905423, 36.764382]}, "properties": {"ftype": "station", "name": "McKinley 1", "tier": 1, "lines": ["McKinley Line"], "headway": "90 s"}}, {"type": "Feature", "geometry": {"type": "Point", "coordinates": [-119.894634, 36.764416]}, "properties": {"ftype": "station", "name": "McKinley & Carmen Avenue", "tier": 1, "lines": ["McKinley Line"], "headway": "90 s"}}, {"type": "Feature", "geometry": {"type": "Point", "coordinates": [-119.883846, 36.76445]}, "properties": {"ftype": "station", "name": "McKinley & Dante Avenue", "tier": 1, "lines": ["McKinley Line"], "headway": "90 s"}}, {"type": "Feature", "geometry": {"type": "Point", "coordinates": [-119.873057, 36.764489]}, "properties": {"ftype": "station", "name": "McKinley & Cecelia Avenue", "tier": 1, "lines": ["McKinley Line"], "headway": "90 s"}}, {"type": "Feature", "geometry": {"type": "Point", "coordinates": [-119.862268, 36.764534]}, "properties": {"ftype": "station", "name": "McKinley & Brawley Avenue", "tier": 1, "lines": ["McKinley Line"], "headway": "90 s"}}, {"type": "Feature", "geometry": {"type": "Point", "coordinates": [-119.851479, 36.76458]}, "properties": {"ftype": "station", "name": "McKinley 6", "tier": 1, "lines": ["McKinley Line"], "headway": "90 s"}}, {"type": "Feature", "geometry": {"type": "Point", "coordinates": [-119.840691, 36.76464]}, "properties": {"ftype": "station", "name": "McKinley 7", "tier": 1, "lines": ["McKinley Line"], "headway": "90 s"}}, {"type": "Feature", "geometry": {"type": "Point", "coordinates": [-119.829902, 36.764707]}, "properties": {"ftype": "station", "name": "McKinley & Motel Drive", "tier": 1, "lines": ["McKinley Line"], "headway": "90 s"}}, {"type": "Feature", "geometry": {"type": "Point", "coordinates": [-119.819114, 36.764774]}, "properties": {"ftype": "station", "name": "McKinley & Carruth Avenue", "tier": 1, "lines": ["McKinley Line"], "headway": "90 s"}}, {"type": "Feature", "geometry": {"type": "Point", "coordinates": [-119.799452, 36.764879]}, "properties": {"ftype": "station", "name": "McKinley & Maroa Avenue", "tier": 1, "lines": ["McKinley Line"], "headway": "90 s"}}, {"type": "Feature", "geometry": {"type": "Point", "coordinates": [-119.781593, 36.764974]}, "properties": {"ftype": "station", "name": "McKinley & Fresno Street", "tier": 1, "lines": ["McKinley Line"], "headway": "90 s"}}, {"type": "Feature", "geometry": {"type": "Point", "coordinates": [-119.763663, 36.765065]}, "properties": {"ftype": "station", "name": "McKinley & Millbrook Avenue", "tier": 1, "lines": ["McKinley Line"], "headway": "90 s"}}, {"type": "Feature", "geometry": {"type": "Point", "coordinates": [-119.743849, 36.765157]}, "properties": {"ftype": "station", "name": "McKinley 13", "tier": 1, "lines": ["McKinley Line"], "headway": "90 s"}}, {"type": "Feature", "geometry": {"type": "Point", "coordinates": [-119.732981, 36.765208]}, "properties": {"ftype": "station", "name": "McKinley 14", "tier": 1, "lines": ["McKinley Line"], "headway": "90 s"}}, {"type": "Feature", "geometry": {"type": "Point", "coordinates": [-119.722113, 36.765259]}, "properties": {"ftype": "station", "name": "McKinley 15", "tier": 1, "lines": ["McKinley Line"], "headway": "90 s"}}, {"type": "Feature", "geometry": {"type": "Point", "coordinates": [-119.711244, 36.76531]}, "properties": {"ftype": "station", "name": "McKinley 16", "tier": 1, "lines": ["McKinley Line"], "headway": "90 s"}}, {"type": "Feature", "geometry": {"type": "Point", "coordinates": [-119.9054, 36.757151]}, "properties": {"ftype": "station", "name": "Olive 1", "tier": 1, "lines": ["Olive Line"], "headway": "90 s"}}, {"type": "Feature", "geometry": {"type": "Point", "coordinates": [-119.894612, 36.757199]}, "properties": {"ftype": "station", "name": "Olive 2", "tier": 1, "lines": ["Olive Line"], "headway": "90 s"}}, {"type": "Feature", "geometry": {"type": "Point", "coordinates": [-119.883824, 36.757247]}, "properties": {"ftype": "station", "name": "Olive 3", "tier": 1, "lines": ["Olive Line"], "headway": "90 s"}}, {"type": "Feature", "geometry": {"type": "Point", "coordinates": [-119.873036, 36.757295]}, "properties": {"ftype": "station", "name": "Olive 4", "tier": 1, "lines": ["Olive Line"], "headway": "90 s"}}, {"type": "Feature", "geometry": {"type": "Point", "coordinates": [-119.862248, 36.757343]}, "properties": {"ftype": "station", "name": "Olive & Brawley Avenue", "tier": 1, "lines": ["Olive Line"], "headway": "90 s"}}, {"type": "Feature", "geometry": {"type": "Point", "coordinates": [-119.85146, 36.75739]}, "properties": {"ftype": "station", "name": "Olive 6", "tier": 1, "lines": ["Olive Line"], "headway": "90 s"}}, {"type": "Feature", "geometry": {"type": "Point", "coordinates": [-119.840672, 36.757429]}, "properties": {"ftype": "station", "name": "Olive & Pleasant Avenue", "tier": 1, "lines": ["Olive Line"], "headway": "90 s"}}, {"type": "Feature", "geometry": {"type": "Point", "coordinates": [-119.829884, 36.757468]}, "properties": {"ftype": "station", "name": "Olive & Golden State Highway", "tier": 1, "lines": ["Olive Line"], "headway": "90 s"}}, {"type": "Feature", "geometry": {"type": "Point", "coordinates": [-119.819096, 36.757507]}, "properties": {"ftype": "station", "name": "Olive & Carruth Avenue", "tier": 1, "lines": ["Olive Line"], "headway": "90 s"}}, {"type": "Feature", "geometry": {"type": "Point", "coordinates": [-119.799433, 36.75754]}, "properties": {"ftype": "station", "name": "Olive & Maroa Avenue", "tier": 1, "lines": ["Olive Line"], "headway": "90 s"}}, {"type": "Feature", "geometry": {"type": "Point", "coordinates": [-119.781572, 36.757542]}, "properties": {"ftype": "station", "name": "Olive & Fresno Street", "tier": 1, "lines": ["Olive Line"], "headway": "90 s"}}, {"type": "Feature", "geometry": {"type": "Point", "coordinates": [-119.763649, 36.757537]}, "properties": {"ftype": "station", "name": "Olive & Millbrook Avenue", "tier": 1, "lines": ["Olive Line"], "headway": "90 s"}}, {"type": "Feature", "geometry": {"type": "Point", "coordinates": [-119.744507, 36.757529]}, "properties": {"ftype": "station", "name": "Olive & Maple Avenue", "tier": 1, "lines": ["Olive Line"], "headway": "90 s"}}, {"type": "Feature", "geometry": {"type": "Point", "coordinates": [-119.734303, 36.757526]}, "properties": {"ftype": "station", "name": "Olive & Garden Avenue", "tier": 1, "lines": ["Olive Line"], "headway": "90 s"}}, {"type": "Feature", "geometry": {"type": "Point", "coordinates": [-119.724098, 36.757522]}, "properties": {"ftype": "station", "name": "Olive 15", "tier": 1, "lines": ["Olive Line"], "headway": "90 s"}}, {"type": "Feature", "geometry": {"type": "Point", "coordinates": [-119.713893, 36.757519]}, "properties": {"ftype": "station", "name": "Olive & Villa Avenue", "tier": 1, "lines": ["Olive Line"], "headway": "90 s"}}, {"type": "Feature", "geometry": {"type": "Point", "coordinates": [-119.703689, 36.757516]}, "properties": {"ftype": "station", "name": "Olive & Dewitt Avenue", "tier": 1, "lines": ["Olive Line"], "headway": "90 s"}}, {"type": "Feature", "geometry": {"type": "Point", "coordinates": [-119.693484, 36.757513]}, "properties": {"ftype": "station", "name": "Olive 18", "tier": 1, "lines": ["Olive Line"], "headway": "90 s"}}, {"type": "Feature", "geometry": {"type": "Point", "coordinates": [-119.683279, 36.757509]}, "properties": {"ftype": "station", "name": "Olive 19", "tier": 1, "lines": ["Olive Line"], "headway": "90 s"}}, {"type": "Feature", "geometry": {"type": "Point", "coordinates": [-119.765782, 36.735958]}, "properties": {"ftype": "station", "name": "Kings Canyon & 5th Street", "tier": 1, "lines": ["Kings Canyon Line"], "headway": "90 s"}}, {"type": "Feature", "geometry": {"type": "Point", "coordinates": [-119.743919, 36.736147]}, "properties": {"ftype": "station", "name": "Kings Canyon & Backer Avenue", "tier": 1, "lines": ["Kings Canyon Line"], "headway": "90 s"}}, {"type": "Feature", "geometry": {"type": "Point", "coordinates": [-119.733086, 36.73624]}, "properties": {"ftype": "station", "name": "Kings Canyon 3", "tier": 1, "lines": ["Kings Canyon Line"], "headway": "90 s"}}, {"type": "Feature", "geometry": {"type": "Point", "coordinates": [-119.722253, 36.736344]}, "properties": {"ftype": "station", "name": "Kings Canyon 4", "tier": 1, "lines": ["Kings Canyon Line"], "headway": "90 s"}}, {"type": "Feature", "geometry": {"type": "Point", "coordinates": [-119.71142, 36.73648]}, "properties": {"ftype": "station", "name": "Kings Canyon & Lind Avenue", "tier": 1, "lines": ["Kings Canyon Line"], "headway": "90 s"}}, {"type": "Feature", "geometry": {"type": "Point", "coordinates": [-119.700587, 36.736616]}, "properties": {"ftype": "station", "name": "Kings Canyon & Clovis Avenue", "tier": 1, "lines": ["Kings Canyon Line"], "headway": "90 s"}}, {"type": "Feature", "geometry": {"type": "Point", "coordinates": [-119.689755, 36.736752]}, "properties": {"ftype": "station", "name": "Kings Canyon & Sunnyside Avenue", "tier": 1, "lines": ["Kings Canyon Line"], "headway": "90 s"}}, {"type": "Feature", "geometry": {"type": "Point", "coordinates": [-119.790538, 36.750029]}, "properties": {"ftype": "station", "name": "Blackstone & Belmont Avenue", "tier": 1, "lines": ["Blackstone Line"], "headway": "90 s"}}, {"type": "Feature", "geometry": {"type": "Point", "coordinates": [-119.790602, 36.773627]}, "properties": {"ftype": "station", "name": "Blackstone & Terrace Avenue", "tier": 1, "lines": ["Blackstone Line"], "headway": "90 s"}}, {"type": "Feature", "geometry": {"type": "Point", "coordinates": [-119.790626, 36.782327]}, "properties": {"ftype": "station", "name": "Blackstone & Dayton Avenue", "tier": 1, "lines": ["Blackstone Line"], "headway": "90 s"}}, {"type": "Feature", "geometry": {"type": "Point", "coordinates": [-119.790649, 36.791028]}, "properties": {"ftype": "station", "name": "Blackstone & Griffith Way", "tier": 1, "lines": ["Blackstone Line"], "headway": "90 s"}}, {"type": "Feature", "geometry": {"type": "Point", "coordinates": [-119.790673, 36.799728]}, "properties": {"ftype": "station", "name": "Blackstone & Indianapolis Avenue", "tier": 1, "lines": ["Blackstone Line"], "headway": "90 s"}}, {"type": "Feature", "geometry": {"type": "Point", "coordinates": [-119.790762, 36.816764]}, "properties": {"ftype": "station", "name": "Blackstone 6", "tier": 1, "lines": ["Blackstone Line"], "headway": "90 s"}}, {"type": "Feature", "geometry": {"type": "Point", "coordinates": [-119.790807, 36.825098]}, "properties": {"ftype": "station", "name": "Blackstone & Calaveras Street", "tier": 1, "lines": ["Blackstone Line"], "headway": "90 s"}}, {"type": "Feature", "geometry": {"type": "Point", "coordinates": [-119.790852, 36.833433]}, "properties": {"ftype": "station", "name": "Blackstone 8", "tier": 1, "lines": ["Blackstone Line"], "headway": "90 s"}}, {"type": "Feature", "geometry": {"type": "Point", "coordinates": [-119.790897, 36.841768]}, "properties": {"ftype": "station", "name": "Blackstone & Birch Avenue", "tier": 1, "lines": ["Blackstone Line"], "headway": "90 s"}}, {"type": "Feature", "geometry": {"type": "Point", "coordinates": [-119.808345, 36.773547]}, "properties": {"ftype": "station", "name": "Palm & Harvard Avenue", "tier": 1, "lines": ["Palm Line"], "headway": "90 s"}}, {"type": "Feature", "geometry": {"type": "Point", "coordinates": [-119.808366, 36.782261]}, "properties": {"ftype": "station", "name": "Palm & Cortland Avenue", "tier": 1, "lines": ["Palm Line"], "headway": "90 s"}}, {"type": "Feature", "geometry": {"type": "Point", "coordinates": [-119.808377, 36.790975]}, "properties": {"ftype": "station", "name": "Palm & Sussex Way", "tier": 1, "lines": ["Palm Line"], "headway": "90 s"}}, {"type": "Feature", "geometry": {"type": "Point", "coordinates": [-119.80838, 36.79969]}, "properties": {"ftype": "station", "name": "Palm & Indianapolis Avenue", "tier": 1, "lines": ["Palm Line"], "headway": "90 s"}}, {"type": "Feature", "geometry": {"type": "Point", "coordinates": [-119.808387, 36.817134]}, "properties": {"ftype": "station", "name": "Palm 5", "tier": 1, "lines": ["Palm Line"], "headway": "90 s"}}, {"type": "Feature", "geometry": {"type": "Point", "coordinates": [-119.808289, 36.825864]}, "properties": {"ftype": "station", "name": "Palm & Escalon Avenue", "tier": 1, "lines": ["Palm Line"], "headway": "90 s"}}, {"type": "Feature", "geometry": {"type": "Point", "coordinates": [-119.80817, 36.834594]}, "properties": {"ftype": "station", "name": "Palm & Magill Avenue", "tier": 1, "lines": ["Palm Line"], "headway": "90 s"}}, {"type": "Feature", "geometry": {"type": "Point", "coordinates": [-119.807726, 36.843315]}, "properties": {"ftype": "station", "name": "Palm & Remington Avenue", "tier": 1, "lines": ["Palm Line"], "headway": "90 s"}}, {"type": "Feature", "geometry": {"type": "Point", "coordinates": [-119.755852, 36.843248]}, "properties": {"ftype": "station", "name": "Cedar & Oxford Drive", "tier": 1, "lines": ["Cedar Line"], "headway": "90 s"}}, {"type": "Feature", "geometry": {"type": "Point", "coordinates": [-119.755506, 36.834558]}, "properties": {"ftype": "station", "name": "Cedar & Sharon Avenue", "tier": 1, "lines": ["Cedar Line"], "headway": "90 s"}}, {"type": "Feature", "geometry": {"type": "Point", "coordinates": [-119.755161, 36.825868]}, "properties": {"ftype": "station", "name": "Cedar & Stuart Avenue", "tier": 1, "lines": ["Cedar Line"], "headway": "90 s"}}, {"type": "Feature", "geometry": {"type": "Point", "coordinates": [-119.755029, 36.817174]}, "properties": {"ftype": "station", "name": "Cedar 4", "tier": 1, "lines": ["Cedar Line"], "headway": "90 s"}}, {"type": "Feature", "geometry": {"type": "Point", "coordinates": [-119.754828, 36.799805]}, "properties": {"ftype": "station", "name": "Cedar 5", "tier": 1, "lines": ["Cedar Line"], "headway": "90 s"}}, {"type": "Feature", "geometry": {"type": "Point", "coordinates": [-119.754736, 36.791131]}, "properties": {"ftype": "station", "name": "Cedar & Bellaire Way", "tier": 1, "lines": ["Cedar Line"], "headway": "90 s"}}, {"type": "Feature", "geometry": {"type": "Point", "coordinates": [-119.75473, 36.782456]}, "properties": {"ftype": "station", "name": "Cedar & Dayton Avenue", "tier": 1, "lines": ["Cedar Line"], "headway": "90 s"}}, {"type": "Feature", "geometry": {"type": "Point", "coordinates": [-119.754724, 36.773781]}, "properties": {"ftype": "station", "name": "Cedar & Harvard Avenue", "tier": 1, "lines": ["Cedar Line"], "headway": "90 s"}}, {"type": "Feature", "geometry": {"type": "Point", "coordinates": [-119.754707, 36.750373]}, "properties": {"ftype": "station", "name": "Cedar & Belmont Avenue", "tier": 1, "lines": ["Cedar Line"], "headway": "90 s"}}, {"type": "Feature", "geometry": {"type": "Point", "coordinates": [-119.754715, 36.743213]}, "properties": {"ftype": "station", "name": "Cedar & Tulare Avenue", "tier": 1, "lines": ["Cedar Line"], "headway": "90 s"}}, {"type": "Feature", "geometry": {"type": "Point", "coordinates": [-119.754797, 36.727767]}, "properties": {"ftype": "station", "name": "Cedar 11", "tier": 1, "lines": ["Cedar Line"], "headway": "90 s"}}, {"type": "Feature", "geometry": {"type": "Point", "coordinates": [-119.754841, 36.71948]}, "properties": {"ftype": "station", "name": "Cedar 12", "tier": 1, "lines": ["Cedar Line"], "headway": "90 s"}}, {"type": "Feature", "geometry": {"type": "Point", "coordinates": [-119.754885, 36.711194]}, "properties": {"ftype": "station", "name": "Cedar & Grove Avenue", "tier": 1, "lines": ["Cedar Line"], "headway": "90 s"}}, {"type": "Feature", "geometry": {"type": "Point", "coordinates": [-119.754879, 36.702907]}, "properties": {"ftype": "station", "name": "Cedar & Mason Avenue", "tier": 1, "lines": ["Cedar Line"], "headway": "90 s"}}, {"type": "Feature", "geometry": {"type": "Point", "coordinates": [-119.754874, 36.69462]}, "properties": {"ftype": "station", "name": "Cedar 15", "tier": 1, "lines": ["Cedar Line"], "headway": "90 s"}}, {"type": "Feature", "geometry": {"type": "Point", "coordinates": [-119.754836, 36.686334]}, "properties": {"ftype": "station", "name": "Cedar 16", "tier": 1, "lines": ["Cedar Line"], "headway": "90 s"}}, {"type": "Feature", "geometry": {"type": "Point", "coordinates": [-119.774257, 36.847502]}, "properties": {"ftype": "station", "name": "First 1", "tier": 1, "lines": ["First Line"], "headway": "90 s"}}, {"type": "Feature", "geometry": {"type": "Point", "coordinates": [-119.773657, 36.839705]}, "properties": {"ftype": "station", "name": "First & Locust Avenue", "tier": 1, "lines": ["First Line"], "headway": "90 s"}}, {"type": "Feature", "geometry": {"type": "Point", "coordinates": [-119.773238, 36.831897]}, "properties": {"ftype": "station", "name": "First & Raisina Avenue", "tier": 1, "lines": ["First Line"], "headway": "90 s"}}, {"type": "Feature", "geometry": {"type": "Point", "coordinates": [-119.77307, 36.824083]}, "properties": {"ftype": "station", "name": "First 4", "tier": 1, "lines": ["First Line"], "headway": "90 s"}}, {"type": "Feature", "geometry": {"type": "Point", "coordinates": [-119.772964, 36.816269]}, "properties": {"ftype": "station", "name": "First & Barstow Frontage", "tier": 1, "lines": ["First Line"], "headway": "90 s"}}, {"type": "Feature", "geometry": {"type": "Point", "coordinates": [-119.772741, 36.799768]}, "properties": {"ftype": "station", "name": "First & Sherman Street", "tier": 1, "lines": ["First Line"], "headway": "90 s"}}, {"type": "Feature", "geometry": {"type": "Point", "coordinates": [-119.772684, 36.791082]}, "properties": {"ftype": "station", "name": "First & First Avenue Frontage", "tier": 1, "lines": ["First Line"], "headway": "90 s"}}, {"type": "Feature", "geometry": {"type": "Point", "coordinates": [-119.772659, 36.782395]}, "properties": {"ftype": "station", "name": "First & Dayton Avenue", "tier": 1, "lines": ["First Line"], "headway": "90 s"}}, {"type": "Feature", "geometry": {"type": "Point", "coordinates": [-119.772634, 36.773708]}, "properties": {"ftype": "station", "name": "First & 1st Street", "tier": 1, "lines": ["First Line"], "headway": "90 s"}}, {"type": "Feature", "geometry": {"type": "Point", "coordinates": [-119.772566, 36.750677]}, "properties": {"ftype": "station", "name": "First & Belmont Avenue", "tier": 1, "lines": ["First Line"], "headway": "90 s"}}, {"type": "Feature", "geometry": {"type": "Point", "coordinates": [-119.907466, 36.807965]}, "properties": {"ftype": "station", "name": "Shaw & Bryan Avenue", "tier": 1, "lines": ["Shaw Line"], "headway": "90 s"}}, {"type": "Feature", "geometry": {"type": "Point", "coordinates": [-119.673127, 36.80853]}, "properties": {"ftype": "station", "name": "Shaw & Armstrong Avenue", "tier": 1, "lines": ["Shaw Line"], "headway": "90 s"}}, {"type": "Feature", "geometry": {"type": "Point", "coordinates": [-119.916212, 36.764347]}, "properties": {"ftype": "station", "name": "McKinley & Grantland Avenue", "tier": 1, "lines": ["McKinley Line"], "headway": "90 s"}}, {"type": "Feature", "geometry": {"type": "Point", "coordinates": [-119.700376, 36.76536]}, "properties": {"ftype": "station", "name": "McKinley & Clovis Avenue", "tier": 1, "lines": ["McKinley Line"], "headway": "90 s"}}, {"type": "Feature", "geometry": {"type": "Point", "coordinates": [-119.916188, 36.757103]}, "properties": {"ftype": "station", "name": "Olive & Grantland Avenue", "tier": 1, "lines": ["Olive Line"], "headway": "90 s"}}, {"type": "Feature", "geometry": {"type": "Point", "coordinates": [-119.673075, 36.757506]}, "properties": {"ftype": "station", "name": "Olive & Armstrong Avenue", "tier": 1, "lines": ["Olive Line"], "headway": "90 s"}}, {"type": "Feature", "geometry": {"type": "Point", "coordinates": [-119.776811, 36.735863]}, "properties": {"ftype": "station", "name": "Kings Canyon & Parallel Avenue", "tier": 1, "lines": ["Kings Canyon Line"], "headway": "90 s"}}, {"type": "Feature", "geometry": {"type": "Point", "coordinates": [-119.678922, 36.736888]}, "properties": {"ftype": "station", "name": "Kings Canyon East Terminal", "tier": 1, "lines": ["Kings Canyon Line"], "headway": "90 s"}}, {"type": "Feature", "geometry": {"type": "Point", "coordinates": [-119.790518, 36.742518]}, "properties": {"ftype": "station", "name": "Blackstone & Stanislaus Street", "tier": 1, "lines": ["Blackstone Line"], "headway": "90 s"}}, {"type": "Feature", "geometry": {"type": "Point", "coordinates": [-119.790942, 36.850102]}, "properties": {"ftype": "station", "name": "Blackstone North Terminal", "tier": 1, "lines": ["Blackstone Line"], "headway": "90 s"}}, {"type": "Feature", "geometry": {"type": "Point", "coordinates": [-119.808282, 36.746658]}, "properties": {"ftype": "station", "name": "Palm & H Street", "tier": 1, "lines": ["Palm Line"], "headway": "90 s"}}, {"type": "Feature", "geometry": {"type": "Point", "coordinates": [-119.805288, 36.851721]}, "properties": {"ftype": "station", "name": "Palm & Nees Avenue", "tier": 1, "lines": ["Palm Line"], "headway": "90 s"}}, {"type": "Feature", "geometry": {"type": "Point", "coordinates": [-119.756779, 36.851908]}, "properties": {"ftype": "station", "name": "Cedar & Nees Avenue", "tier": 1, "lines": ["Cedar Line"], "headway": "90 s"}}, {"type": "Feature", "geometry": {"type": "Point", "coordinates": [-119.754722, 36.678048]}, "properties": {"ftype": "station", "name": "Cedar & Central Avenue", "tier": 1, "lines": ["Cedar Line"], "headway": "90 s"}}, {"type": "Feature", "geometry": {"type": "Point", "coordinates": [-119.774944, 36.855297]}, "properties": {"ftype": "station", "name": "First & Omaha Avenue", "tier": 1, "lines": ["First Line"], "headway": "90 s"}}, {"type": "Feature", "geometry": {"type": "Point", "coordinates": [-119.772546, 36.743814]}, "properties": {"ftype": "station", "name": "First South Terminal", "tier": 1, "lines": ["First Line"], "headway": "90 s"}}, {"type": "Feature", "geometry": {"type": "LineString", "coordinates": [[-119.907466, 36.807965], [-119.887911, 36.808131], [-119.860569, 36.808293], [-119.815962, 36.808393], [-119.751855, 36.808484], [-119.673127, 36.80853]]}, "properties": {"ftype": "line", "id": "fresno-Shaw", "name": "Shaw Line", "tier": 1, "headway": "90 s"}}, {"type": "Feature", "geometry": {"type": "LineString", "coordinates": [[-119.916212, 36.764347], [-119.877498, 36.76447], [-119.848321, 36.764593], [-119.818319, 36.764779], [-119.769762, 36.765037], [-119.700376, 36.76536]]}, "properties": {"ftype": "line", "id": "fresno-McKinley", "name": "McKinley Line", "tier": 1, "headway": "90 s"}}, {"type": "Feature", "geometry": {"type": "LineString", "coordinates": [[-119.916188, 36.757103], [-119.853244, 36.757383], [-119.810105, 36.757539], [-119.778093, 36.757542], [-119.735644, 36.757526], [-119.673075, 36.757506]]}, "properties": {"ftype": "line", "id": "fresno-Olive", "name": "Olive Line", "tier": 1, "headway": "90 s"}}, {"type": "Feature", "geometry": {"type": "LineString", "coordinates": [[-119.776811, 36.735863], [-119.724866, 36.736311], [-119.678922, 36.736888]]}, "properties": {"ftype": "line", "id": "fresno-Kings Canyon", "name": "Kings Canyon Line", "tier": 1, "headway": "90 s"}}, {"type": "Feature", "geometry": {"type": "LineString", "coordinates": [[-119.790518, 36.742518], [-119.790676, 36.8008], [-119.790942, 36.850102]]}, "properties": {"ftype": "line", "id": "fresno-Blackstone", "name": "Blackstone Line", "tier": 1, "headway": "90 s"}}, {"type": "Feature", "geometry": {"type": "LineString", "coordinates": [[-119.808282, 36.746658], [-119.808375, 36.786047], [-119.808388, 36.818604], [-119.808125, 36.83787], [-119.807453, 36.847024], [-119.806443, 36.849489], [-119.805288, 36.851721]]}, "properties": {"ftype": "line", "id": "fresno-Palm", "name": "Palm Line", "tier": 1, "headway": "90 s"}}, {"type": "Feature", "geometry": {"type": "LineString", "coordinates": [[-119.756779, 36.851908], [-119.755909, 36.844688], [-119.755117, 36.82477], [-119.754737, 36.791968], [-119.754703, 36.74536], [-119.754885, 36.711329], [-119.75487, 36.688849], [-119.754722, 36.678048]]}, "properties": {"ftype": "line", "id": "fresno-Cedar", "name": "Cedar Line", "tier": 1, "headway": "90 s"}}, {"type": "Feature", "geometry": {"type": "LineString", "coordinates": [[-119.774944, 36.855297], [-119.774523, 36.849796], [-119.773918, 36.844586], [-119.773155, 36.830346], [-119.772701, 36.796832], [-119.772546, 36.743814]]}, "properties": {"ftype": "line", "id": "fresno-First", "name": "First Line", "tier": 1, "headway": "90 s"}}]}
