{"type": "FeatureCollection", "features": [{"type": "Feature", "geometry": {"type": "LineString", "coordinates": [[-121.9026, 37.3297], [-121.90279, 37.32847], [-121.90273, 37.32738], [-121.90284, 37.32612], [-121.90275, 37.32476], [-121.90252, 37.32352], [-121.9018, 37.32234], [-121.90069, 37.32126], [-121.89968, 37.32032], [-121.89861, 37.3194], [-121.89748, 37.31877], [-121.8961, 37.31835], [-121.89469, 37.31819], [-121.89315, 37.31813], [-121.8916, 37.31805], [-121.89013, 37.3178], [-121.88889, 37.31729], [-121.88788, 37.31654], [-121.88667, 37.31515], [-121.88388, 37.31169], [-121.88291, 37.31048], [-121.88159, 37.30885], [-121.88073, 37.30786], [-121.87877, 37.30542], [-121.87668, 37.30284], [-121.87573, 37.30167], [-121.87355, 37.29896], [-121.87273, 37.29808], [-121.87184, 37.29725], [-121.87059, 37.29625], [-121.86951, 37.29551], [-121.86805, 37.29469], [-121.86643, 37.29392], [-121.8648, 37.29331], [-121.85444, 37.28988], [-121.85289, 37.28932], [-121.8512, 37.28876], [-121.84838, 37.28782], [-121.84712, 37.28739], [-121.84566, 37.28678], [-121.84432, 37.28601], [-121.84324, 37.28522], [-121.84056, 37.28265], [-121.83957, 37.28167], [-121.83745, 37.27959], [-121.83607, 37.27824], [-121.83219, 37.27444], [-121.83102, 37.27345], [-121.82996, 37.27267], [-121.8225, 37.26741], [-121.82077, 37.26627], [-121.81051, 37.26008], [-121.79377, 37.25007], [-121.7703, 37.23602], [-121.76914, 37.23534], [-121.76724, 37.2343], [-121.76389, 37.23263], [-121.7626, 37.23199], [-121.75944, 37.23043], [-121.75501, 37.22823], [-121.75362, 37.2275], [-121.75161, 37.22637], [-121.75038, 37.22554], [-121.74907, 37.22453], [-121.74795, 37.22359], [-121.74668, 37.22241], [-121.74549, 37.22122], [-121.74354, 37.21922], [-121.74235, 37.2181], [-121.73959, 37.21573], [-121.73831, 37.2147], [-121.73444, 37.21137], [-121.73345, 37.21051], [-121.7324, 37.20954], [-121.7308, 37.20798], [-121.72983, 37.20703], [-121.72793, 37.20518], [-121.72375, 37.2011], [-121.72206, 37.19944], [-121.71952, 37.19697], [-121.71565, 37.19319], [-121.71465, 37.19222], [-121.71303, 37.19062], [-121.71155, 37.18919], [-121.70849, 37.1862], [-121.70602, 37.18378], [-121.70306, 37.18089], [-121.7016, 37.17947], [-121.6999, 37.17781], [-121.69859, 37.17652], [-121.69768, 37.17564], [-121.69536, 37.17337], [-121.69365, 37.1717], [-121.69071, 37.16883], [-121.68925, 37.1674], [-121.6879, 37.16608], [-121.6869, 37.16511], [-121.68508, 37.16333], [-121.68421, 37.16248], [-121.6819, 37.16023], [-121.68017, 37.15854], [-121.67658, 37.15503], [-121.67335, 37.1519], [-121.67184, 37.15041], [-121.66769, 37.14636], [-121.6657, 37.14441], [-121.66271, 37.1415], [-121.65483, 37.1338], [-121.65274, 37.13175], [-121.65111, 37.13016], [-121.65014, 37.12922], [-121.64727, 37.12642], [-121.64367, 37.12291], [-121.64227, 37.12154], [-121.63619, 37.11559], [-121.63478, 37.11423], [-121.62134, 37.10111], [-121.6202, 37.1], [-121.61894, 37.09876], [-121.61737, 37.09723], [-121.61644, 37.0961], [-121.61529, 37.09421], [-121.61369, 37.09149], [-121.61234, 37.08915], [-121.61092, 37.08671], [-121.61014, 37.08542], [-121.60952, 37.08433], [-121.60704, 37.0801], [-121.60519, 37.07696], [-121.60379, 37.07457], [-121.60299, 37.07321], [-121.60163, 37.0709], [-121.60067, 37.06928], [-121.59994, 37.068], [-121.59832, 37.06507], [-121.59718, 37.06301], [-121.59653, 37.06181], [-121.59508, 37.05918], [-121.59347, 37.05626], [-121.59269, 37.05483], [-121.5913, 37.05213], [-121.59043, 37.05043], [-121.58935, 37.04832], [-121.58817, 37.04602], [-121.58733, 37.04439], [-121.58668, 37.04312], [-121.58587, 37.04154], [-121.58463, 37.03913], [-121.58333, 37.03658], [-121.58236, 37.03469], [-121.58082, 37.03168], [-121.57986, 37.0298], [-121.579, 37.02815], [-121.57819, 37.02656], [-121.57742, 37.02504], [-121.57631, 37.0229], [-121.57554, 37.02138], [-121.5747, 37.01973], [-121.57402, 37.01845], [-121.57332, 37.01741], [-121.57203, 37.01555], [-121.57115, 37.01427], [-121.57053, 37.01303], [-121.56992, 37.01167], [-121.56941, 37.01058], [-121.56881, 37.00928], [-121.56827, 37.00804], [-121.56773, 37.00686], [-121.5683, 37.0058], [-121.56773, 37.00686], [-121.56827, 37.00804], [-121.56881, 37.00928], [-121.56823, 37.00806], [-121.56768, 37.00688], [-121.56695, 37.00574], [-121.56626, 37.00442], [-121.56578, 37.0033], [-121.56546, 37.00216], [-121.56505, 37.00109], [-121.56451, 36.99991], [-121.56383, 36.99847], [-121.56304, 36.99691], [-121.56226, 36.99552], [-121.56141, 36.9941], [-121.56066, 36.99296], [-121.56, 36.992], [-121.5593, 36.99104], [-121.55861, 36.99003], [-121.55787, 36.9891], [-121.55676, 36.98781], [-121.55583, 36.9868], [-121.55452, 36.98547], [-121.55341, 36.98441], [-121.55234, 36.98346], [-121.54994, 36.98144], [-121.54543, 36.97762], [-121.54434, 36.97671], [-121.54321, 36.97558], [-121.5426, 36.97452], [-121.54229, 36.9734], [-121.54229, 36.97223], [-121.54278, 36.96961], [-121.54304, 36.96822], [-121.54411, 36.96269], [-121.54629, 36.95124], [-121.54786, 36.94294], [-121.54876, 36.93819], [-121.54905, 36.93659], [-121.54914, 36.9352], [-121.54893, 36.93369], [-121.5485, 36.93182], [-121.54821, 36.93052], [-121.54807, 36.92928], [-121.54799, 36.9276], [-121.54791, 36.92196], [-121.54801, 36.92058], [-121.54845, 36.91938], [-121.54942, 36.91815], [-121.55049, 36.91732], [-121.55204, 36.91654], [-121.55373, 36.91572], [-121.55524, 36.91474], [-121.55635, 36.91383], [-121.55721, 36.91296], [-121.55811, 36.91185], [-121.55905, 36.91035], [-121.5594, 36.9093], [-121.55943, 36.90799], [-121.55963, 36.90679], [-121.56044, 36.90494], [-121.56066, 36.90378], [-121.56066, 36.90248], [-121.56078, 36.90135], [-121.56073, 36.90019], [-121.56091, 36.89905], [-121.5617, 36.89816], [-121.56302, 36.89766], [-121.56574, 36.89775], [-121.57152, 36.89809], [-121.57609, 36.89837], [-121.57794, 36.89867], [-121.58034, 36.89978], [-121.58147, 36.9004], [-121.58495, 36.90151], [-121.58652, 36.90191], [-121.58791, 36.90198], [-121.58926, 36.90188], [-121.59127, 36.90199], [-121.59291, 36.90199], [-121.59744, 36.90134], [-121.59882, 36.90119], [-121.60034, 36.90121], [-121.60184, 36.90142], [-121.60331, 36.90182], [-121.60706, 36.90311], [-121.60971, 36.90402], [-121.61135, 36.90471], [-121.61247, 36.90539], [-121.61351, 36.90613], [-121.61625, 36.90805], [-121.61731, 36.90879], [-121.61864, 36.90948], [-121.62014, 36.90966], [-121.62178, 36.90959], [-121.62334, 36.90951], [-121.62485, 36.90986], [-121.626, 36.91065], [-121.62726, 36.91122], [-121.62879, 36.91107], [-121.62999, 36.91006], [-121.63117, 36.9085], [-121.63214, 36.90719], [-121.63289, 36.9062], [-121.63354, 36.90504], [-121.63404, 36.90389], [-121.63421, 36.90271], [-121.63427, 36.90124], [-121.63445, 36.89954], [-121.63468, 36.89844], [-121.63524, 36.89674], [-121.63587, 36.89553], [-121.63673, 36.89434], [-121.63787, 36.89343], [-121.63926, 36.89278], [-121.64121, 36.89236], [-121.64367, 36.89204], [-121.65091, 36.89115], [-121.65278, 36.89095], [-121.65463, 36.89098], [-121.66192, 36.89231], [-121.67391, 36.89458], [-121.69033, 36.89767], [-121.70415, 36.90029], [-121.70562, 36.90057], [-121.7085, 36.9011], [-121.71077, 36.90139], [-121.71242, 36.90145], [-121.71396, 36.9014], [-121.71573, 36.90117], [-121.71719, 36.9009], [-121.71873, 36.9006], [-121.7282, 36.89876], [-121.73213, 36.898], [-121.73566, 36.89732], [-121.73815, 36.89684], [-121.74042, 36.89639], [-121.74191, 36.89601], [-121.74335, 36.89547], [-121.74454, 36.89473], [-121.74556, 36.89376], [-121.74631, 36.89265], [-121.74674, 36.89158], [-121.74693, 36.8904], [-121.74695, 36.88918], [-121.74684, 36.88779], [-121.74673, 36.88641], [-121.7465, 36.8835], [-121.74645, 36.88236], [-121.7466, 36.88081], [-121.74672, 36.87946], [-121.74652, 36.87826], [-121.74592, 36.87636], [-121.74554, 36.87505], [-121.74548, 36.87389], [-121.7459, 36.87095], [-121.74614, 36.86964], [-121.7466, 36.86844], [-121.74744, 36.86712], [-121.74851, 36.86602], [-121.75053, 36.86429], [-121.75257, 36.86256], [-121.75355, 36.8616], [-121.75443, 36.86048], [-121.75513, 36.85917], [-121.7557, 36.85755], [-121.75612, 36.85621], [-121.75671, 36.85441], [-121.75708, 36.8531], [-121.75714, 36.85169], [-121.75669, 36.85027], [-121.7551, 36.84754], [-121.75427, 36.84614], [-121.75313, 36.84482], [-121.75162, 36.8438], [-121.75015, 36.84319], [-121.74687, 36.84219], [-121.74553, 36.8417], [-121.74435, 36.84113], [-121.74301, 36.84031], [-121.7418, 36.83932], [-121.74059, 36.83803], [-121.73981, 36.8369], [-121.73906, 36.83534], [-121.73861, 36.83348], [-121.73852, 36.83235], [-121.73858, 36.83125], [-121.73881, 36.83006], [-121.73918, 36.82893], [-121.73957, 36.82783], [-121.74092, 36.82424], [-121.74451, 36.8145], [-121.74498, 36.81326], [-121.74616, 36.81002], [-121.74669, 36.80865], [-121.74798, 36.80532], [-121.74842, 36.80427], [-121.74919, 36.803], [-121.75264, 36.79846], [-121.75374, 36.79691], [-121.75444, 36.79551], [-121.75471, 36.79422], [-121.7546, 36.79292], [-121.75355, 36.78937], [-121.75146, 36.7826], [-121.75098, 36.78105], [-121.75033, 36.77886], [-121.74763, 36.77007], [-121.74716, 36.76855], [-121.74677, 36.76731], [-121.74641, 36.76612], [-121.74608, 36.76507], [-121.74519, 36.76216], [-121.74454, 36.76007], [-121.74392, 36.75802], [-121.74334, 36.75616], [-121.74236, 36.75298], [-121.74197, 36.75173], [-121.74142, 36.74992], [-121.74077, 36.74778], [-121.74031, 36.7463], [-121.73993, 36.74506], [-121.73842, 36.7402], [-121.73782, 36.73821], [-121.73726, 36.73679], [-121.73648, 36.73513], [-121.73549, 36.73346], [-121.73453, 36.7321], [-121.73375, 36.73114], [-121.73283, 36.73011], [-121.7293, 36.72647], [-121.72804, 36.72517], [-121.72667, 36.72376], [-121.72526, 36.72231], [-121.7238, 36.7208], [-121.72179, 36.71873], [-121.72082, 36.71773], [-121.71859, 36.71544], [-121.71665, 36.71344], [-121.71479, 36.7115], [-121.71116, 36.70777], [-121.70758, 36.70409], [-121.70549, 36.70196], [-121.70383, 36.70024], [-121.70292, 36.69932], [-121.70198, 36.69843], [-121.70105, 36.69764], [-121.70003, 36.69683], [-121.69891, 36.696], [-121.69775, 36.69519], [-121.6965, 36.6944], [-121.69459, 36.6933], [-121.69276, 36.69238], [-121.6913, 36.69172], [-121.68865, 36.69069], [-121.687, 36.69012], [-121.68462, 36.68928], [-121.68118, 36.68806], [-121.67909, 36.68733], [-121.6764, 36.68638], [-121.6738, 36.68547], [-121.66968, 36.68401], [-121.6665, 36.68289], [-121.66477, 36.68228], [-121.66207, 36.68132], [-121.66044, 36.68075], [-121.6565, 36.67937], [-121.65502, 36.67883], [-121.65366, 36.67836], [-121.65156, 36.67758], [-121.64947, 36.67644], [-121.64809, 36.6754], [-121.64723, 36.67453], [-121.64606, 36.67317], [-121.64527, 36.67227], [-121.64448, 36.67136], [-121.64366, 36.67041], [-121.64146, 36.66787], [-121.64069, 36.66698], [-121.63934, 36.66555], [-121.63838, 36.66464], [-121.6374, 36.66377], [-121.63637, 36.66291], [-121.63492, 36.66182], [-121.63352, 36.6608], [-121.63225, 36.65987], [-121.63104, 36.65898], [-121.62859, 36.65721], [-121.62757, 36.65647], [-121.62655, 36.65572], [-121.62541, 36.65488], [-121.61957, 36.65063], [-121.61835, 36.64975], [-121.61338, 36.64613], [-121.61177, 36.64495], [-121.6091, 36.643], [-121.6047, 36.63978], [-121.60288, 36.63846], [-121.59794, 36.63485], [-121.59403, 36.63201], [-121.59012, 36.62917], [-121.58717, 36.62701], [-121.58547, 36.62577], [-121.58441, 36.62498], [-121.58226, 36.62342], [-121.5807, 36.62229], [-121.57347, 36.61701], [-121.57195, 36.61591], [-121.5709, 36.61511], [-121.56907, 36.61379], [-121.56737, 36.61254], [-121.56309, 36.60942], [-121.56119, 36.60804], [-121.55957, 36.60686], [-121.55832, 36.60595], [-121.55289, 36.60194], [-121.55117, 36.60047], [-121.54952, 36.5989], [-121.54624, 36.59574], [-121.54322, 36.59296], [-121.54001, 36.5897], [-121.53348, 36.58342], [-121.53162, 36.58161], [-121.52874, 36.57879], [-121.52185, 36.57219], [-121.52097, 36.57125], [-121.51859, 36.56898], [-121.51352, 36.56406], [-121.5122, 36.56282], [-121.51019, 36.56087], [-121.50866, 36.55939], [-121.50701, 36.55778], [-121.50506, 36.55593], [-121.50323, 36.55425], [-121.5011, 36.55243], [-121.49774, 36.54957], [-121.49506, 36.54735], [-121.4905, 36.54362], [-121.48803, 36.54156], [-121.48445, 36.53863], [-121.48155, 36.53622], [-121.4799, 36.53485], [-121.47893, 36.53403], [-121.47755, 36.53288], [-121.47625, 36.53182], [-121.47347, 36.52952], [-121.47207, 36.52836], [-121.4703, 36.52688], [-121.46887, 36.52571], [-121.46742, 36.5245], [-121.46614, 36.52346], [-121.46177, 36.51986], [-121.45993, 36.51833], [-121.44835, 36.50875], [-121.44562, 36.50649], [-121.44278, 36.50414], [-121.43997, 36.50181], [-121.43673, 36.49913], [-121.43351, 36.49646], [-121.42996, 36.49352], [-121.42677, 36.49087], [-121.4241, 36.48864], [-121.42156, 36.48654], [-121.41887, 36.48432], [-121.41782, 36.48352], [-121.41572, 36.48202], [-121.4123, 36.47978], [-121.41012, 36.47839], [-121.40722, 36.47652], [-121.40374, 36.47428], [-121.39809, 36.47064], [-121.39313, 36.46745], [-121.39124, 36.46623], [-121.38981, 36.46532], [-121.3887, 36.4646], [-121.38746, 36.46378], [-121.38611, 36.46293], [-121.38224, 36.46041], [-121.37939, 36.45857], [-121.37556, 36.45611], [-121.37236, 36.45405], [-121.36994, 36.45251], [-121.36828, 36.45142], [-121.36593, 36.4499], [-121.36258, 36.44775], [-121.36133, 36.44695], [-121.35991, 36.44601], [-121.35147, 36.44059], [-121.34801, 36.43835], [-121.3435, 36.43545], [-121.34009, 36.43325], [-121.33901, 36.43256], [-121.3296, 36.42649], [-121.32361, 36.42262], [-121.326, 36.425], [-121.32361, 36.42262], [-121.32249, 36.4219], [-121.32085, 36.42099], [-121.31877, 36.42008], [-121.31651, 36.41932], [-121.31192, 36.41779], [-121.30822, 36.41657], [-121.30614, 36.41589], [-121.30302, 36.41486], [-121.30029, 36.41396], [-121.29648, 36.41308], [-121.28994, 36.41171], [-121.28611, 36.4109], [-121.28311, 36.41029], [-121.2802, 36.40967], [-121.27818, 36.40926], [-121.27226, 36.40803], [-121.27086, 36.40774], [-121.2684, 36.40725], [-121.2666, 36.40677], [-121.26504, 36.40615], [-121.26369, 36.40551], [-121.26214, 36.40475], [-121.26073, 36.404], [-121.25944, 36.40294], [-121.25807, 36.40207], [-121.2564, 36.40124], [-121.2552, 36.40058], [-121.25391, 36.39949], [-121.25299, 36.39816], [-121.25219, 36.39619], [-121.25169, 36.39504], [-121.25033, 36.3933], [-121.2495, 36.39209], [-121.24913, 36.39097], [-121.24881, 36.38882], [-121.24865, 36.38768], [-121.24794, 36.38627], [-121.24664, 36.38461], [-121.24544, 36.3831], [-121.24456, 36.38206], [-121.24289, 36.38054], [-121.24165, 36.37938], [-121.2406, 36.37773], [-121.24018, 36.37627], [-121.23985, 36.3748], [-121.23932, 36.37249], [-121.23879, 36.37127], [-121.23697, 36.36881], [-121.23519, 36.36642], [-121.23428, 36.36516], [-121.23354, 36.36416], [-121.23255, 36.36304], [-121.23104, 36.36211], [-121.22892, 36.36138], [-121.22745, 36.36113], [-121.22571, 36.36095], [-121.22431, 36.36067], [-121.22031, 36.35879], [-121.21722, 36.35726], [-121.21375, 36.35553], [-121.21085, 36.3541], [-121.20886, 36.35308], [-121.20509, 36.35119], [-121.20373, 36.35038], [-121.20275, 36.3493], [-121.20213, 36.34768], [-121.20046, 36.34231], [-121.19985, 36.3403], [-121.19928, 36.33873], [-121.19858, 36.33781], [-121.19665, 36.33678], [-121.19443, 36.33586], [-121.19188, 36.33483], [-121.19002, 36.33393], [-121.1885, 36.33267], [-121.18761, 36.3314], [-121.18694, 36.33018], [-121.18533, 36.32731], [-121.18372, 36.3244], [-121.18289, 36.32289], [-121.18214, 36.3217], [-121.17999, 36.31999], [-121.17891, 36.31928], [-121.17466, 36.31649], [-121.1726, 36.31513], [-121.17122, 36.31393], [-121.16928, 36.31165], [-121.16816, 36.31032], [-121.16533, 36.30702], [-121.16449, 36.30602], [-121.16298, 36.30423], [-121.15968, 36.30037], [-121.15717, 36.29741], [-121.15628, 36.29635], [-121.15542, 36.29496], [-121.15453, 36.29251], [-121.15415, 36.29135], [-121.15308, 36.28827], [-121.15232, 36.2865], [-121.15096, 36.28364], [-121.15006, 36.28175], [-121.14945, 36.28043], [-121.14867, 36.27878], [-121.14813, 36.27734], [-121.14736, 36.27469], [-121.14631, 36.2711], [-121.14573, 36.26935], [-121.14534, 36.26831], [-121.14489, 36.26707], [-121.14422, 36.26528], [-121.14302, 36.26211], [-121.14165, 36.25844], [-121.14029, 36.25482], [-121.13921, 36.25197], [-121.13875, 36.25073], [-121.13763, 36.24773], [-121.1346, 36.23965], [-121.13379, 36.23748], [-121.13147, 36.23133], [-121.13054, 36.22886], [-121.1301, 36.22779], [-121.12875, 36.2242], [-121.12783, 36.22176], [-121.12709, 36.22013], [-121.12619, 36.2186], [-121.12504, 36.21709], [-121.12361, 36.21534], [-121.12168, 36.21294], [-121.12065, 36.21174], [-121.11947, 36.21014], [-121.11837, 36.20873], [-121.11672, 36.20674], [-121.11577, 36.20566], [-121.11452, 36.20439], [-121.11277, 36.20293], [-121.11131, 36.20198], [-121.10923, 36.20089], [-121.10718, 36.20008], [-121.08835, 36.1941], [-121.07767, 36.19071], [-121.07115, 36.18867], [-121.06715, 36.18741], [-121.06543, 36.18674], [-121.06432, 36.18594], [-121.06265, 36.18372], [-121.06165, 36.18234], [-121.0608, 36.18105], [-121.06046, 36.17997], [-121.06032, 36.1784], [-121.05975, 36.17638], [-121.05945, 36.17446], [-121.05936, 36.17249], [-121.05883, 36.17092], [-121.05792, 36.1698], [-121.05678, 36.16853], [-121.05598, 36.1676], [-121.05424, 36.1656], [-121.05304, 36.16423], [-121.04933, 36.16], [-121.04788, 36.15837], [-121.0467, 36.15692], [-121.0437, 36.15257], [-121.04112, 36.14884], [-121.03971, 36.14678], [-121.03756, 36.14368], [-121.03565, 36.14091], [-121.03457, 36.13936], [-121.0318, 36.13534], [-121.03106, 36.13424], [-121.02991, 36.1329], [-121.02855, 36.13174], [-121.02668, 36.1306], [-121.0252, 36.12993], [-121.02301, 36.12933], [-121.02019, 36.12868], [-121.01864, 36.12831], [-121.01622, 36.12756], [-121.01497, 36.12707], [-121.01371, 36.12652], [-121.01205, 36.12579], [-121.01004, 36.12492], [-121.00873, 36.12437], [-121.00728, 36.12369], [-121.00571, 36.12273], [-121.00423, 36.12154], [-121.00272, 36.1199], [-121.0015, 36.11809], [-120.99959, 36.11509], [-120.99798, 36.11257], [-120.99709, 36.11117], [-120.99579, 36.10949], [-120.99487, 36.10856], [-120.9937, 36.10767], [-120.99246, 36.10687], [-120.99027, 36.10587], [-120.98875, 36.1054], [-120.98645, 36.10495], [-120.98471, 36.10477], [-120.9822, 36.10456], [-120.98065, 36.10443], [-120.97914, 36.10424], [-120.97732, 36.1038], [-120.97566, 36.10321], [-120.97411, 36.10234], [-120.97176, 36.10073], [-120.96806, 36.09827], [-120.96373, 36.09535], [-120.96229, 36.09437], [-120.9533, 36.08833], [-120.95132, 36.08695], [-120.94939, 36.08514], [-120.94702, 36.08282], [-120.94572, 36.08155], [-120.94425, 36.08005], [-120.93836, 36.07374], [-120.93439, 36.06952], [-120.93298, 36.06799], [-120.92988, 36.06467], [-120.92846, 36.06315], [-120.92643, 36.06098], [-120.92529, 36.05979], [-120.92403, 36.05822], [-120.92334, 36.05716], [-120.92134, 36.05305], [-120.91906, 36.0484], [-120.91827, 36.04687], [-120.91708, 36.04496], [-120.91, 36.03422], [-120.90269, 36.02319], [-120.90089, 36.02045], [-120.8992, 36.01792], [-120.88658, 35.99881], [-120.8828, 35.99313], [-120.88194, 35.99156], [-120.88067, 35.98887], [-120.8795, 35.98657], [-120.87897, 35.98514], [-120.87889, 35.98377], [-120.87897, 35.98267], [-120.87912, 35.98075], [-120.87898, 35.97924], [-120.8785, 35.97815], [-120.8735, 35.97033], [-120.87204, 35.96807], [-120.87081, 35.96615], [-120.86814, 35.96205], [-120.8674, 35.96084], [-120.86581, 35.95781], [-120.86303, 35.95219], [-120.86251, 35.95118], [-120.8619, 35.94968], [-120.86186, 35.94851], [-120.8623, 35.94553], [-120.86267, 35.94368], [-120.86286, 35.94243], [-120.86324, 35.94116], [-120.86392, 35.93963], [-120.86425, 35.93852], [-120.86435, 35.93659], [-120.86452, 35.93493], [-120.86428, 35.93364], [-120.86114, 35.92708], [-120.86062, 35.92589], [-120.85989, 35.92477], [-120.8584, 35.9235], [-120.85716, 35.92283], [-120.85454, 35.92146], [-120.85259, 35.92058], [-120.84883, 35.91891], [-120.84693, 35.91804], [-120.84526, 35.91709], [-120.84381, 35.91607], [-120.84229, 35.91463], [-120.84032, 35.91271], [-120.8393, 35.91136], [-120.83845, 35.90929], [-120.83788, 35.90774], [-120.83709, 35.90567], [-120.83647, 35.90432], [-120.83584, 35.90312], [-120.83509, 35.90134], [-120.83473, 35.90026], [-120.83437, 35.89877], [-120.83413, 35.89691], [-120.83408, 35.89495], [-120.83411, 35.89328], [-120.8347, 35.88987], [-120.8349, 35.88788], [-120.83482, 35.88635], [-120.83436, 35.88473], [-120.83268, 35.88096], [-120.83157, 35.87975], [-120.82878, 35.8791], [-120.82712, 35.87833], [-120.8256, 35.87705], [-120.82429, 35.87606], [-120.82277, 35.87521], [-120.81974, 35.87358], [-120.81457, 35.87076], [-120.81304, 35.87002], [-120.80955, 35.86816], [-120.80752, 35.86709], [-120.80549, 35.86601], [-120.80419, 35.86537], [-120.80286, 35.86481], [-120.80119, 35.86425], [-120.79914, 35.86375], [-120.79758, 35.86351], [-120.79548, 35.86318], [-120.79358, 35.86294], [-120.79203, 35.86275], [-120.79054, 35.8626], [-120.77911, 35.8625], [-120.77285, 35.86247], [-120.77128, 35.86241], [-120.76991, 35.86212], [-120.76845, 35.8615], [-120.76637, 35.86015], [-120.76503, 35.8592], [-120.76326, 35.85771], [-120.75848, 35.85347], [-120.7574, 35.85244], [-120.75419, 35.84865], [-120.75322, 35.84698], [-120.75243, 35.84379], [-120.75217, 35.84251], [-120.75158, 35.83964], [-120.75128, 35.83821], [-120.75095, 35.8366], [-120.75014, 35.83282], [-120.7496, 35.83009], [-120.74963, 35.82848], [-120.74994, 35.82714], [-120.75053, 35.82586], [-120.7512, 35.82462], [-120.75219, 35.82277], [-120.75284, 35.82156], [-120.75339, 35.81956], [-120.75342, 35.81834], [-120.75309, 35.81669], [-120.75227, 35.81402], [-120.75152, 35.81153], [-120.75087, 35.81], [-120.7501, 35.80882], [-120.74828, 35.80627], [-120.74569, 35.80255], [-120.74463, 35.80145], [-120.74055, 35.79882], [-120.73934, 35.79801], [-120.73499, 35.7948], [-120.73296, 35.7933], [-120.73155, 35.79184], [-120.72926, 35.78876], [-120.7282, 35.78745], [-120.72723, 35.78616], [-120.72652, 35.78521], [-120.72582, 35.78426], [-120.72504, 35.78328], [-120.72406, 35.78235], [-120.7229, 35.78154], [-120.72163, 35.78089], [-120.72041, 35.78029], [-120.71857, 35.77939], [-120.71687, 35.77856], [-120.71517, 35.77766], [-120.71402, 35.77703], [-120.71084, 35.77498], [-120.70919, 35.77391], [-120.7081, 35.77321], [-120.7049, 35.77106], [-120.69731, 35.7655], [-120.69636, 35.76465], [-120.69558, 35.76349], [-120.69513, 35.76224], [-120.69488, 35.76102], [-120.69476, 35.75994], [-120.69477, 35.75793], [-120.69485, 35.75681], [-120.69498, 35.7556], [-120.69519, 35.75426], [-120.69541, 35.75292], [-120.69585, 35.75008], [-120.69606, 35.7488], [-120.69663, 35.7452], [-120.69688, 35.74393], [-120.69745, 35.7425], [-120.69828, 35.74084], [-120.69916, 35.73902], [-120.6999, 35.73751], [-120.70055, 35.73616], [-120.70096, 35.73509], [-120.7011, 35.73364], [-120.70097, 35.73218], [-120.70087, 35.73095], [-120.70063, 35.72983], [-120.70023, 35.72877], [-120.69894, 35.72645], [-120.69761, 35.72417], [-120.6972, 35.723], [-120.69692, 35.72184], [-120.69653, 35.72038], [-120.69577, 35.71883], [-120.69484, 35.71718], [-120.69349, 35.71485], [-120.69261, 35.71326], [-120.6922, 35.712], [-120.69197, 35.71038], [-120.69253, 35.70784], [-120.69283, 35.70629], [-120.69287, 35.70453], [-120.69252, 35.70188], [-120.69209, 35.69961], [-120.69193, 35.69849], [-120.69186, 35.69734], [-120.6919, 35.69541], [-120.69211, 35.69386], [-120.69237, 35.6926], [-120.69289, 35.69087], [-120.69354, 35.68888], [-120.69408, 35.6872], [-120.69459, 35.68557], [-120.69506, 35.68446], [-120.69571, 35.68329], [-120.69618, 35.68184], [-120.69599, 35.68068], [-120.69513, 35.67891], [-120.69462, 35.67786], [-120.69419, 35.67664], [-120.69379, 35.67506], [-120.6936, 35.67338], [-120.69361, 35.67203], [-120.6937, 35.67047], [-120.69383, 35.66927], [-120.69417, 35.66822], [-120.69503, 35.66606], [-120.69552, 35.66482], [-120.69603, 35.66354], [-120.69635, 35.66166], [-120.69642, 35.65987], [-120.69645, 35.65844], [-120.69627, 35.6573], [-120.6955, 35.65581], [-120.69444, 35.65453], [-120.69351, 35.65344], [-120.69274, 35.65253], [-120.69172, 35.65131], [-120.69099, 35.65022], [-120.69041, 35.64907], [-120.68999, 35.6478], [-120.68979, 35.64665], [-120.68967, 35.64516], [-120.68956, 35.6437], [-120.68924, 35.63948], [-120.68912, 35.63784], [-120.689, 35.63621], [-120.68888, 35.63465], [-120.68876, 35.63309], [-120.68862, 35.63197], [-120.68806, 35.63003], [-120.69, 35.63], [-120.68806, 35.63003], [-120.68773, 35.62875], [-120.68764, 35.62738], [-120.68762, 35.62478], [-120.68762, 35.6235], [-120.68761, 35.6216], [-120.6876, 35.62039], [-120.68769, 35.61908], [-120.68805, 35.61783], [-120.68859, 35.61673], [-120.68933, 35.61542], [-120.68993, 35.61429], [-120.69037, 35.61278], [-120.69041, 35.61163], [-120.69041, 35.61038], [-120.69132, 35.60794], [-120.69177, 35.60676], [-120.69203, 35.60508], [-120.69212, 35.60236], [-120.69218, 35.60101], [-120.69225, 35.59964], [-120.6925, 35.59472], [-120.69254, 35.59352], [-120.69266, 35.59128], [-120.6926, 35.58971], [-120.69216, 35.58804], [-120.69126, 35.58652], [-120.6904, 35.5855], [-120.68919, 35.58399], [-120.68821, 35.58225], [-120.6877, 35.58113], [-120.68786, 35.57818], [-120.68821, 35.57584], [-120.68899, 35.57457], [-120.69006, 35.57388], [-120.69167, 35.57304], [-120.69265, 35.57179], [-120.69316, 35.57033], [-120.6938, 35.56853], [-120.69444, 35.56672], [-120.69479, 35.56545], [-120.6949, 35.56423], [-120.69499, 35.56141], [-120.69521, 35.56019], [-120.69593, 35.55871], [-120.69672, 35.55733], [-120.6978, 35.55548], [-120.69893, 35.55352], [-120.69965, 35.55242], [-120.70058, 35.55142], [-120.70184, 35.55041], [-120.70328, 35.54936], [-120.70428, 35.54857], [-120.70533, 35.54742], [-120.70621, 35.54629], [-120.70741, 35.54474], [-120.70838, 35.54335], [-120.70973, 35.54105], [-120.71032, 35.53995], [-120.7106, 35.53833], [-120.71048, 35.53695], [-120.71026, 35.53554], [-120.71003, 35.53408], [-120.7096, 35.53275], [-120.70873, 35.53137], [-120.70744, 35.53012], [-120.70638, 35.52943], [-120.70477, 35.52873], [-120.70128, 35.52764], [-120.69977, 35.5271], [-120.69863, 35.52644], [-120.69655, 35.52517], [-120.69545, 35.5245], [-120.69388, 35.52354], [-120.69146, 35.52208], [-120.68936, 35.52081], [-120.68719, 35.51952], [-120.68585, 35.51873], [-120.68198, 35.51647], [-120.67951, 35.51504], [-120.67794, 35.51438], [-120.67643, 35.51399], [-120.67494, 35.51348], [-120.67367, 35.5127], [-120.67214, 35.51161], [-120.671, 35.5108], [-120.66999, 35.51008], [-120.6689, 35.50925], [-120.66797, 35.50828], [-120.66681, 35.50636], [-120.66579, 35.50467], [-120.66488, 35.5032], [-120.66405, 35.50219], [-120.66299, 35.50131], [-120.66094, 35.50022], [-120.65903, 35.49929], [-120.65692, 35.49842], [-120.65511, 35.49762], [-120.65223, 35.49622], [-120.65085, 35.49545], [-120.64992, 35.49444], [-120.64866, 35.49161], [-120.6482, 35.49054], [-120.64771, 35.48942], [-120.64697, 35.48769], [-120.64636, 35.48631], [-120.64515, 35.48349], [-120.64469, 35.48246], [-120.64388, 35.48058], [-120.64311, 35.47866], [-120.64244, 35.47754], [-120.64147, 35.47657], [-120.64029, 35.47583], [-120.63912, 35.47529], [-120.63781, 35.47474], [-120.63635, 35.4741], [-120.63478, 35.47318], [-120.63374, 35.47243], [-120.633, 35.47128], [-120.632, 35.46893], [-120.62928, 35.46251], [-120.62855, 35.46115], [-120.62755, 35.45998], [-120.62573, 35.45838], [-120.62469, 35.45748], [-120.62378, 35.45653], [-120.62332, 35.45546], [-120.62283, 35.45424], [-120.62206, 35.45328], [-120.61918, 35.45179], [-120.61793, 35.45118], [-120.61698, 35.45029], [-120.61571, 35.4481], [-120.61488, 35.44715], [-120.61297, 35.44558], [-120.61206, 35.44469], [-120.61079, 35.44263], [-120.60782, 35.43725], [-120.60651, 35.43486], [-120.60551, 35.43303], [-120.60482, 35.43177], [-120.60423, 35.43056], [-120.60399, 35.42915], [-120.604, 35.42647], [-120.60407, 35.42535], [-120.60408, 35.42394], [-120.60411, 35.42176], [-120.60414, 35.42017], [-120.60416, 35.41878], [-120.60419, 35.4172], [-120.60435, 35.41602], [-120.60479, 35.41418], [-120.60504, 35.41297], [-120.60513, 35.41099], [-120.60517, 35.40901], [-120.60518, 35.40751], [-120.60521, 35.40584], [-120.60524, 35.40402], [-120.60525, 35.40272], [-120.60514, 35.40096], [-120.60496, 35.39949], [-120.60476, 35.39777], [-120.60461, 35.39662], [-120.60448, 35.39553], [-120.60438, 35.3944], [-120.60458, 35.39333], [-120.60539, 35.39224], [-120.60685, 35.39139], [-120.60802, 35.39074], [-120.60963, 35.38988], [-120.6113, 35.38897], [-120.61311, 35.38798], [-120.61441, 35.38728], [-120.61599, 35.38642], [-120.61727, 35.38574], [-120.61872, 35.38512], [-120.62126, 35.38446], [-120.62282, 35.3841], [-120.62446, 35.38372], [-120.62854, 35.38279], [-120.62986, 35.38214], [-120.63052, 35.3811], [-120.63073, 35.37984], [-120.63149, 35.37863], [-120.6325, 35.3777], [-120.63304, 35.37552], [-120.63451, 35.37434], [-120.63862, 35.37268], [-120.63969, 35.37201], [-120.64057, 35.36886], [-120.64025, 35.36766], [-120.63883, 35.3662], [-120.63807, 35.3653], [-120.63751, 35.36321], [-120.63719, 35.36072], [-120.63707, 35.35958], [-120.63658, 35.35739], [-120.6363, 35.35621], [-120.63595, 35.35482], [-120.63567, 35.35359], [-120.63533, 35.35243], [-120.63465, 35.34777], [-120.63384, 35.34187], [-120.63366, 35.34042], [-120.63525, 35.33862], [-120.63649, 35.33766], [-120.6371, 35.33666], [-120.63671, 35.33552], [-120.63662, 35.33434], [-120.63511, 35.33294], [-120.63367, 35.33246], [-120.63268, 35.33089], [-120.63134, 35.32939], [-120.63036, 35.32846], [-120.62968, 35.32734], [-120.62897, 35.32622], [-120.62764, 35.32554], [-120.62688, 35.32421], [-120.62624, 35.32286], [-120.62566, 35.32174], [-120.62634, 35.32066], [-120.62789, 35.32051], [-120.6293, 35.32096], [-120.63175, 35.32184], [-120.633, 35.32305], [-120.63396, 35.32393], [-120.63491, 35.32479], [-120.63587, 35.32562], [-120.63687, 35.32641], [-120.63853, 35.32758], [-120.63963, 35.32831], [-120.64109, 35.32929], [-120.64281, 35.33045], [-120.64402, 35.33116], [-120.64639, 35.33212], [-120.64836, 35.33288], [-120.64977, 35.33309], [-120.65119, 35.33305], [-120.65276, 35.33337], [-120.65407, 35.33411], [-120.6549, 35.33509], [-120.65513, 35.3362], [-120.65459, 35.33758], [-120.65403, 35.33862], [-120.65411, 35.3398], [-120.65507, 35.34091], [-120.6564, 35.34144], [-120.65779, 35.34106], [-120.65854, 35.33979], [-120.65937, 35.33884], [-120.66066, 35.33843], [-120.66156, 35.33762], [-120.66186, 35.33635], [-120.66296, 35.33541], [-120.66378, 35.3345], [-120.66483, 35.33382], [-120.66631, 35.33391], [-120.66734, 35.33474], [-120.66845, 35.33547], [-120.66992, 35.33533], [-120.67109, 35.33471], [-120.67255, 35.33478], [-120.6739, 35.33519], [-120.67522, 35.33484], [-120.67642, 35.33411], [-120.67746, 35.33333], [-120.67783, 35.33227], [-120.67797, 35.33073], [-120.67807, 35.3293], [-120.67829, 35.3271], [-120.67839, 35.32594], [-120.67888, 35.32481], [-120.67987, 35.32394], [-120.68116, 35.32344], [-120.68252, 35.32377], [-120.68365, 35.32457], [-120.68455, 35.32536], [-120.68596, 35.32681], [-120.68712, 35.328], [-120.68813, 35.32906], [-120.68928, 35.32994], [-120.69051, 35.33044], [-120.6919, 35.33018], [-120.69267, 35.32919], [-120.69245, 35.32808], [-120.69127, 35.32736], [-120.68992, 35.32725], [-120.6888, 35.32664], [-120.68833, 35.32533], [-120.68742, 35.32431], [-120.68606, 35.32397], [-120.68483, 35.32356], [-120.6837, 35.32297], [-120.68249, 35.3222], [-120.68006, 35.31919], [-120.67941, 35.31823], [-120.67903, 35.31639], [-120.67856, 35.31515], [-120.67745, 35.31407], [-120.67616, 35.31301], [-120.675, 35.31207], [-120.67365, 35.31114], [-120.67243, 35.31063], [-120.67087, 35.31], [-120.66956, 35.30917], [-120.66876, 35.30828], [-120.66818, 35.30696], [-120.66778, 35.30545], [-120.66708, 35.3027], [-120.66675, 35.30146], [-120.66619, 35.29932], [-120.66573, 35.2976], [-120.66536, 35.29655], [-120.66458, 35.29539], [-120.66107, 35.2914], [-120.65982, 35.28998], [-120.65777, 35.28766], [-120.65654, 35.28627], [-120.65564, 35.28524], [-120.65468, 35.28429], [-120.65366, 35.28326], [-120.65288, 35.28231], [-120.65282, 35.28119], [-120.65305, 35.28008], [-120.65344, 35.27867], [-120.66, 35.28], [-120.65344, 35.27867], [-120.65378, 35.27756], [-120.65438, 35.27653], [-120.65511, 35.27547], [-120.65555, 35.27434], [-120.65537, 35.27315], [-120.65454, 35.27188], [-120.65344, 35.27028], [-120.6524, 35.26877], [-120.65169, 35.26775], [-120.6498, 35.26642], [-120.64859, 35.26567], [-120.64755, 35.26492], [-120.64671, 35.26396], [-120.64595, 35.26302], [-120.64476, 35.26156], [-120.644, 35.2606], [-120.64295, 35.25931], [-120.64197, 35.25808], [-120.64076, 35.25659], [-120.63985, 35.25547], [-120.63875, 35.25411], [-120.63799, 35.25316], [-120.63665, 35.25151], [-120.63524, 35.24977], [-120.63435, 35.24871], [-120.63334, 35.2477], [-120.63214, 35.24669], [-120.62995, 35.245], [-120.62801, 35.24351], [-120.62566, 35.24166], [-120.62288, 35.23954], [-120.62115, 35.23819], [-120.62011, 35.23704], [-120.61935, 35.23563], [-120.61906, 35.2342], [-120.61922, 35.23262], [-120.61976, 35.23123], [-120.62035, 35.23003], [-120.62084, 35.228], [-120.62065, 35.22509], [-120.62046, 35.22301], [-120.62029, 35.22136], [-120.61883, 35.21737], [-120.61827, 35.21595], [-120.61776, 35.21452], [-120.61742, 35.21308], [-120.61694, 35.21011], [-120.61659, 35.20788], [-120.6158, 35.20315], [-120.61536, 35.20161], [-120.61485, 35.20061], [-120.61377, 35.19905], [-120.61299, 35.19792], [-120.61236, 35.19695], [-120.6109, 35.19482], [-120.61035, 35.19351], [-120.61054, 35.19139], [-120.61125, 35.18848], [-120.61178, 35.18709], [-120.61283, 35.18618], [-120.61454, 35.1856], [-120.61588, 35.18486], [-120.61667, 35.18387], [-120.61727, 35.1826], [-120.61738, 35.1811], [-120.61759, 35.17986], [-120.61822, 35.1786], [-120.61916, 35.17687], [-120.62044, 35.17446], [-120.62112, 35.17322], [-120.62243, 35.17076], [-120.62338, 35.16905], [-120.62405, 35.16806], [-120.62495, 35.16716], [-120.62602, 35.16643], [-120.62877, 35.16496], [-120.63074, 35.16394], [-120.6323, 35.16313], [-120.63316, 35.1622], [-120.63299, 35.161], [-120.63174, 35.15973], [-120.63114, 35.15856], [-120.63094, 35.15598], [-120.63087, 35.15484], [-120.63102, 35.15353], [-120.63249, 35.15151], [-120.63309, 35.15041], [-120.63324, 35.14887], [-120.63305, 35.14653], [-120.63281, 35.1437], [-120.63241, 35.13858], [-120.63181, 35.13114], [-120.63159, 35.12853], [-120.63137, 35.12677], [-120.63112, 35.12566], [-120.6301, 35.12343], [-120.62943, 35.12198], [-120.62561, 35.11375], [-120.62462, 35.11163], [-120.62343, 35.10891], [-120.62263, 35.10728], [-120.62143, 35.10546], [-120.62043, 35.10429], [-120.61896, 35.10289], [-120.61733, 35.10165], [-120.61385, 35.09916], [-120.60901, 35.09568], [-120.60739, 35.09451], [-120.60299, 35.09135], [-120.60068, 35.08968], [-120.59692, 35.08698], [-120.59492, 35.08546], [-120.59397, 35.08449], [-120.59322, 35.08345], [-120.59262, 35.08246], [-120.59205, 35.08099], [-120.59167, 35.07922], [-120.59168, 35.07782], [-120.59229, 35.07645], [-120.59319, 35.07565], [-120.59434, 35.075], [-120.59531, 35.07398], [-120.59579, 35.07271], [-120.59612, 35.07131], [-120.59702, 35.06985], [-120.5979, 35.0689], [-120.59827, 35.0674], [-120.5981, 35.06609], [-120.59769, 35.06314], [-120.59717, 35.05944], [-120.59684, 35.05681], [-120.59656, 35.05532], [-120.59633, 35.05377], [-120.59611, 35.05214], [-120.59596, 35.05105], [-120.59577, 35.04989], [-120.59553, 35.04799], [-120.59532, 35.04665], [-120.59505, 35.04459], [-120.59489, 35.04349], [-120.59469, 35.04201], [-120.59448, 35.04054], [-120.59428, 35.03906], [-120.5941, 35.03782], [-120.59392, 35.03646], [-120.59368, 35.03516], [-120.59317, 35.03349], [-120.5927, 35.03239], [-120.59158, 35.03038], [-120.59056, 35.02864], [-120.58912, 35.02632], [-120.58819, 35.02481], [-120.58716, 35.02312], [-120.58616, 35.02152], [-120.58536, 35.02021], [-120.5838, 35.01769], [-120.58281, 35.01609], [-120.58205, 35.01484], [-120.58133, 35.01371], [-120.57908, 35.01004], [-120.57759, 35.00764], [-120.57614, 35.00528], [-120.57554, 35.00431], [-120.57463, 35.00283], [-120.57342, 35.00084], [-120.57136, 34.99753], [-120.57068, 34.99643], [-120.56883, 34.99341], [-120.56739, 34.99105], [-120.56687, 34.99], [-120.56615, 34.98801], [-120.56584, 34.98649], [-120.5657, 34.98457], [-120.56587, 34.98261], [-120.56626, 34.98087], [-120.56664, 34.97958], [-120.56727, 34.97745], [-120.5677, 34.97598], [-120.56818, 34.97432], [-120.56878, 34.97288], [-120.56944, 34.97181], [-120.57016, 34.97067], [-120.57138, 34.96875], [-120.57201, 34.9677], [-120.5725, 34.96655], [-120.57276, 34.96542], [-120.57288, 34.96422], [-120.57298, 34.96307], [-120.57318, 34.96188], [-120.57347, 34.95756], [-120.57345, 34.95639], [-120.5732, 34.95515], [-120.57273, 34.95413], [-120.57188, 34.95312], [-120.57085, 34.9523], [-120.56951, 34.9513], [-120.56563, 34.94852], [-120.55998, 34.94448], [-120.55848, 34.9434], [-120.55666, 34.94211], [-120.54762, 34.93565], [-120.54622, 34.93465], [-120.54424, 34.93339], [-120.54273, 34.93248], [-120.53977, 34.9307], [-120.53868, 34.93004], [-120.53757, 34.92938], [-120.53602, 34.92846], [-120.53442, 34.92749], [-120.53312, 34.92695], [-120.53174, 34.92675], [-120.5296, 34.92702], [-120.52778, 34.9274], [-120.52494, 34.92806], [-120.52275, 34.92855], [-120.52125, 34.9289], [-120.51505, 34.93027], [-120.51231, 34.93088], [-120.50952, 34.93148], [-120.50794, 34.93184], [-120.50448, 34.9326], [-120.50117, 34.93333], [-120.49879, 34.93387], [-120.49616, 34.93445], [-120.49472, 34.93473], [-120.49335, 34.9349], [-120.49176, 34.935], [-120.48992, 34.935], [-120.48859, 34.93498], [-120.48723, 34.93497], [-120.48577, 34.93489], [-120.48424, 34.93475], [-120.48278, 34.93463], [-120.48146, 34.93459], [-120.4791, 34.93456], [-120.47613, 34.93452], [-120.47411, 34.9345], [-120.47277, 34.93454], [-120.47125, 34.93471], [-120.46971, 34.93505], [-120.4684, 34.93533], [-120.46564, 34.93591], [-120.46328, 34.93648], [-120.46203, 34.93692], [-120.46097, 34.93769], [-120.46021, 34.93875], [-120.45948, 34.94016], [-120.45895, 34.94122], [-120.45836, 34.94236], [-120.45777, 34.94354], [-120.45706, 34.94456], [-120.45606, 34.94534], [-120.45476, 34.94588], [-120.45333, 34.94607], [-120.45063, 34.94605], [-120.4491, 34.94604], [-120.44716, 34.94603], [-120.44481, 34.94601], [-120.44338, 34.94599], [-120.44156, 34.94596], [-120.4401, 34.94591], [-120.43827, 34.94589], [-120.43603, 34.94587], [-120.436, 34.95], [-120.436, 34.94841], [-120.43601, 34.9473], [-120.43603, 34.94588], [-120.43605, 34.9445], [-120.43607, 34.94318], [-120.43606, 34.94173], [-120.43607, 34.94042], [-120.43609, 34.93926], [-120.43611, 34.93761], [-120.43612, 34.93538], [-120.43612, 34.93424], [-120.43612, 34.93205], [-120.43612, 34.93066], [-120.43612, 34.9294], [-120.43612, 34.92793], [-120.43612, 34.9267], [-120.43613, 34.92524], [-120.43613, 34.9241], [-120.43613, 34.92289], [-120.43593, 34.92113], [-120.43458, 34.92104], [-120.43318, 34.92165], [-120.43137, 34.92236], [-120.4299, 34.92303], [-120.42857, 34.92341], [-120.42688, 34.9236], [-120.42547, 34.92361], [-120.42407, 34.92359], [-120.42226, 34.92357], [-120.41983, 34.92356], [-120.41865, 34.92302], [-120.41813, 34.92181], [-120.4181, 34.9196], [-120.41818, 34.91254], [-120.4182, 34.91104], [-120.41821, 34.90963], [-120.41822, 34.9071], [-120.4182, 34.90542], [-120.41822, 34.90379], [-120.41823, 34.90182], [-120.41824, 34.90058], [-120.41829, 34.89909], [-120.41827, 34.89719], [-120.41829, 34.89542], [-120.41831, 34.89368], [-120.41807, 34.89209], [-120.41772, 34.89095], [-120.41713, 34.88969], [-120.41639, 34.88854], [-120.41548, 34.88744], [-120.41338, 34.885], [-120.41146, 34.88278], [-120.41024, 34.8814], [-120.40858, 34.87947], [-120.40649, 34.87703], [-120.40484, 34.87515], [-120.40357, 34.87369], [-120.40197, 34.87185], [-120.40028, 34.86989], [-120.39854, 34.86789], [-120.39596, 34.86491], [-120.39495, 34.86374], [-120.39398, 34.86262], [-120.39162, 34.8599], [-120.38996, 34.85798], [-120.38835, 34.85612], [-120.38684, 34.85437], [-120.38517, 34.85245], [-120.38357, 34.8506], [-120.38232, 34.84916], [-120.38039, 34.84692], [-120.37955, 34.84596], [-120.37862, 34.84491], [-120.37666, 34.84278], [-120.37491, 34.84086], [-120.37323, 34.83902], [-120.37156, 34.83719], [-120.36993, 34.83542], [-120.36819, 34.83351], [-120.36654, 34.8317], [-120.3656, 34.83071], [-120.36471, 34.82985], [-120.36375, 34.829], [-120.3615, 34.82711], [-120.35909, 34.82509], [-120.35814, 34.8243], [-120.35685, 34.82321], [-120.35581, 34.82234], [-120.35478, 34.82148], [-120.35267, 34.8197], [-120.35061, 34.81798], [-120.3494, 34.81694], [-120.34849, 34.816], [-120.34762, 34.81487], [-120.34677, 34.81329], [-120.34632, 34.81214], [-120.34585, 34.81087], [-120.34539, 34.80963], [-120.34491, 34.80833], [-120.34435, 34.80681], [-120.34372, 34.80511], [-120.3431, 34.80345], [-120.3425, 34.80182], [-120.34194, 34.8005], [-120.34103, 34.79897], [-120.33986, 34.79749], [-120.33836, 34.79579], [-120.33725, 34.79454], [-120.33638, 34.79371], [-120.3353, 34.79288], [-120.3342, 34.7922], [-120.33305, 34.79158], [-120.33095, 34.79048], [-120.32981, 34.78987], [-120.32754, 34.78867], [-120.32627, 34.788], [-120.32398, 34.78678], [-120.32276, 34.78614], [-120.32162, 34.78553], [-120.32024, 34.78475], [-120.31914, 34.78402], [-120.31811, 34.78323], [-120.31699, 34.78224], [-120.31605, 34.78125], [-120.3151, 34.78013], [-120.31385, 34.7786], [-120.31278, 34.7773], [-120.3115, 34.77575], [-120.31022, 34.77418], [-120.30897, 34.77267], [-120.30761, 34.77101], [-120.30644, 34.76958], [-120.30555, 34.7685], [-120.30465, 34.76741], [-120.3034, 34.76587], [-120.3023, 34.76443], [-120.30146, 34.76332], [-120.30044, 34.76197], [-120.29934, 34.76053], [-120.29852, 34.75956], [-120.29734, 34.75847], [-120.29602, 34.75756], [-120.29448, 34.75671], [-120.29231, 34.75554], [-120.28992, 34.75425], [-120.28873, 34.75361], [-120.28659, 34.75245], [-120.28459, 34.75138], [-120.28231, 34.75015], [-120.28072, 34.74928], [-120.27934, 34.7484], [-120.27799, 34.74745], [-120.27654, 34.74644], [-120.27476, 34.74518], [-120.27289, 34.74388], [-120.27156, 34.74295], [-120.26975, 34.74168], [-120.26805, 34.74049], [-120.26683, 34.73963], [-120.26568, 34.73891], [-120.26431, 34.73824], [-120.26261, 34.73766], [-120.2606, 34.73728], [-120.25834, 34.73698], [-120.25625, 34.73667], [-120.25432, 34.73641], [-120.24658, 34.73533], [-120.24528, 34.73509], [-120.244, 34.7347], [-120.24113, 34.73349], [-120.23698, 34.73169], [-120.23376, 34.73031], [-120.22758, 34.72765], [-120.22576, 34.72702], [-120.22397, 34.72652], [-120.22136, 34.72579], [-120.21812, 34.72487], [-120.21624, 34.72435], [-120.21412, 34.72373], [-120.21267, 34.72327], [-120.21117, 34.72266], [-120.20938, 34.72174], [-120.20774, 34.7207], [-120.20666, 34.71997], [-120.20509, 34.7191], [-120.20377, 34.71862], [-120.20188, 34.71819], [-120.19898, 34.71762], [-120.19718, 34.71714], [-120.195, 34.7165], [-120.19236, 34.71571], [-120.1911, 34.71528], [-120.1899, 34.71475], [-120.18821, 34.7138], [-120.18642, 34.71271], [-120.18516, 34.71202], [-120.18378, 34.71143], [-120.18132, 34.71074], [-120.1794, 34.71027], [-120.17709, 34.70967], [-120.17535, 34.70907], [-120.17401, 34.7084], [-120.17285, 34.70764], [-120.17191, 34.70685], [-120.17083, 34.70571], [-120.16991, 34.70429], [-120.16902, 34.70269], [-120.16815, 34.70146], [-120.16727, 34.70062], [-120.16532, 34.69898], [-120.1641, 34.69795], [-120.16329, 34.69706], [-120.16243, 34.69559], [-120.16115, 34.69411], [-120.16021, 34.69311], [-120.15961, 34.69208], [-120.15899, 34.69059], [-120.15856, 34.68956], [-120.15798, 34.6882], [-120.1575, 34.68705], [-120.15701, 34.68583], [-120.15678, 34.68461], [-120.1568, 34.68344], [-120.15704, 34.68199], [-120.15723, 34.68081], [-120.1575, 34.67923], [-120.15779, 34.67742], [-120.15828, 34.67588], [-120.15904, 34.67466], [-120.16058, 34.67301], [-120.16154, 34.67202], [-120.16269, 34.67106], [-120.16408, 34.67028], [-120.16542, 34.66985], [-120.16737, 34.66961], [-120.16867, 34.66936], [-120.17007, 34.66881], [-120.17194, 34.6675], [-120.17311, 34.66659], [-120.17423, 34.66571], [-120.17537, 34.66471], [-120.17643, 34.66362], [-120.17716, 34.66269], [-120.17799, 34.66151], [-120.17874, 34.66042], [-120.17953, 34.65925], [-120.18117, 34.65685], [-120.18195, 34.65553], [-120.18242, 34.65442], [-120.1829, 34.65284], [-120.18336, 34.651], [-120.18404, 34.6484], [-120.18482, 34.64539], [-120.18519, 34.64379], [-120.18553, 34.64219], [-120.18565, 34.64099], [-120.18567, 34.63981], [-120.18571, 34.63851], [-120.18582, 34.63709], [-120.18611, 34.63592], [-120.18719, 34.63344], [-120.18761, 34.63232], [-120.188, 34.6304], [-120.18833, 34.62834], [-120.1893, 34.62267], [-120.18944, 34.62087], [-120.18942, 34.6175], [-120.18951, 34.61626], [-120.18986, 34.61459], [-120.19022, 34.61344], [-120.19077, 34.61237], [-120.19238, 34.61301], [-120.19109, 34.6125], [-120.19067, 34.61128], [-120.19071, 34.60989], [-120.191, 34.60808], [-120.19132, 34.60617], [-120.19159, 34.60491], [-120.19213, 34.60196], [-120.19257, 34.60042], [-120.19297, 34.59888], [-120.19368, 34.59709], [-120.1943, 34.59548], [-120.19451, 34.59441], [-120.19441, 34.59296], [-120.19388, 34.5918], [-120.19312, 34.59085], [-120.19225, 34.5898], [-120.19153, 34.5887], [-120.19133, 34.58733], [-120.19171, 34.58606], [-120.19268, 34.58478], [-120.19347, 34.58374], [-120.19393, 34.58251], [-120.19384, 34.5813], [-120.19362, 34.57997], [-120.19368, 34.57864], [-120.19395, 34.57715], [-120.1938, 34.5745], [-120.19365, 34.57326], [-120.19321, 34.57208], [-120.1923, 34.57098], [-120.19133, 34.57], [-120.19043, 34.568], [-120.19001, 34.5666], [-120.18987, 34.56418], [-120.18993, 34.56308], [-120.19036, 34.56193], [-120.19143, 34.56026], [-120.19208, 34.55897], [-120.19234, 34.55773], [-120.19229, 34.55656], [-120.19188, 34.55517], [-120.1916, 34.554], [-120.19151, 34.55197], [-120.19184, 34.54987], [-120.19224, 34.54866], [-120.19278, 34.54732], [-120.19325, 34.5463], [-120.19407, 34.54513], [-120.19545, 34.54364], [-120.19618, 34.54257], [-120.19668, 34.54135], [-120.1971, 34.54004], [-120.19724, 34.53853], [-120.19692, 34.5346], [-120.19676, 34.53299], [-120.19662, 34.53162], [-120.19652, 34.53046], [-120.19674, 34.52936], [-120.19724, 34.52806], [-120.19803, 34.52686], [-120.19909, 34.52582], [-120.20052, 34.52493], [-120.20223, 34.52424], [-120.20376, 34.52376], [-120.20518, 34.52361], [-120.20682, 34.52376], [-120.20847, 34.52367], [-120.20991, 34.52331], [-120.2112, 34.52259], [-120.21254, 34.52103], [-120.21354, 34.52008], [-120.21525, 34.51924], [-120.21659, 34.51848], [-120.21743, 34.51755], [-120.21831, 34.51604], [-120.21907, 34.51502], [-120.22014, 34.51413], [-120.22112, 34.51338], [-120.22221, 34.51255], [-120.22307, 34.51171], [-120.22419, 34.51041], [-120.2252, 34.50907], [-120.22599, 34.50736], [-120.22611, 34.50616], [-120.2262, 34.50505], [-120.22655, 34.50377], [-120.22704, 34.50271], [-120.22803, 34.50158], [-120.22894, 34.50066], [-120.23004, 34.49959], [-120.23073, 34.49845], [-120.23089, 34.49716], [-120.23063, 34.49606], [-120.22993, 34.49495], [-120.22862, 34.49415], [-120.22738, 34.49358], [-120.22642, 34.49271], [-120.22599, 34.49145], [-120.22593, 34.49023], [-120.22586, 34.48891], [-120.22646, 34.48762], [-120.22733, 34.48675], [-120.22864, 34.48559], [-120.22962, 34.48469], [-120.23029, 34.48338], [-120.23029, 34.48218], [-120.22978, 34.48089], [-120.22927, 34.47977], [-120.22853, 34.47816], [-120.2279, 34.4768], [-120.2274, 34.47579], [-120.22662, 34.47487], [-120.22555, 34.47412], [-120.22425, 34.47361], [-120.22285, 34.47341], [-120.22112, 34.47342], [-120.21955, 34.47343], [-120.21781, 34.47345], [-120.21603, 34.47347], [-120.21443, 34.47348], [-120.21304, 34.47349], [-120.20991, 34.47353], [-120.20754, 34.47354], [-120.20516, 34.47356], [-120.20277, 34.47359], [-120.20084, 34.47358], [-120.19931, 34.47347], [-120.19736, 34.4732], [-120.19512, 34.47285], [-120.19214, 34.47237], [-120.18916, 34.47191], [-120.18754, 34.47174], [-120.18605, 34.4717], [-120.18367, 34.4717], [-120.18129, 34.47169], [-120.17864, 34.47168], [-120.176, 34.47168], [-120.17446, 34.47171], [-120.17083, 34.47192], [-120.16902, 34.47203], [-120.1672, 34.47213], [-120.16539, 34.47224], [-120.16409, 34.47238], [-120.16105, 34.47292], [-120.15875, 34.47334], [-120.15646, 34.47376], [-120.15416, 34.47418], [-120.15254, 34.47433], [-120.15101, 34.47436], [-120.14682, 34.4744], [-120.14513, 34.47448], [-120.14218, 34.47472], [-120.14087, 34.47474], [-120.13933, 34.47464], [-120.13674, 34.47441], [-120.1349, 34.47418], [-120.1299, 34.47322], [-120.12813, 34.47297], [-120.12636, 34.47279], [-120.12486, 34.47271], [-120.12097, 34.47262], [-120.11907, 34.47245], [-120.11769, 34.47205], [-120.1163, 34.47142], [-120.11443, 34.47033], [-120.11071, 34.46858], [-120.10893, 34.46787], [-120.10707, 34.4672], [-120.10522, 34.46654], [-120.10338, 34.46584], [-120.10099, 34.46501], [-120.09899, 34.46428], [-120.09752, 34.46375], [-120.0952, 34.46291], [-120.09362, 34.46233], [-120.0922, 34.46194], [-120.09005, 34.46166], [-120.0881, 34.46167], [-120.08462, 34.4618], [-120.0833, 34.46179], [-120.08149, 34.46171], [-120.0801, 34.46178], [-120.07856, 34.46209], [-120.07694, 34.46269], [-120.07514, 34.46379], [-120.07345, 34.46478], [-120.07225, 34.46524], [-120.07069, 34.4656], [-120.06911, 34.46572], [-120.06746, 34.46562], [-120.06584, 34.46525], [-120.06363, 34.4643], [-120.06237, 34.46369], [-120.06083, 34.46313], [-120.05942, 34.46277], [-120.0577, 34.46254], [-120.05614, 34.46248], [-120.05469, 34.46256], [-120.05254, 34.46282], [-120.05092, 34.46302], [-120.04665, 34.46355], [-120.04418, 34.46386], [-120.04087, 34.46427], [-120.03909, 34.46446], [-120.03728, 34.46446], [-120.0356, 34.46432], [-120.03203, 34.464], [-120.02974, 34.46378], [-120.0281, 34.46365], [-120.02504, 34.46362], [-120.02346, 34.4636], [-120.02161, 34.46342], [-120.0184, 34.46286], [-120.01527, 34.46248], [-120.01227, 34.46213], [-120.01079, 34.46196], [-120.00851, 34.4617], [-120.00633, 34.46143], [-120.00407, 34.4611], [-120.00061, 34.46053], [-119.99858, 34.4602], [-119.99674, 34.4599], [-119.99488, 34.45959], [-119.99288, 34.45927], [-119.99125, 34.45901], [-119.98847, 34.45858], [-119.98682, 34.45835], [-119.98361, 34.45788], [-119.98179, 34.45763], [-119.9775, 34.45701], [-119.97579, 34.45678], [-119.97408, 34.4565], [-119.97235, 34.45609], [-119.97069, 34.45553], [-119.96951, 34.45502], [-119.96839, 34.45443], [-119.96685, 34.45343], [-119.96396, 34.45123], [-119.96279, 34.45033], [-119.95983, 34.44807], [-119.95856, 34.4471], [-119.95673, 34.44568], [-119.95527, 34.44464], [-119.95385, 34.44387], [-119.95252, 34.44327], [-119.951, 34.44276], [-119.94962, 34.44238], [-119.94558, 34.44143], [-119.94396, 34.44104], [-119.94117, 34.44038], [-119.93927, 34.43995], [-119.93763, 34.43969], [-119.93325, 34.43922], [-119.93061, 34.43893], [-119.92911, 34.43877], [-119.92761, 34.43854], [-119.92608, 34.43819], [-119.92416, 34.43755], [-119.92284, 34.43708], [-119.92069, 34.4363], [-119.91938, 34.43582], [-119.91787, 34.43526], [-119.91656, 34.43478], [-119.91491, 34.43418], [-119.91326, 34.43357], [-119.91202, 34.43314], [-119.91065, 34.43281], [-119.90923, 34.43265], [-119.90792, 34.43254], [-119.90657, 34.43245], [-119.90049, 34.43246], [-119.89808, 34.43247], [-119.89633, 34.43248], [-119.8927, 34.43253], [-119.89086, 34.43253], [-119.88812, 34.43254], [-119.88244, 34.43259], [-119.88038, 34.43261], [-119.87776, 34.43281], [-119.87642, 34.43299], [-119.87494, 34.43332], [-119.87233, 34.43416], [-119.87107, 34.4345], [-119.86973, 34.43475], [-119.86721, 34.43506], [-119.86482, 34.43549], [-119.86143, 34.43623], [-119.85823, 34.43684], [-119.85652, 34.43715], [-119.85418, 34.43758], [-119.85282, 34.43778], [-119.85094, 34.43788], [-119.84919, 34.43792], [-119.84752, 34.43804], [-119.84492, 34.43836], [-119.84274, 34.43863], [-119.84098, 34.43883], [-119.83871, 34.43904], [-119.83732, 34.43916], [-119.83517, 34.43936], [-119.83377, 34.43948], [-119.83148, 34.43968], [-119.82925, 34.43988], [-119.82747, 34.44005], [-119.82504, 34.44026], [-119.82212, 34.44053], [-119.82042, 34.44069], [-119.81684, 34.44102], [-119.81521, 34.44126], [-119.81393, 34.44151], [-119.81228, 34.44224], [-119.80942, 34.44242], [-119.81093, 34.44228], [-119.81219, 34.44198], [-119.81334, 34.44114], [-119.81474, 34.43942], [-119.81786, 34.43553], [-119.82089, 34.43179], [-119.82876, 34.42202], [-119.82996, 34.42075], [-119.83105, 34.42002], [-119.83291, 34.41952], [-119.83424, 34.41927], [-119.845, 34.424], [-119.84677, 34.43737], [-119.84546, 34.43757], [-119.84292, 34.43782], [-119.83733, 34.43838], [-119.83308, 34.4388], [-119.83069, 34.43904], [-119.82908, 34.4392], [-119.82679, 34.43943], [-119.82294, 34.43981], [-119.82118, 34.43998], [-119.81978, 34.44012], [-119.81809, 34.4403], [-119.81653, 34.44044], [-119.81413, 34.44068], [-119.81261, 34.44083], [-119.81052, 34.44096], [-119.80879, 34.441], [-119.80659, 34.44107], [-119.80521, 34.44111], [-119.80382, 34.44115], [-119.79737, 34.44133], [-119.79522, 34.44137], [-119.79337, 34.44143], [-119.7919, 34.44147], [-119.78962, 34.44153], [-119.78576, 34.44164], [-119.78323, 34.4417], [-119.77915, 34.44182], [-119.7775, 34.44179], [-119.77598, 34.44165], [-119.77252, 34.44104], [-119.76971, 34.44048], [-119.76617, 34.43978], [-119.76151, 34.43887], [-119.75878, 34.43833], [-119.75739, 34.43806], [-119.75592, 34.43773], [-119.75464, 34.43734], [-119.75335, 34.43684], [-119.75185, 34.43607], [-119.75076, 34.43538], [-119.74941, 34.43432], [-119.74843, 34.43345], [-119.74712, 34.43243], [-119.74459, 34.4309], [-119.74328, 34.43012], [-119.7418, 34.42939], [-119.74028, 34.42878], [-119.7389, 34.42833], [-119.73722, 34.42793], [-119.73573, 34.42768], [-119.73399, 34.42746], [-119.72896, 34.42679], [-119.72726, 34.42653], [-119.7258, 34.42631], [-119.72437, 34.42603], [-119.72294, 34.42564], [-119.7215, 34.42513], [-119.72005, 34.42449], [-119.71867, 34.42374], [-119.71719, 34.42276], [-119.71358, 34.42013], [-119.70917, 34.4169], [-119.70804, 34.41607], [-119.70519, 34.41399], [-119.7, 34.42]]}, "properties": {"ftype": "line", "id": "rx-centralcoast", "name": "RX Central Coast (San Jose\u2013Santa Barbara)", "tier": 2, "headway": "30 min"}}, {"type": "Feature", "geometry": {"type": "LineString", "coordinates": [[-121.655, 36.678], [-121.65645, 36.67775], [-121.65773, 36.67818], [-121.65903, 36.67871], [-121.66061, 36.67929], [-121.66218, 36.67987], [-121.66352, 36.68039], [-121.66588, 36.68133], [-121.66777, 36.68206], [-121.67028, 36.68304], [-121.67248, 36.68389], [-121.67439, 36.68461], [-121.67608, 36.68506], [-121.6777, 36.6853], [-121.67936, 36.68555], [-121.68116, 36.68606], [-121.68253, 36.68669], [-121.68534, 36.68875], [-121.68656, 36.6895], [-121.68785, 36.69011], [-121.68914, 36.69059], [-121.69091, 36.69126], [-121.69267, 36.69205], [-121.69439, 36.6929], [-121.69557, 36.69352], [-121.69736, 36.6945], [-121.69865, 36.69529], [-121.70019, 36.69643], [-121.70133, 36.69742], [-121.70332, 36.69929], [-121.70433, 36.70034], [-121.70631, 36.70236], [-121.70736, 36.70344], [-121.70844, 36.70457], [-121.71052, 36.70669], [-121.71368, 36.70996], [-121.71464, 36.71098], [-121.71565, 36.71195], [-121.71661, 36.71281], [-121.71801, 36.7141], [-121.71917, 36.71533], [-121.72067, 36.71689], [-121.72167, 36.71807], [-121.72243, 36.71897], [-121.72541, 36.72204], [-121.7287, 36.72543], [-121.73286, 36.72971], [-121.73402, 36.73099], [-121.73493, 36.73213], [-121.73577, 36.73334], [-121.73653, 36.73461], [-121.7371, 36.73569], [-121.73816, 36.7383], [-121.73856, 36.73957], [-121.73891, 36.74066], [-121.73976, 36.74349], [-121.74026, 36.74502], [-121.74081, 36.74682], [-121.74118, 36.74805], [-121.74169, 36.7497], [-121.74224, 36.75147], [-121.74262, 36.75274], [-121.74317, 36.75416], [-121.74398, 36.75522], [-121.74503, 36.7561], [-121.74636, 36.75711], [-121.74764, 36.75805], [-121.74869, 36.75882], [-121.74992, 36.75973], [-121.75104, 36.76055], [-121.75245, 36.76078], [-121.75385, 36.76011], [-121.75516, 36.75951], [-121.75665, 36.75868], [-121.75794, 36.75789], [-121.75964, 36.75669], [-121.76181, 36.75514], [-121.76299, 36.75426], [-121.76408, 36.75331], [-121.76592, 36.7515], [-121.76709, 36.75034], [-121.7681, 36.74942], [-121.76898, 36.7484], [-121.76973, 36.7475], [-121.77062, 36.74643], [-121.77204, 36.74453], [-121.7732, 36.74295], [-121.77393, 36.74194], [-121.77483, 36.74071], [-121.77622, 36.73881], [-121.77744, 36.73713], [-121.77831, 36.73604], [-121.7793, 36.73501], [-121.78154, 36.73292], [-121.78326, 36.73132], [-121.78469, 36.72999], [-121.78637, 36.72842], [-121.78743, 36.72743], [-121.78841, 36.72641], [-121.79014, 36.72422], [-121.79098, 36.7231], [-121.79173, 36.72193], [-121.79239, 36.72075], [-121.79296, 36.71953], [-121.79473, 36.71481], [-121.79524, 36.71356], [-121.79572, 36.71254], [-121.79636, 36.71133], [-121.7996, 36.70563], [-121.80089, 36.70337], [-121.80175, 36.70186], [-121.80263, 36.70033], [-121.80321, 36.69907], [-121.80361, 36.69795], [-121.80381, 36.69676], [-121.80283, 36.6959], [-121.80177, 36.69492], [-121.80231, 36.69384], [-121.80245, 36.69275], [-121.80269, 36.69139], [-121.80264, 36.69023], [-121.80206, 36.68915], [-121.80024, 36.68799], [-121.80037, 36.68676], [-121.80149, 36.68557], [-121.80275, 36.68424], [-121.8038, 36.68314], [-121.8, 36.68], [-121.80428, 36.68262], [-121.80513, 36.68173], [-121.80606, 36.68056], [-121.80654, 36.67953], [-121.8075, 36.67871], [-121.80816, 36.67773], [-121.80871, 36.67627], [-121.80918, 36.67521], [-121.81003, 36.67409], [-121.81085, 36.6732], [-121.81159, 36.67218], [-121.81385, 36.66831], [-121.81477, 36.66672], [-121.81541, 36.66553], [-121.81589, 36.66427], [-121.81627, 36.663], [-121.8165, 36.6617], [-121.81665, 36.65975], [-121.81679, 36.65805], [-121.81682, 36.65674], [-121.81669, 36.65551], [-121.81638, 36.65423], [-121.81591, 36.65297], [-121.8154, 36.65183], [-121.81501, 36.65069], [-121.81494, 36.64951], [-121.81518, 36.64836], [-121.81576, 36.64723], [-121.81655, 36.64631], [-121.81763, 36.64551], [-121.81889, 36.64492], [-121.82023, 36.64445], [-121.8217, 36.64389], [-121.8231, 36.64325], [-121.82445, 36.64249], [-121.82572, 36.64166], [-121.82689, 36.64076], [-121.82798, 36.63978], [-121.82897, 36.63874], [-121.83163, 36.6356], [-121.83257, 36.63452], [-121.83414, 36.63285], [-121.83512, 36.6318], [-121.83611, 36.63076], [-121.83701, 36.62981], [-121.83783, 36.62889], [-121.83854, 36.62786], [-121.83934, 36.62656], [-121.84009, 36.62555], [-121.84114, 36.62469], [-121.8433, 36.62374], [-121.84456, 36.62315], [-121.84562, 36.62235], [-121.8464, 36.62135], [-121.84704, 36.62032], [-121.8477, 36.61934], [-121.84869, 36.61813], [-121.85015, 36.6164], [-121.85104, 36.61546], [-121.85229, 36.61443], [-121.85333, 36.61358], [-121.85468, 36.61248], [-121.85576, 36.61166], [-121.85765, 36.61047], [-121.85884, 36.60977], [-121.85988, 36.60892], [-121.86065, 36.60789], [-121.86122, 36.60656], [-121.86139, 36.60525], [-121.86207, 36.60425], [-121.86349, 36.60356], [-121.86509, 36.60279], [-121.86646, 36.60217], [-121.86828, 36.60132], [-121.86957, 36.60076], [-121.87102, 36.60061], [-121.87254, 36.60048], [-121.87404, 36.60019], [-121.87544, 36.59985], [-121.87877, 36.59984], [-121.88015, 36.59987], [-121.88166, 36.59991], [-121.883, 36.59993], [-121.88441, 36.59995], [-121.88601, 36.59996], [-121.88757, 36.60002], [-121.88991, 36.60039], [-121.89167, 36.60068], [-121.89309, 36.60171], [-121.895, 36.6]]}, "properties": {"ftype": "line", "id": "rx-monterey", "name": "RX Monterey (Salinas\u2013Monterey)", "tier": 2, "headway": "15 min"}}, {"type": "Feature", "geometry": {"type": "LineString", "coordinates": [[-121.9026, 37.3297], [-121.9011, 37.32985], [-121.90099, 37.32834], [-121.90088, 37.32715], [-121.90086, 37.32592], [-121.90071, 37.32484], [-121.90195, 37.32414], [-121.90345, 37.32404], [-121.90509, 37.32372], [-121.9071, 37.32363], [-121.90858, 37.32357], [-121.91024, 37.32349], [-121.91174, 37.32345], [-121.91362, 37.32345], [-121.9155, 37.32343], [-121.91694, 37.32342], [-121.91857, 37.3234], [-121.92054, 37.3234], [-121.92232, 37.32339], [-121.92381, 37.32338], [-121.92593, 37.32336], [-121.92765, 37.32336], [-121.92936, 37.32335], [-121.93108, 37.32334], [-121.93181, 37.32218], [-121.9318, 37.32106], [-121.93179, 37.31987], [-121.93177, 37.31825], [-121.93186, 37.31664], [-121.93177, 37.31553], [-121.93176, 37.31421], [-121.93182, 37.31302], [-121.93181, 37.3118], [-121.93189, 37.31051], [-121.9318, 37.30933], [-121.93178, 37.30812], [-121.93177, 37.30685], [-121.93167, 37.30535], [-121.93174, 37.30422], [-121.93173, 37.30296], [-121.93181, 37.30163], [-121.93181, 37.30042], [-121.93178, 37.29932], [-121.93177, 37.29819], [-121.93179, 37.29705], [-121.93179, 37.29556], [-121.93204, 37.29446], [-121.93363, 37.29439], [-121.935, 37.29437], [-121.93605, 37.2936], [-121.93711, 37.2928], [-121.93692, 37.29172], [-121.9365, 37.29061], [-121.93629, 37.28928], [-121.93644, 37.28794], [-121.93694, 37.28666], [-121.93762, 37.28565], [-121.93867, 37.2846], [-121.94284, 37.28139], [-121.94399, 37.28034], [-121.9449, 37.27916], [-121.94551, 37.27797], [-121.94605, 37.27599], [-121.94633, 37.27484], [-121.94691, 37.27238], [-121.9472, 37.27118], [-121.94775, 37.26882], [-121.94806, 37.26771], [-121.94868, 37.26608], [-121.94932, 37.26474], [-121.95016, 37.26331], [-121.95321, 37.25917], [-121.95479, 37.25701], [-121.95623, 37.25513], [-121.95689, 37.25413], [-121.95745, 37.2531], [-121.95819, 37.25172], [-121.95898, 37.25023], [-121.95963, 37.249], [-121.96076, 37.24692], [-121.96157, 37.24577], [-121.96249, 37.24484], [-121.9649, 37.24267], [-121.96614, 37.24154], [-121.96737, 37.24028], [-121.96839, 37.23894], [-121.96909, 37.23777], [-121.96989, 37.23614], [-121.97103, 37.23383], [-121.97162, 37.23262], [-121.97326, 37.22928], [-121.9738, 37.22819], [-121.97448, 37.22715], [-121.97534, 37.22619], [-121.97635, 37.22534], [-121.9794, 37.22334], [-121.9806, 37.2225], [-121.98229, 37.22117], [-121.98341, 37.2204], [-121.98476, 37.21965], [-121.98599, 37.21898], [-121.98716, 37.21824], [-121.98805, 37.21737], [-121.98841, 37.21629], [-121.988, 37.21488], [-121.98771, 37.21373], [-121.98803, 37.21265], [-121.98905, 37.21171], [-121.98982, 37.21077], [-121.9898, 37.20967], [-121.98955, 37.20851], [-121.98983, 37.20736], [-121.99108, 37.20578], [-121.99175, 37.20472], [-121.99198, 37.20341], [-121.99218, 37.20198], [-121.9924, 37.2007], [-121.99279, 37.19892], [-121.99305, 37.19778], [-121.99335, 37.19649], [-121.99364, 37.1952], [-121.99395, 37.19376], [-121.99403, 37.19258], [-121.99364, 37.19144], [-121.99287, 37.19026], [-121.99209, 37.18911], [-121.99143, 37.18804], [-121.99112, 37.18689], [-121.99125, 37.18571], [-121.99174, 37.1846], [-121.99243, 37.18338], [-121.99306, 37.18229], [-121.99406, 37.18049], [-121.99522, 37.17845], [-121.99585, 37.17736], [-121.99607, 37.1762], [-121.99545, 37.17513], [-121.99395, 37.17408], [-121.99216, 37.17288], [-121.99111, 37.17206], [-121.99024, 37.17109], [-121.98958, 37.17002], [-121.98915, 37.1689], [-121.98883, 37.1676], [-121.98828, 37.1665], [-121.98821, 37.1654], [-121.9892, 37.16457], [-121.99061, 37.16416], [-121.99129, 37.1631], [-121.99064, 37.16202], [-121.98921, 37.16182], [-121.98793, 37.16222], [-121.98648, 37.1622], [-121.98542, 37.16147], [-121.98465, 37.16045], [-121.98366, 37.15959], [-121.9826, 37.15887], [-121.98205, 37.15778], [-121.98235, 37.15665], [-121.98344, 37.15583], [-121.98476, 37.15529], [-121.9855, 37.1543], [-121.98496, 37.1528], [-121.98476, 37.15164], [-121.98519, 37.15051], [-121.98685, 37.14902], [-121.98775, 37.14809], [-121.9876, 37.14695], [-121.98647, 37.14628], [-121.98518, 37.1458], [-121.98458, 37.14481], [-121.98506, 37.14276], [-121.98516, 37.1416], [-121.98433, 37.13949], [-121.98417, 37.13831], [-121.98437, 37.13714], [-121.98413, 37.13598], [-121.98266, 37.13442], [-121.98158, 37.13344], [-121.98065, 37.13259], [-121.97961, 37.13153], [-121.97869, 37.13055], [-121.97757, 37.12941], [-121.9764, 37.12824], [-121.97554, 37.1274], [-121.97443, 37.12665], [-121.97351, 37.12572], [-121.97298, 37.12391], [-121.97299, 37.12276], [-121.97393, 37.12191], [-121.97526, 37.12139], [-121.97607, 37.12041], [-121.97585, 37.1193], [-121.97519, 37.11829], [-121.97564, 37.11708], [-121.97579, 37.11595], [-121.97494, 37.11493], [-121.97463, 37.11387], [-121.97567, 37.11257], [-121.97625, 37.11148], [-121.97713, 37.10856], [-121.97703, 37.10739], [-121.97561, 37.1063], [-121.97487, 37.10533], [-121.97533, 37.10426], [-121.97652, 37.10357], [-121.97744, 37.10264], [-121.9776, 37.10148], [-121.97668, 37.09997], [-121.97583, 37.09893], [-121.9752, 37.0979], [-121.97544, 37.0968], [-121.97678, 37.09522], [-121.97785, 37.09395], [-121.97851, 37.09293], [-121.97857, 37.09174], [-121.9779, 37.09054], [-121.97759, 37.08941], [-121.97815, 37.08835], [-121.97887, 37.08731], [-121.97892, 37.08613], [-121.97826, 37.08507], [-121.97734, 37.08398], [-121.97676, 37.0829], [-121.97679, 37.08174], [-121.97745, 37.0807], [-121.97881, 37.07958], [-121.97988, 37.07872], [-121.98096, 37.0779], [-121.98219, 37.07726], [-121.98357, 37.07687], [-121.98503, 37.07666], [-121.98641, 37.07623], [-121.98747, 37.07552], [-121.9884, 37.07462], [-121.98931, 37.07368], [-121.99101, 37.07185], [-121.99187, 37.07097], [-121.99294, 37.07], [-121.99408, 37.06906], [-121.99528, 37.06817], [-121.99655, 37.06735], [-121.99784, 37.06658], [-121.99912, 37.06584], [-122.00048, 37.0652], [-122.0017, 37.0646], [-122.00275, 37.06382], [-122.00353, 37.06287], [-122.00435, 37.06134], [-122.00502, 37.06005], [-122.00636, 37.0576], [-122.00716, 37.05607], [-122.00803, 37.05443], [-122.00862, 37.05338], [-122.01181, 37.04898], [-122.01392, 37.04613], [-122.01465, 37.04502], [-122.01763, 37.03842], [-122.0183, 37.03741], [-122.01934, 37.03665], [-122.02055, 37.03603], [-122.02154, 37.03521], [-122.02214, 37.03417], [-122.02251, 37.0323], [-122.02287, 37.03028], [-122.02316, 37.02915], [-122.02389, 37.02817], [-122.02521, 37.0269], [-122.02611, 37.02601], [-122.02672, 37.02498], [-122.02682, 37.02384], [-122.02669, 37.02257], [-122.02677, 37.02143], [-122.02726, 37.02021], [-122.02763, 37.01911], [-122.02749, 37.01798], [-122.02649, 37.01669], [-122.02503, 37.01472], [-122.02434, 37.01372], [-122.02354, 37.01277], [-122.02293, 37.01173], [-122.02196, 37.00957], [-122.02148, 37.00854], [-122.02104, 37.0074], [-122.02078, 37.00628], [-122.02063, 37.005], [-122.02048, 37.00374], [-122.02056, 37.00259], [-122.02093, 37.00145], [-122.02111, 37.00026], [-122.02099, 36.99909], [-122.02081, 36.99796], [-122.01995, 36.99652], [-122.01932, 36.99553], [-122.01897, 36.99437], [-122.01917, 36.9932], [-122.01987, 36.99215], [-122.0208, 36.99104], [-122.02168, 36.98993], [-122.02275, 36.98847], [-122.02337, 36.98742], [-122.0236, 36.98626], [-122.02333, 36.98515], [-122.02298, 36.98409], [-122.02252, 36.98296], [-122.02186, 36.9813], [-122.02141, 36.98016], [-122.02217, 36.97924], [-122.02361, 36.97883], [-122.02496, 36.97797], [-122.02642, 36.9771], [-122.02779, 36.97679], [-122.026, 36.972], [-122.03026, 36.97121], [-122.02975, 36.96978], [-122.02936, 36.96871], [-122.02882, 36.9676], [-122.02824, 36.96603], [-122.02764, 36.96494], [-122.02686, 36.96379], [-122.02576, 36.96313], [-122.02434, 36.963], [-122.02297, 36.96308], [-122.02158, 36.96364], [-122.02029, 36.96412], [-122.01887, 36.96438], [-122.01689, 36.9646], [-122.01533, 36.96482], [-122.01338, 36.96564], [-122.0116, 36.9665], [-122.01025, 36.96687], [-122.00825, 36.96729], [-122.00622, 36.96772], [-122.00475, 36.96802], [-122.00203, 36.96813], [-122.00062, 36.96827], [-121.99922, 36.96861], [-121.99792, 36.96894], [-121.99572, 36.96948], [-121.99388, 36.9696], [-121.99223, 36.96959], [-121.99001, 36.96957], [-121.98859, 36.96956], [-121.98713, 36.96951], [-121.98513, 36.96923], [-121.98313, 36.96891], [-121.98117, 36.96859], [-121.97979, 36.96838], [-121.97569, 36.96772], [-121.97391, 36.96746], [-121.97241, 36.96743], [-121.9707, 36.96759], [-121.96928, 36.96772], [-121.96741, 36.9679], [-121.9655, 36.96807], [-121.96397, 36.96821], [-121.96099, 36.96849], [-121.95842, 36.96873], [-121.95708, 36.969], [-121.95579, 36.97008], [-121.9549, 36.97101], [-121.95426, 36.97209], [-121.95358, 36.97332], [-121.95284, 36.97441], [-121.95175, 36.97509], [-121.95036, 36.97544], [-121.94703, 36.97622], [-121.94344, 36.97705], [-121.94211, 36.97737], [-121.94085, 36.97787], [-121.93929, 36.97902], [-121.93845, 36.97998], [-121.93799, 36.98105], [-121.93713, 36.98194], [-121.93572, 36.98231], [-121.93434, 36.98211], [-121.933, 36.9823], [-121.93162, 36.98272], [-121.92803, 36.98202], [-121.92663, 36.98148], [-121.92538, 36.98095], [-121.92302, 36.98116], [-121.92158, 36.98114], [-121.92048, 36.98037], [-121.9196, 36.97933], [-121.91817, 36.97765], [-121.917, 36.97675], [-121.91593, 36.97607], [-121.91438, 36.97549], [-121.91263, 36.97528], [-121.90914, 36.97543], [-121.90647, 36.97557], [-121.90516, 36.97588], [-121.90365, 36.97665], [-121.90243, 36.97723], [-121.90108, 36.9773], [-121.89967, 36.97665], [-121.89831, 36.97543], [-121.89763, 36.97427], [-121.89729, 36.97294], [-121.89692, 36.97159], [-121.89629, 36.97053], [-121.89521, 36.96937], [-121.89423, 36.9684], [-121.89307, 36.9674], [-121.89218, 36.96638], [-121.88752, 36.96165], [-121.88312, 36.95723], [-121.882, 36.9561], [-121.88115, 36.95524], [-121.8803, 36.95439], [-121.87942, 36.95354], [-121.87745, 36.95175], [-121.8762, 36.95059], [-121.87523, 36.94971], [-121.87379, 36.94839], [-121.87281, 36.94747], [-121.87141, 36.94582], [-121.87023, 36.94442], [-121.86939, 36.94342], [-121.86828, 36.94186], [-121.86754, 36.94077], [-121.86723, 36.93959], [-121.86709, 36.93849], [-121.86556, 36.93694], [-121.86462, 36.93555], [-121.86405, 36.93454], [-121.86302, 36.93363], [-121.86082, 36.93261], [-121.85951, 36.93205], [-121.857, 36.93156], [-121.85547, 36.93112], [-121.85293, 36.92974], [-121.85191, 36.92902], [-121.85091, 36.92825], [-121.84648, 36.92563], [-121.84335, 36.92381], [-121.84183, 36.92325], [-121.84033, 36.92286], [-121.83893, 36.9224], [-121.83758, 36.92183], [-121.83672, 36.92097], [-121.83526, 36.91927], [-121.83421, 36.91843], [-121.83283, 36.91819], [-121.83129, 36.91827], [-121.82994, 36.91801], [-121.82845, 36.91754], [-121.82716, 36.9171], [-121.8256, 36.91702], [-121.82442, 36.91648], [-121.8233, 36.91574], [-121.82173, 36.91539], [-121.8197, 36.91565], [-121.81828, 36.91573], [-121.81694, 36.91531], [-121.81545, 36.91414], [-121.81442, 36.91325], [-121.81368, 36.91224], [-121.81315, 36.91112], [-121.81259, 36.90985], [-121.81179, 36.90873], [-121.81133, 36.90753], [-121.81083, 36.90624], [-121.81014, 36.90526], [-121.80897, 36.90448], [-121.80819, 36.90358], [-121.80789, 36.90191], [-121.80747, 36.90065], [-121.8069, 36.89943], [-121.80597, 36.89854], [-121.80471, 36.89778], [-121.80169, 36.89598], [-121.80025, 36.89511], [-121.79891, 36.8945], [-121.79714, 36.89426], [-121.79578, 36.89412], [-121.79427, 36.89402], [-121.79269, 36.89409], [-121.79108, 36.89439], [-121.78875, 36.89507], [-121.78687, 36.89563], [-121.78498, 36.89618], [-121.7836, 36.89663], [-121.78237, 36.89719], [-121.77947, 36.89906], [-121.77779, 36.90017], [-121.77469, 36.90224], [-121.77332, 36.90315], [-121.7708, 36.90482], [-121.76867, 36.90624], [-121.76759, 36.90689], [-121.76596, 36.90748], [-121.76471, 36.90792], [-121.76337, 36.90815], [-121.76197, 36.90789], [-121.76, 36.91], [-121.76167, 36.90776], [-121.75965, 36.90647], [-121.75798, 36.90535], [-121.75523, 36.9035], [-121.75339, 36.90226], [-121.75232, 36.90154], [-121.75129, 36.90076], [-121.75058, 36.89963], [-121.75034, 36.89845], [-121.75009, 36.89697], [-121.74941, 36.89589], [-121.74807, 36.89544], [-121.74656, 36.89557], [-121.74539, 36.89483], [-121.74585, 36.89369], [-121.74643, 36.8927], [-121.74684, 36.89149], [-121.74701, 36.88978], [-121.74694, 36.88869], [-121.74679, 36.88711], [-121.74669, 36.88593], [-121.7465, 36.8835], [-121.74645, 36.88236], [-121.7466, 36.88081], [-121.74672, 36.87946], [-121.74652, 36.87826], [-121.74592, 36.87636], [-121.74554, 36.87505], [-121.74548, 36.87389], [-121.7459, 36.87095], [-121.74614, 36.86964], [-121.7466, 36.86844], [-121.74744, 36.86712], [-121.74851, 36.86602], [-121.75053, 36.86429], [-121.75257, 36.86256], [-121.75355, 36.8616], [-121.75443, 36.86048], [-121.75513, 36.85917], [-121.7557, 36.85755], [-121.75612, 36.85621], [-121.75671, 36.85441], [-121.75708, 36.8531], [-121.75714, 36.85169], [-121.75669, 36.85027], [-121.7551, 36.84754], [-121.75427, 36.84614], [-121.75313, 36.84482], [-121.75162, 36.8438], [-121.75015, 36.84319], [-121.74687, 36.84219], [-121.74553, 36.8417], [-121.74435, 36.84113], [-121.74301, 36.84031], [-121.7418, 36.83932], [-121.74059, 36.83803], [-121.73981, 36.8369], [-121.73906, 36.83534], [-121.73861, 36.83348], [-121.73852, 36.83235], [-121.73858, 36.83125], [-121.73881, 36.83006], [-121.73918, 36.82893], [-121.73957, 36.82783], [-121.74092, 36.82424], [-121.74451, 36.8145], [-121.74498, 36.81326], [-121.74616, 36.81002], [-121.74669, 36.80865], [-121.74798, 36.80532], [-121.74842, 36.80427], [-121.74919, 36.803], [-121.75264, 36.79846], [-121.75374, 36.79691], [-121.75444, 36.79551], [-121.75471, 36.79422], [-121.7546, 36.79292], [-121.75355, 36.78937], [-121.75146, 36.7826], [-121.75098, 36.78105], [-121.75033, 36.77886], [-121.74763, 36.77007], [-121.74716, 36.76855], [-121.74677, 36.76731], [-121.74641, 36.76612], [-121.74608, 36.76507], [-121.74519, 36.76216], [-121.74454, 36.76007], [-121.74392, 36.75802], [-121.74334, 36.75616], [-121.74236, 36.75298], [-121.74197, 36.75173], [-121.74142, 36.74992], [-121.74077, 36.74778], [-121.74031, 36.7463], [-121.73993, 36.74506], [-121.73842, 36.7402], [-121.73782, 36.73821], [-121.73726, 36.73679], [-121.73648, 36.73513], [-121.73549, 36.73346], [-121.73453, 36.7321], [-121.73375, 36.73114], [-121.73283, 36.73011], [-121.7293, 36.72647], [-121.72804, 36.72517], [-121.72667, 36.72376], [-121.72526, 36.72231], [-121.7238, 36.7208], [-121.72179, 36.71873], [-121.72082, 36.71773], [-121.71859, 36.71544], [-121.71665, 36.71344], [-121.71479, 36.7115], [-121.71116, 36.70777], [-121.70758, 36.70409], [-121.70549, 36.70196], [-121.70383, 36.70024], [-121.70292, 36.69932], [-121.70198, 36.69843], [-121.70105, 36.69764], [-121.70003, 36.69683], [-121.69891, 36.696], [-121.69775, 36.69519], [-121.6965, 36.6944], [-121.69459, 36.6933], [-121.69276, 36.69238], [-121.6913, 36.69172], [-121.68865, 36.69069], [-121.687, 36.69012], [-121.68462, 36.68928], [-121.68118, 36.68806], [-121.67909, 36.68733], [-121.6764, 36.68638], [-121.6738, 36.68547], [-121.66968, 36.68401], [-121.6665, 36.68289], [-121.66477, 36.68228], [-121.66207, 36.68132], [-121.66044, 36.68075], [-121.6565, 36.67937], [-121.65502, 36.67883], [-121.655, 36.678]]}, "properties": {"ftype": "line", "id": "rx-santacruz", "name": "RX Santa Cruz (San Jose\u2013Salinas)", "tier": 2, "headway": "15 min"}}, {"type": "Feature", "geometry": {"type": "Point", "coordinates": [-121.9026, 37.3297]}, "properties": {"ftype": "station", "id": "san-jose", "name": "San Jose Diridon", "tier": 2, "lines": ["RX Central Coast (San Jose\u2013Santa Barbara)", "RX Santa Cruz (San Jose\u2013Salinas)"]}}, {"type": "Feature", "geometry": {"type": "Point", "coordinates": [-121.5683, 37.0058]}, "properties": {"ftype": "station", "id": "gilroy", "name": "Gilroy", "tier": 2, "lines": ["RX Central Coast (San Jose\u2013Santa Barbara)"]}}, {"type": "Feature", "geometry": {"type": "Point", "coordinates": [-121.655, 36.678]}, "properties": {"ftype": "station", "id": "salinas", "name": "Salinas", "tier": 2, "lines": ["RX Central Coast (San Jose\u2013Santa Barbara)", "RX Monterey (Salinas\u2013Monterey)", "RX Santa Cruz (San Jose\u2013Salinas)"]}}, {"type": "Feature", "geometry": {"type": "Point", "coordinates": [-121.326, 36.425]}, "properties": {"ftype": "station", "id": "soledad", "name": "Soledad", "tier": 2, "lines": ["RX Central Coast (San Jose\u2013Santa Barbara)"]}}, {"type": "Feature", "geometry": {"type": "Point", "coordinates": [-120.69, 35.63]}, "properties": {"ftype": "station", "id": "paso-robles", "name": "Paso Robles", "tier": 2, "lines": ["RX Central Coast (San Jose\u2013Santa Barbara)"]}}, {"type": "Feature", "geometry": {"type": "Point", "coordinates": [-120.66, 35.28]}, "properties": {"ftype": "station", "id": "slo", "name": "San Luis Obispo", "tier": 2, "lines": ["RX Central Coast (San Jose\u2013Santa Barbara)"]}}, {"type": "Feature", "geometry": {"type": "Point", "coordinates": [-120.436, 34.95]}, "properties": {"ftype": "station", "id": "santa-maria", "name": "Santa Maria", "tier": 2, "lines": ["RX Central Coast (San Jose\u2013Santa Barbara)"]}}, {"type": "Feature", "geometry": {"type": "Point", "coordinates": [-120.192, 34.614]}, "properties": {"ftype": "station", "id": "buellton", "name": "Buellton/Solvang", "tier": 2, "lines": ["RX Central Coast (San Jose\u2013Santa Barbara)"]}}, {"type": "Feature", "geometry": {"type": "Point", "coordinates": [-119.845, 34.424]}, "properties": {"ftype": "station", "id": "goleta", "name": "Goleta/UCSB", "tier": 2, "lines": ["RX Central Coast (San Jose\u2013Santa Barbara)"]}}, {"type": "Feature", "geometry": {"type": "Point", "coordinates": [-119.7, 34.42]}, "properties": {"ftype": "station", "id": "santa-barbara", "name": "Santa Barbara", "tier": 2, "lines": ["RX Central Coast (San Jose\u2013Santa Barbara)"]}}, {"type": "Feature", "geometry": {"type": "Point", "coordinates": [-121.8, 36.68]}, "properties": {"ftype": "station", "id": "marina", "name": "Marina", "tier": 2, "lines": ["RX Monterey (Salinas\u2013Monterey)"]}}, {"type": "Feature", "geometry": {"type": "Point", "coordinates": [-121.895, 36.6]}, "properties": {"ftype": "station", "id": "monterey", "name": "Monterey", "tier": 2, "lines": ["RX Monterey (Salinas\u2013Monterey)"]}}, {"type": "Feature", "geometry": {"type": "Point", "coordinates": [-122.026, 36.972]}, "properties": {"ftype": "station", "id": "santa-cruz", "name": "Santa Cruz", "tier": 2, "lines": ["RX Santa Cruz (San Jose\u2013Salinas)"]}}, {"type": "Feature", "geometry": {"type": "Point", "coordinates": [-121.76, 36.91]}, "properties": {"ftype": "station", "id": "watsonville", "name": "Watsonville", "tier": 2, "lines": ["RX Santa Cruz (San Jose\u2013Salinas)"]}}]}
