{"type": "FeatureCollection", "features": [{"type": "Feature", "geometry": {"type": "Point", "coordinates": [-121.5006, 38.5847]}, "properties": {"ftype": "station", "name": "Sacramento Valley", "tier": 1, "lines": ["J St Line"], "headway": "90 s"}}, {"type": "Feature", "geometry": {"type": "Point", "coordinates": [-121.486297, 38.579988]}, "properties": {"ftype": "station", "name": "J St & 16th St", "tier": 1, "lines": ["J St Line", "16th St Line"], "headway": "90 s"}}, {"type": "Feature", "geometry": {"type": "Point", "coordinates": [-121.49659, 38.562074]}, "properties": {"ftype": "station", "name": "Broadway & 16th St", "tier": 1, "lines": ["Broadway Line", "16th St Line"], "headway": "90 s"}}, {"type": "Feature", "geometry": {"type": "Point", "coordinates": [-121.47556, 38.554817]}, "properties": {"ftype": "station", "name": "Broadway & Franklin", "tier": 1, "lines": ["Broadway Line", "Franklin Line"], "headway": "90 s"}}, {"type": "Feature", "geometry": {"type": "Point", "coordinates": [-121.488514, 38.559465]}, "properties": {"ftype": "station", "name": "Broadway & Freeport", "tier": 1, "lines": ["Broadway Line", "Freeport Line"], "headway": "90 s"}}, {"type": "Feature", "geometry": {"type": "Point", "coordinates": [-121.455303, 38.547835]}, "properties": {"ftype": "station", "name": "Broadway & Stockton", "tier": 1, "lines": ["Broadway Line", "Stockton Line"], "headway": "90 s"}}, {"type": "Feature", "geometry": {"type": "Point", "coordinates": [-121.450064, 38.611358]}, "properties": {"ftype": "station", "name": "El Camino & Del Paso", "tier": 1, "lines": ["El Camino Line", "Del Paso Line"], "headway": "90 s"}}, {"type": "Feature", "geometry": {"type": "Point", "coordinates": [-121.476294, 38.576692]}, "properties": {"ftype": "station", "name": "J St 1", "tier": 1, "lines": ["J St Line"], "headway": "90 s"}}, {"type": "Feature", "geometry": {"type": "Point", "coordinates": [-121.46629, 38.573397]}, "properties": {"ftype": "station", "name": "J St 2", "tier": 1, "lines": ["J St Line"], "headway": "90 s"}}, {"type": "Feature", "geometry": {"type": "Point", "coordinates": [-121.455934, 38.570883]}, "properties": {"ftype": "station", "name": "J St 3", "tier": 1, "lines": ["J St Line"], "headway": "90 s"}}, {"type": "Feature", "geometry": {"type": "Point", "coordinates": [-121.445528, 38.568481]}, "properties": {"ftype": "station", "name": "J St 4", "tier": 1, "lines": ["J St Line"], "headway": "90 s"}}, {"type": "Feature", "geometry": {"type": "Point", "coordinates": [-121.434957, 38.566761]}, "properties": {"ftype": "station", "name": "J St 5", "tier": 1, "lines": ["J St Line"], "headway": "90 s"}}, {"type": "Feature", "geometry": {"type": "Point", "coordinates": [-121.506844, 38.56515]}, "properties": {"ftype": "station", "name": "Broadway 1", "tier": 1, "lines": ["Broadway Line"], "headway": "90 s"}}, {"type": "Feature", "geometry": {"type": "Point", "coordinates": [-121.466023, 38.550178]}, "properties": {"ftype": "station", "name": "Broadway 2", "tier": 1, "lines": ["Broadway Line"], "headway": "90 s"}}, {"type": "Feature", "geometry": {"type": "Point", "coordinates": [-121.44621, 38.547081]}, "properties": {"ftype": "station", "name": "Broadway 3", "tier": 1, "lines": ["Broadway Line"], "headway": "90 s"}}, {"type": "Feature", "geometry": {"type": "Point", "coordinates": [-121.437065, 38.546976]}, "properties": {"ftype": "station", "name": "Broadway 4", "tier": 1, "lines": ["Broadway Line"], "headway": "90 s"}}, {"type": "Feature", "geometry": {"type": "Point", "coordinates": [-121.528369, 38.615052]}, "properties": {"ftype": "station", "name": "El Camino 1", "tier": 1, "lines": ["El Camino Line"], "headway": "90 s"}}, {"type": "Feature", "geometry": {"type": "Point", "coordinates": [-121.517216, 38.614194]}, "properties": {"ftype": "station", "name": "El Camino 2", "tier": 1, "lines": ["El Camino Line"], "headway": "90 s"}}, {"type": "Feature", "geometry": {"type": "Point", "coordinates": [-121.506034, 38.613573]}, "properties": {"ftype": "station", "name": "El Camino 3", "tier": 1, "lines": ["El Camino Line"], "headway": "90 s"}}, {"type": "Feature", "geometry": {"type": "Point", "coordinates": [-121.494853, 38.612946]}, "properties": {"ftype": "station", "name": "El Camino 4", "tier": 1, "lines": ["El Camino Line"], "headway": "90 s"}}, {"type": "Feature", "geometry": {"type": "Point", "coordinates": [-121.483664, 38.612403]}, "properties": {"ftype": "station", "name": "El Camino 5", "tier": 1, "lines": ["El Camino Line"], "headway": "90 s"}}, {"type": "Feature", "geometry": {"type": "Point", "coordinates": [-121.472471, 38.611918]}, "properties": {"ftype": "station", "name": "El Camino 6", "tier": 1, "lines": ["El Camino Line"], "headway": "90 s"}}, {"type": "Feature", "geometry": {"type": "Point", "coordinates": [-121.46127, 38.611576]}, "properties": {"ftype": "station", "name": "El Camino 7", "tier": 1, "lines": ["El Camino Line"], "headway": "90 s"}}, {"type": "Feature", "geometry": {"type": "Point", "coordinates": [-121.438626, 38.611149]}, "properties": {"ftype": "station", "name": "El Camino 8", "tier": 1, "lines": ["El Camino Line"], "headway": "90 s"}}, {"type": "Feature", "geometry": {"type": "Point", "coordinates": [-121.427188, 38.610991]}, "properties": {"ftype": "station", "name": "El Camino 9", "tier": 1, "lines": ["El Camino Line"], "headway": "90 s"}}, {"type": "Feature", "geometry": {"type": "Point", "coordinates": [-121.415749, 38.610832]}, "properties": {"ftype": "station", "name": "El Camino 10", "tier": 1, "lines": ["El Camino Line"], "headway": "90 s"}}, {"type": "Feature", "geometry": {"type": "Point", "coordinates": [-121.40431, 38.610687]}, "properties": {"ftype": "station", "name": "El Camino 11", "tier": 1, "lines": ["El Camino Line"], "headway": "90 s"}}, {"type": "Feature", "geometry": {"type": "Point", "coordinates": [-121.392871, 38.610563]}, "properties": {"ftype": "station", "name": "El Camino 12", "tier": 1, "lines": ["El Camino Line"], "headway": "90 s"}}, {"type": "Feature", "geometry": {"type": "Point", "coordinates": [-121.381431, 38.610438]}, "properties": {"ftype": "station", "name": "El Camino 13", "tier": 1, "lines": ["El Camino Line"], "headway": "90 s"}}, {"type": "Feature", "geometry": {"type": "Point", "coordinates": [-121.499439, 38.55524]}, "properties": {"ftype": "station", "name": "16th St 1", "tier": 1, "lines": ["16th St Line"], "headway": "90 s"}}, {"type": "Feature", "geometry": {"type": "Point", "coordinates": [-121.493146, 38.568041]}, "properties": {"ftype": "station", "name": "16th St 2", "tier": 1, "lines": ["16th St Line"], "headway": "90 s"}}, {"type": "Feature", "geometry": {"type": "Point", "coordinates": [-121.489708, 38.574009]}, "properties": {"ftype": "station", "name": "16th St 3", "tier": 1, "lines": ["16th St Line"], "headway": "90 s"}}, {"type": "Feature", "geometry": {"type": "Point", "coordinates": [-121.482295, 38.587005]}, "properties": {"ftype": "station", "name": "16th St 4", "tier": 1, "lines": ["16th St Line"], "headway": "90 s"}}, {"type": "Feature", "geometry": {"type": "Point", "coordinates": [-121.474535, 38.546622]}, "properties": {"ftype": "station", "name": "Franklin 1", "tier": 1, "lines": ["Franklin Line"], "headway": "90 s"}}, {"type": "Feature", "geometry": {"type": "Point", "coordinates": [-121.473363, 38.538441]}, "properties": {"ftype": "station", "name": "Franklin 2", "tier": 1, "lines": ["Franklin Line"], "headway": "90 s"}}, {"type": "Feature", "geometry": {"type": "Point", "coordinates": [-121.471705, 38.53031]}, "properties": {"ftype": "station", "name": "Franklin 3", "tier": 1, "lines": ["Franklin Line"], "headway": "90 s"}}, {"type": "Feature", "geometry": {"type": "Point", "coordinates": [-121.469747, 38.522228]}, "properties": {"ftype": "station", "name": "Franklin 4", "tier": 1, "lines": ["Franklin Line"], "headway": "90 s"}}, {"type": "Feature", "geometry": {"type": "Point", "coordinates": [-121.467151, 38.514251]}, "properties": {"ftype": "station", "name": "Franklin 5", "tier": 1, "lines": ["Franklin Line"], "headway": "90 s"}}, {"type": "Feature", "geometry": {"type": "Point", "coordinates": [-121.464102, 38.506379]}, "properties": {"ftype": "station", "name": "Franklin 6", "tier": 1, "lines": ["Franklin Line"], "headway": "90 s"}}, {"type": "Feature", "geometry": {"type": "Point", "coordinates": [-121.503859, 38.503818]}, "properties": {"ftype": "station", "name": "Freeport 1", "tier": 1, "lines": ["Freeport Line"], "headway": "90 s"}}, {"type": "Feature", "geometry": {"type": "Point", "coordinates": [-121.501584, 38.511761]}, "properties": {"ftype": "station", "name": "Freeport 2", "tier": 1, "lines": ["Freeport Line"], "headway": "90 s"}}, {"type": "Feature", "geometry": {"type": "Point", "coordinates": [-121.499156, 38.519676]}, "properties": {"ftype": "station", "name": "Freeport 3", "tier": 1, "lines": ["Freeport Line"], "headway": "90 s"}}, {"type": "Feature", "geometry": {"type": "Point", "coordinates": [-121.496691, 38.527584]}, "properties": {"ftype": "station", "name": "Freeport 4", "tier": 1, "lines": ["Freeport Line"], "headway": "90 s"}}, {"type": "Feature", "geometry": {"type": "Point", "coordinates": [-121.494212, 38.535489]}, "properties": {"ftype": "station", "name": "Freeport 5", "tier": 1, "lines": ["Freeport Line"], "headway": "90 s"}}, {"type": "Feature", "geometry": {"type": "Point", "coordinates": [-121.491865, 38.543419]}, "properties": {"ftype": "station", "name": "Freeport 6", "tier": 1, "lines": ["Freeport Line"], "headway": "90 s"}}, {"type": "Feature", "geometry": {"type": "Point", "coordinates": [-121.489779, 38.551391]}, "properties": {"ftype": "station", "name": "Freeport 7", "tier": 1, "lines": ["Freeport Line"], "headway": "90 s"}}, {"type": "Feature", "geometry": {"type": "Point", "coordinates": [-121.465418, 38.602852]}, "properties": {"ftype": "station", "name": "Del Paso 1", "tier": 1, "lines": ["Del Paso Line"], "headway": "90 s"}}, {"type": "Feature", "geometry": {"type": "Point", "coordinates": [-121.457726, 38.607089]}, "properties": {"ftype": "station", "name": "Del Paso 2", "tier": 1, "lines": ["Del Paso Line"], "headway": "90 s"}}, {"type": "Feature", "geometry": {"type": "Point", "coordinates": [-121.441494, 38.616357]}, "properties": {"ftype": "station", "name": "Del Paso 3", "tier": 1, "lines": ["Del Paso Line"], "headway": "90 s"}}, {"type": "Feature", "geometry": {"type": "Point", "coordinates": [-121.433014, 38.621449]}, "properties": {"ftype": "station", "name": "Del Paso 4", "tier": 1, "lines": ["Del Paso Line"], "headway": "90 s"}}, {"type": "Feature", "geometry": {"type": "Point", "coordinates": [-121.424571, 38.626577]}, "properties": {"ftype": "station", "name": "Del Paso 5", "tier": 1, "lines": ["Del Paso Line"], "headway": "90 s"}}, {"type": "Feature", "geometry": {"type": "Point", "coordinates": [-121.46349, 38.56007]}, "properties": {"ftype": "station", "name": "Stockton 1", "tier": 1, "lines": ["Stockton Line"], "headway": "90 s"}}, {"type": "Feature", "geometry": {"type": "Point", "coordinates": [-121.459133, 38.554063]}, "properties": {"ftype": "station", "name": "Stockton 2", "tier": 1, "lines": ["Stockton Line"], "headway": "90 s"}}, {"type": "Feature", "geometry": {"type": "Point", "coordinates": [-121.450668, 38.539955]}, "properties": {"ftype": "station", "name": "Stockton 3", "tier": 1, "lines": ["Stockton Line"], "headway": "90 s"}}, {"type": "Feature", "geometry": {"type": "Point", "coordinates": [-121.446539, 38.5319]}, "properties": {"ftype": "station", "name": "Stockton 4", "tier": 1, "lines": ["Stockton Line"], "headway": "90 s"}}, {"type": "Feature", "geometry": {"type": "Point", "coordinates": [-121.44241, 38.523844]}, "properties": {"ftype": "station", "name": "Stockton 5", "tier": 1, "lines": ["Stockton Line"], "headway": "90 s"}}, {"type": "Feature", "geometry": {"type": "Point", "coordinates": [-121.438517, 38.515716]}, "properties": {"ftype": "station", "name": "Stockton 6", "tier": 1, "lines": ["Stockton Line"], "headway": "90 s"}}, {"type": "Feature", "geometry": {"type": "Point", "coordinates": [-121.434637, 38.507583]}, "properties": {"ftype": "station", "name": "Stockton 7", "tier": 1, "lines": ["Stockton Line"], "headway": "90 s"}}, {"type": "Feature", "geometry": {"type": "Point", "coordinates": [-121.505924, 38.583632]}, "properties": {"ftype": "station", "name": "J St West Terminal", "tier": 1, "lines": ["J St Line"], "headway": "90 s"}}, {"type": "Feature", "geometry": {"type": "Point", "coordinates": [-121.425054, 38.568492]}, "properties": {"ftype": "station", "name": "J St East Terminal", "tier": 1, "lines": ["J St Line"], "headway": "90 s"}}, {"type": "Feature", "geometry": {"type": "Point", "coordinates": [-121.517097, 38.568226]}, "properties": {"ftype": "station", "name": "Broadway West Terminal", "tier": 1, "lines": ["Broadway Line"], "headway": "90 s"}}, {"type": "Feature", "geometry": {"type": "Point", "coordinates": [-121.42792, 38.54687]}, "properties": {"ftype": "station", "name": "Broadway East Terminal", "tier": 1, "lines": ["Broadway Line"], "headway": "90 s"}}, {"type": "Feature", "geometry": {"type": "Point", "coordinates": [-121.53943, 38.616478]}, "properties": {"ftype": "station", "name": "El Camino West Terminal", "tier": 1, "lines": ["El Camino Line"], "headway": "90 s"}}, {"type": "Feature", "geometry": {"type": "Point", "coordinates": [-121.369992, 38.610314]}, "properties": {"ftype": "station", "name": "El Camino East Terminal", "tier": 1, "lines": ["El Camino Line"], "headway": "90 s"}}, {"type": "Feature", "geometry": {"type": "Point", "coordinates": [-121.498241, 38.548422]}, "properties": {"ftype": "station", "name": "16th St South Terminal", "tier": 1, "lines": ["16th St Line"], "headway": "90 s"}}, {"type": "Feature", "geometry": {"type": "Point", "coordinates": [-121.478293, 38.594021]}, "properties": {"ftype": "station", "name": "16th St North Terminal", "tier": 1, "lines": ["16th St Line"], "headway": "90 s"}}, {"type": "Feature", "geometry": {"type": "Point", "coordinates": [-121.460757, 38.498577]}, "properties": {"ftype": "station", "name": "Franklin South Terminal", "tier": 1, "lines": ["Franklin Line"], "headway": "90 s"}}, {"type": "Feature", "geometry": {"type": "Point", "coordinates": [-121.50596, 38.495845]}, "properties": {"ftype": "station", "name": "Freeport South Terminal", "tier": 1, "lines": ["Freeport Line"], "headway": "90 s"}}, {"type": "Feature", "geometry": {"type": "Point", "coordinates": [-121.47312, 38.598628]}, "properties": {"ftype": "station", "name": "Del Paso South Terminal", "tier": 1, "lines": ["Del Paso Line"], "headway": "90 s"}}, {"type": "Feature", "geometry": {"type": "Point", "coordinates": [-121.41569, 38.631216]}, "properties": {"ftype": "station", "name": "Del Paso North Terminal", "tier": 1, "lines": ["Del Paso Line"], "headway": "90 s"}}, {"type": "Feature", "geometry": {"type": "Point", "coordinates": [-121.46796, 38.566028]}, "properties": {"ftype": "station", "name": "Stockton North Terminal", "tier": 1, "lines": ["Stockton Line"], "headway": "90 s"}}, {"type": "Feature", "geometry": {"type": "Point", "coordinates": [-121.430756, 38.499451]}, "properties": {"ftype": "station", "name": "Stockton South Terminal", "tier": 1, "lines": ["Stockton Line"], "headway": "90 s"}}, {"type": "Feature", "geometry": {"type": "LineString", "coordinates": [[-121.505924, 38.583632], [-121.5006, 38.5847], [-121.465038, 38.572984], [-121.43946, 38.567081], [-121.428751, 38.56632], [-121.425054, 38.568492]]}, "properties": {"ftype": "line", "id": "sacramento-J St", "name": "J St Line", "tier": 1, "headway": "90 s"}}, {"type": "Feature", "geometry": {"type": "LineString", "coordinates": [[-121.517097, 38.568226], [-121.491697, 38.560607], [-121.475102, 38.554653], [-121.466819, 38.550433], [-121.460023, 38.548253], [-121.446892, 38.547089], [-121.42792, 38.54687]]}, "properties": {"ftype": "line", "id": "sacramento-Broadway", "name": "Broadway Line", "tier": 1, "headway": "90 s"}}, {"type": "Feature", "geometry": {"type": "LineString", "coordinates": [[-121.53943, 38.616478], [-121.530261, 38.615229], [-121.521217, 38.614383], [-121.511541, 38.613925], [-121.501098, 38.613257], [-121.485738, 38.612493], [-121.467273, 38.611692], [-121.440865, 38.61118], [-121.40879, 38.610736], [-121.369992, 38.610314]]}, "properties": {"ftype": "line", "id": "sacramento-El Camino", "name": "El Camino Line", "tier": 1, "headway": "90 s"}}, {"type": "Feature", "geometry": {"type": "LineString", "coordinates": [[-121.498241, 38.548422], [-121.500316, 38.552359], [-121.498215, 38.559258], [-121.490297, 38.572976], [-121.478293, 38.594021]]}, "properties": {"ftype": "line", "id": "sacramento-16th St", "name": "16th St Line", "tier": 1, "headway": "90 s"}}, {"type": "Feature", "geometry": {"type": "LineString", "coordinates": [[-121.47556, 38.554817], [-121.473748, 38.540328], [-121.470577, 38.524776], [-121.466122, 38.51109], [-121.460757, 38.498577]]}, "properties": {"ftype": "line", "id": "sacramento-Franklin", "name": "Franklin Line", "tier": 1, "headway": "90 s"}}, {"type": "Feature", "geometry": {"type": "LineString", "coordinates": [[-121.50596, 38.495845], [-121.502873, 38.507562], [-121.498501, 38.52181], [-121.493478, 38.537833], [-121.490285, 38.54889], [-121.488812, 38.556164], [-121.488514, 38.559465]]}, "properties": {"ftype": "line", "id": "sacramento-Freeport", "name": "Freeport Line", "tier": 1, "headway": "90 s"}}, {"type": "Feature", "geometry": {"type": "LineString", "coordinates": [[-121.47312, 38.598628], [-121.46221, 38.604612], [-121.451272, 38.610655], [-121.442081, 38.616009], [-121.435354, 38.619999], [-121.430833, 38.6228], [-121.4268, 38.625309], [-121.422783, 38.627595], [-121.419099, 38.629614], [-121.41569, 38.631216]]}, "properties": {"ftype": "line", "id": "sacramento-Del Paso", "name": "Del Paso Line", "tier": 1, "headway": "90 s"}}, {"type": "Feature", "geometry": {"type": "LineString", "coordinates": [[-121.46796, 38.566028], [-121.459814, 38.555171], [-121.45172, 38.542008], [-121.442205, 38.523444], [-121.430756, 38.499451]]}, "properties": {"ftype": "line", "id": "sacramento-Stockton", "name": "Stockton Line", "tier": 1, "headway": "90 s"}}]}
