{"type": "FeatureCollection", "features": [{"type": "Feature", "geometry": {"type": "Point", "coordinates": [-118.190016, 33.77504]}, "properties": {"ftype": "station", "name": "7th St & Long Beach", "tier": 1, "lines": ["7th St Line", "Long Beach Line"], "headway": "90 s"}}, {"type": "Feature", "geometry": {"type": "Point", "coordinates": [-118.185061, 33.774876]}, "properties": {"ftype": "station", "name": "7th St & Atlantic", "tier": 1, "lines": ["7th St Line", "Atlantic Line"], "headway": "90 s"}}, {"type": "Feature", "geometry": {"type": "Point", "coordinates": [-118.121416, 33.7691]}, "properties": {"ftype": "station", "name": "7th St & Bellflower", "tier": 1, "lines": ["7th St Line", "Bellflower Line"], "headway": "90 s"}}, {"type": "Feature", "geometry": {"type": "Point", "coordinates": [-118.190588, 33.782618]}, "properties": {"ftype": "station", "name": "Anaheim & Long Beach", "tier": 1, "lines": ["Anaheim Line", "Long Beach Line"], "headway": "90 s"}}, {"type": "Feature", "geometry": {"type": "Point", "coordinates": [-118.185078, 33.782618]}, "properties": {"ftype": "station", "name": "Anaheim & Atlantic", "tier": 1, "lines": ["Anaheim Line", "Atlantic Line"], "headway": "90 s"}}, {"type": "Feature", "geometry": {"type": "Point", "coordinates": [-118.202835, 33.766689]}, "properties": {"ftype": "station", "name": "Ocean 1", "tier": 1, "lines": ["Ocean Line"], "headway": "90 s"}}, {"type": "Feature", "geometry": {"type": "Point", "coordinates": [-118.192782, 33.76626]}, "properties": {"ftype": "station", "name": "Ocean 2", "tier": 1, "lines": ["Ocean Line"], "headway": "90 s"}}, {"type": "Feature", "geometry": {"type": "Point", "coordinates": [-118.182743, 33.765598]}, "properties": {"ftype": "station", "name": "Ocean 3", "tier": 1, "lines": ["Ocean Line", "Atlantic Line"], "headway": "90 s"}}, {"type": "Feature", "geometry": {"type": "Point", "coordinates": [-118.172771, 33.764439]}, "properties": {"ftype": "station", "name": "Ocean 4", "tier": 1, "lines": ["Ocean Line"], "headway": "90 s"}}, {"type": "Feature", "geometry": {"type": "Point", "coordinates": [-118.162902, 33.762809]}, "properties": {"ftype": "station", "name": "Ocean 5", "tier": 1, "lines": ["Ocean Line"], "headway": "90 s"}}, {"type": "Feature", "geometry": {"type": "Point", "coordinates": [-118.153217, 33.76055]}, "properties": {"ftype": "station", "name": "Ocean 6", "tier": 1, "lines": ["Ocean Line"], "headway": "90 s"}}, {"type": "Feature", "geometry": {"type": "Point", "coordinates": [-118.1438, 33.757578]}, "properties": {"ftype": "station", "name": "Ocean 7", "tier": 1, "lines": ["Ocean Line"], "headway": "90 s"}}, {"type": "Feature", "geometry": {"type": "Point", "coordinates": [-118.134802, 33.753796]}, "properties": {"ftype": "station", "name": "Ocean 8", "tier": 1, "lines": ["Ocean Line"], "headway": "90 s"}}, {"type": "Feature", "geometry": {"type": "Point", "coordinates": [-118.125978, 33.749743]}, "properties": {"ftype": "station", "name": "Ocean 9", "tier": 1, "lines": ["Ocean Line"], "headway": "90 s"}}, {"type": "Feature", "geometry": {"type": "Point", "coordinates": [-118.17437, 33.774522]}, "properties": {"ftype": "station", "name": "7th St 1", "tier": 1, "lines": ["7th St Line"], "headway": "90 s"}}, {"type": "Feature", "geometry": {"type": "Point", "coordinates": [-118.16368, 33.774167]}, "properties": {"ftype": "station", "name": "7th St 2", "tier": 1, "lines": ["7th St Line"], "headway": "90 s"}}, {"type": "Feature", "geometry": {"type": "Point", "coordinates": [-118.152989, 33.773813]}, "properties": {"ftype": "station", "name": "7th St 3", "tier": 1, "lines": ["7th St Line"], "headway": "90 s"}}, {"type": "Feature", "geometry": {"type": "Point", "coordinates": [-118.142438, 33.772442]}, "properties": {"ftype": "station", "name": "7th St 4", "tier": 1, "lines": ["7th St Line"], "headway": "90 s"}}, {"type": "Feature", "geometry": {"type": "Point", "coordinates": [-118.131927, 33.770771]}, "properties": {"ftype": "station", "name": "7th St 5", "tier": 1, "lines": ["7th St Line"], "headway": "90 s"}}, {"type": "Feature", "geometry": {"type": "Point", "coordinates": [-118.114323, 33.764765]}, "properties": {"ftype": "station", "name": "7th St 6", "tier": 1, "lines": ["7th St Line"], "headway": "90 s"}}, {"type": "Feature", "geometry": {"type": "Point", "coordinates": [-118.108419, 33.759452]}, "properties": {"ftype": "station", "name": "7th St 7", "tier": 1, "lines": ["7th St Line"], "headway": "90 s"}}, {"type": "Feature", "geometry": {"type": "Point", "coordinates": [-118.107188, 33.752026]}, "properties": {"ftype": "station", "name": "7th St 8", "tier": 1, "lines": ["7th St Line"], "headway": "90 s"}}, {"type": "Feature", "geometry": {"type": "Point", "coordinates": [-118.210819, 33.782619]}, "properties": {"ftype": "station", "name": "Anaheim 1", "tier": 1, "lines": ["Anaheim Line"], "headway": "90 s"}}, {"type": "Feature", "geometry": {"type": "Point", "coordinates": [-118.200704, 33.782618]}, "properties": {"ftype": "station", "name": "Anaheim 2", "tier": 1, "lines": ["Anaheim Line"], "headway": "90 s"}}, {"type": "Feature", "geometry": {"type": "Point", "coordinates": [-118.174623, 33.782617]}, "properties": {"ftype": "station", "name": "Anaheim 3", "tier": 1, "lines": ["Anaheim Line"], "headway": "90 s"}}, {"type": "Feature", "geometry": {"type": "Point", "coordinates": [-118.164167, 33.782617]}, "properties": {"ftype": "station", "name": "Anaheim 4", "tier": 1, "lines": ["Anaheim Line"], "headway": "90 s"}}, {"type": "Feature", "geometry": {"type": "Point", "coordinates": [-118.153712, 33.782616]}, "properties": {"ftype": "station", "name": "Anaheim 5", "tier": 1, "lines": ["Anaheim Line"], "headway": "90 s"}}, {"type": "Feature", "geometry": {"type": "Point", "coordinates": [-118.143257, 33.782616]}, "properties": {"ftype": "station", "name": "Anaheim 6", "tier": 1, "lines": ["Anaheim Line"], "headway": "90 s"}}, {"type": "Feature", "geometry": {"type": "Point", "coordinates": [-118.203016, 33.873188]}, "properties": {"ftype": "station", "name": "Long Beach 1", "tier": 1, "lines": ["Long Beach Line"], "headway": "90 s"}}, {"type": "Feature", "geometry": {"type": "Point", "coordinates": [-118.20108, 33.86505]}, "properties": {"ftype": "station", "name": "Long Beach 2", "tier": 1, "lines": ["Long Beach Line"], "headway": "90 s"}}, {"type": "Feature", "geometry": {"type": "Point", "coordinates": [-118.199144, 33.856911]}, "properties": {"ftype": "station", "name": "Long Beach 3", "tier": 1, "lines": ["Long Beach Line"], "headway": "90 s"}}, {"type": "Feature", "geometry": {"type": "Point", "coordinates": [-118.197628, 33.848718]}, "properties": {"ftype": "station", "name": "Long Beach 4", "tier": 1, "lines": ["Long Beach Line"], "headway": "90 s"}}, {"type": "Feature", "geometry": {"type": "Point", "coordinates": [-118.196508, 33.840473]}, "properties": {"ftype": "station", "name": "Long Beach 5", "tier": 1, "lines": ["Long Beach Line"], "headway": "90 s"}}, {"type": "Feature", "geometry": {"type": "Point", "coordinates": [-118.195388, 33.832229]}, "properties": {"ftype": "station", "name": "Long Beach 6", "tier": 1, "lines": ["Long Beach Line"], "headway": "90 s"}}, {"type": "Feature", "geometry": {"type": "Point", "coordinates": [-118.194268, 33.823984]}, "properties": {"ftype": "station", "name": "Long Beach 7", "tier": 1, "lines": ["Long Beach Line"], "headway": "90 s"}}, {"type": "Feature", "geometry": {"type": "Point", "coordinates": [-118.193148, 33.815739]}, "properties": {"ftype": "station", "name": "Long Beach 8", "tier": 1, "lines": ["Long Beach Line"], "headway": "90 s"}}, {"type": "Feature", "geometry": {"type": "Point", "coordinates": [-118.192465, 33.807462]}, "properties": {"ftype": "station", "name": "Long Beach 9", "tier": 1, "lines": ["Long Beach Line"], "headway": "90 s"}}, {"type": "Feature", "geometry": {"type": "Point", "coordinates": [-118.191839, 33.799181]}, "properties": {"ftype": "station", "name": "Long Beach 10", "tier": 1, "lines": ["Long Beach Line"], "headway": "90 s"}}, {"type": "Feature", "geometry": {"type": "Point", "coordinates": [-118.191214, 33.790899]}, "properties": {"ftype": "station", "name": "Long Beach 11", "tier": 1, "lines": ["Long Beach Line"], "headway": "90 s"}}, {"type": "Feature", "geometry": {"type": "Point", "coordinates": [-118.185725, 33.871399]}, "properties": {"ftype": "station", "name": "Atlantic 1", "tier": 1, "lines": ["Atlantic Line"], "headway": "90 s"}}, {"type": "Feature", "geometry": {"type": "Point", "coordinates": [-118.185529, 33.862522]}, "properties": {"ftype": "station", "name": "Atlantic 2", "tier": 1, "lines": ["Atlantic Line"], "headway": "90 s"}}, {"type": "Feature", "geometry": {"type": "Point", "coordinates": [-118.185386, 33.853645]}, "properties": {"ftype": "station", "name": "Atlantic 3", "tier": 1, "lines": ["Atlantic Line"], "headway": "90 s"}}, {"type": "Feature", "geometry": {"type": "Point", "coordinates": [-118.185324, 33.844766]}, "properties": {"ftype": "station", "name": "Atlantic 4", "tier": 1, "lines": ["Atlantic Line"], "headway": "90 s"}}, {"type": "Feature", "geometry": {"type": "Point", "coordinates": [-118.185263, 33.835888]}, "properties": {"ftype": "station", "name": "Atlantic 5", "tier": 1, "lines": ["Atlantic Line"], "headway": "90 s"}}, {"type": "Feature", "geometry": {"type": "Point", "coordinates": [-118.185201, 33.82701]}, "properties": {"ftype": "station", "name": "Atlantic 6", "tier": 1, "lines": ["Atlantic Line"], "headway": "90 s"}}, {"type": "Feature", "geometry": {"type": "Point", "coordinates": [-118.185155, 33.818131]}, "properties": {"ftype": "station", "name": "Atlantic 7", "tier": 1, "lines": ["Atlantic Line"], "headway": "90 s"}}, {"type": "Feature", "geometry": {"type": "Point", "coordinates": [-118.185136, 33.809253]}, "properties": {"ftype": "station", "name": "Atlantic 8", "tier": 1, "lines": ["Atlantic Line"], "headway": "90 s"}}, {"type": "Feature", "geometry": {"type": "Point", "coordinates": [-118.185117, 33.800374]}, "properties": {"ftype": "station", "name": "Atlantic 9", "tier": 1, "lines": ["Atlantic Line"], "headway": "90 s"}}, {"type": "Feature", "geometry": {"type": "Point", "coordinates": [-118.185097, 33.791496]}, "properties": {"ftype": "station", "name": "Atlantic 10", "tier": 1, "lines": ["Atlantic Line"], "headway": "90 s"}}, {"type": "Feature", "geometry": {"type": "Point", "coordinates": [-118.125184, 33.871704]}, "properties": {"ftype": "station", "name": "Bellflower 1", "tier": 1, "lines": ["Bellflower Line"], "headway": "90 s"}}, {"type": "Feature", "geometry": {"type": "Point", "coordinates": [-118.12512, 33.863144]}, "properties": {"ftype": "station", "name": "Bellflower 2", "tier": 1, "lines": ["Bellflower Line"], "headway": "90 s"}}, {"type": "Feature", "geometry": {"type": "Point", "coordinates": [-118.125056, 33.854584]}, "properties": {"ftype": "station", "name": "Bellflower 3", "tier": 1, "lines": ["Bellflower Line"], "headway": "90 s"}}, {"type": "Feature", "geometry": {"type": "Point", "coordinates": [-118.124992, 33.846025]}, "properties": {"ftype": "station", "name": "Bellflower 4", "tier": 1, "lines": ["Bellflower Line"], "headway": "90 s"}}, {"type": "Feature", "geometry": {"type": "Point", "coordinates": [-118.124928, 33.837465]}, "properties": {"ftype": "station", "name": "Bellflower 5", "tier": 1, "lines": ["Bellflower Line"], "headway": "90 s"}}, {"type": "Feature", "geometry": {"type": "Point", "coordinates": [-118.124851, 33.828905]}, "properties": {"ftype": "station", "name": "Bellflower 6", "tier": 1, "lines": ["Bellflower Line"], "headway": "90 s"}}, {"type": "Feature", "geometry": {"type": "Point", "coordinates": [-118.124671, 33.820346]}, "properties": {"ftype": "station", "name": "Bellflower 7", "tier": 1, "lines": ["Bellflower Line"], "headway": "90 s"}}, {"type": "Feature", "geometry": {"type": "Point", "coordinates": [-118.124492, 33.811788]}, "properties": {"ftype": "station", "name": "Bellflower 8", "tier": 1, "lines": ["Bellflower Line"], "headway": "90 s"}}, {"type": "Feature", "geometry": {"type": "Point", "coordinates": [-118.124312, 33.803229]}, "properties": {"ftype": "station", "name": "Bellflower 9", "tier": 1, "lines": ["Bellflower Line"], "headway": "90 s"}}, {"type": "Feature", "geometry": {"type": "Point", "coordinates": [-118.123954, 33.794677]}, "properties": {"ftype": "station", "name": "Bellflower 10", "tier": 1, "lines": ["Bellflower Line"], "headway": "90 s"}}, {"type": "Feature", "geometry": {"type": "Point", "coordinates": [-118.123294, 33.786135]}, "properties": {"ftype": "station", "name": "Bellflower 11", "tier": 1, "lines": ["Bellflower Line"], "headway": "90 s"}}, {"type": "Feature", "geometry": {"type": "Point", "coordinates": [-118.122107, 33.777637]}, "properties": {"ftype": "station", "name": "Bellflower 12", "tier": 1, "lines": ["Bellflower Line"], "headway": "90 s"}}, {"type": "Feature", "geometry": {"type": "Point", "coordinates": [-118.2129, 33.766934]}, "properties": {"ftype": "station", "name": "Ocean West Terminal", "tier": 1, "lines": ["Ocean Line"], "headway": "90 s"}}, {"type": "Feature", "geometry": {"type": "Point", "coordinates": [-118.117244, 33.74555]}, "properties": {"ftype": "station", "name": "Ocean East Terminal", "tier": 1, "lines": ["Ocean Line"], "headway": "90 s"}}, {"type": "Feature", "geometry": {"type": "Point", "coordinates": [-118.199988, 33.775371]}, "properties": {"ftype": "station", "name": "7th St West Terminal", "tier": 1, "lines": ["7th St Line"], "headway": "90 s"}}, {"type": "Feature", "geometry": {"type": "Point", "coordinates": [-118.104592, 33.745023]}, "properties": {"ftype": "station", "name": "7th St East Terminal", "tier": 1, "lines": ["7th St Line"], "headway": "90 s"}}, {"type": "Feature", "geometry": {"type": "Point", "coordinates": [-118.220934, 33.782619]}, "properties": {"ftype": "station", "name": "Anaheim West Terminal", "tier": 1, "lines": ["Anaheim Line"], "headway": "90 s"}}, {"type": "Feature", "geometry": {"type": "Point", "coordinates": [-118.132802, 33.782615]}, "properties": {"ftype": "station", "name": "Anaheim East Terminal", "tier": 1, "lines": ["Anaheim Line"], "headway": "90 s"}}, {"type": "Feature", "geometry": {"type": "Point", "coordinates": [-118.204952, 33.881326]}, "properties": {"ftype": "station", "name": "Long Beach North Terminal", "tier": 1, "lines": ["Long Beach Line"], "headway": "90 s"}}, {"type": "Feature", "geometry": {"type": "Point", "coordinates": [-118.189393, 33.766789]}, "properties": {"ftype": "station", "name": "Long Beach South Terminal", "tier": 1, "lines": ["Long Beach Line"], "headway": "90 s"}}, {"type": "Feature", "geometry": {"type": "Point", "coordinates": [-118.186127, 33.880271]}, "properties": {"ftype": "station", "name": "Atlantic North Terminal", "tier": 1, "lines": ["Atlantic Line"], "headway": "90 s"}}, {"type": "Feature", "geometry": {"type": "Point", "coordinates": [-118.125248, 33.880264]}, "properties": {"ftype": "station", "name": "Bellflower North Terminal", "tier": 1, "lines": ["Bellflower Line"], "headway": "90 s"}}, {"type": "Feature", "geometry": {"type": "Point", "coordinates": [-118.121305, 33.766736]}, "properties": {"ftype": "station", "name": "Bellflower South Terminal", "tier": 1, "lines": ["Bellflower Line"], "headway": "90 s"}}, {"type": "Feature", "geometry": {"type": "LineString", "coordinates": [[-118.2129, 33.766934], [-118.197224, 33.766552], [-118.182126, 33.765557], [-118.168518, 33.763931], [-118.156324, 33.761496], [-118.144701, 33.757957], [-118.131717, 33.752499], [-118.117244, 33.74555]]}, "properties": {"ftype": "line", "id": "longbeach-Ocean", "name": "Ocean Line", "tier": 1, "headway": "90 s"}}, {"type": "Feature", "geometry": {"type": "LineString", "coordinates": [[-118.199988, 33.775371], [-118.150547, 33.773732], [-118.119929, 33.768864], [-118.108608, 33.760585], [-118.107134, 33.751702], [-118.105953, 33.746455], [-118.104592, 33.745023]]}, "properties": {"ftype": "line", "id": "longbeach-7th St", "name": "7th St Line", "tier": 1, "headway": "90 s"}}, {"type": "Feature", "geometry": {"type": "LineString", "coordinates": [[-118.220934, 33.782619], [-118.132802, 33.782615]]}, "properties": {"ftype": "line", "id": "longbeach-Anaheim", "name": "Anaheim Line", "tier": 1, "headway": "90 s"}}, {"type": "Feature", "geometry": {"type": "LineString", "coordinates": [[-118.204952, 33.881326], [-118.198203, 33.852957], [-118.193017, 33.814778], [-118.189393, 33.766789]]}, "properties": {"ftype": "line", "id": "longbeach-Long Beach", "name": "Long Beach Line", "tier": 1, "headway": "90 s"}}, {"type": "Feature", "geometry": {"type": "LineString", "coordinates": [[-118.186127, 33.880271], [-118.185771, 33.873482], [-118.185411, 33.857146], [-118.185163, 33.821544], [-118.182743, 33.765598]]}, "properties": {"ftype": "line", "id": "longbeach-Atlantic", "name": "Atlantic Line", "tier": 1, "headway": "90 s"}}, {"type": "Feature", "geometry": {"type": "LineString", "coordinates": [[-118.125248, 33.880264], [-118.12487, 33.82981], [-118.124198, 33.797833], [-118.123131, 33.784027], [-118.122241, 33.778855], [-118.121598, 33.77299], [-118.121305, 33.766736]]}, "properties": {"ftype": "line", "id": "longbeach-Bellflower", "name": "Bellflower Line", "tier": 1, "headway": "90 s"}}]}
