{"type": "FeatureCollection", "features": [{"type": "Feature", "geometry": {"type": "Point", "coordinates": [-121.9026, 37.3297]}, "properties": {"ftype": "station", "name": "San Jose Diridon", "tier": 1, "lines": ["Santa Clara Line"], "headway": "90 s"}}, {"type": "Feature", "geometry": {"type": "Point", "coordinates": [-121.889734, 37.337014]}, "properties": {"ftype": "station", "name": "Santa Clara & 1st St", "tier": 1, "lines": ["Santa Clara Line", "1st St Line"], "headway": "90 s"}}, {"type": "Feature", "geometry": {"type": "Point", "coordinates": [-121.855761, 37.353728]}, "properties": {"ftype": "station", "name": "Santa Clara & King", "tier": 1, "lines": ["Santa Clara Line", "King Line"], "headway": "90 s"}}, {"type": "Feature", "geometry": {"type": "Point", "coordinates": [-121.951027, 37.343782]}, "properties": {"ftype": "station", "name": "Santa Clara & Winchester", "tier": 1, "lines": ["Santa Clara Line", "Winchester Line"], "headway": "90 s"}}, {"type": "Feature", "geometry": {"type": "Point", "coordinates": [-121.886208, 37.331775]}, "properties": {"ftype": "station", "name": "San Carlos & 1st St", "tier": 1, "lines": ["San Carlos Line", "1st St Line"], "headway": "90 s"}}, {"type": "Feature", "geometry": {"type": "Point", "coordinates": [-121.948907, 37.323168]}, "properties": {"ftype": "station", "name": "San Carlos & Winchester", "tier": 1, "lines": ["San Carlos Line", "Winchester Line"], "headway": "90 s"}}, {"type": "Feature", "geometry": {"type": "Point", "coordinates": [-121.933626, 37.323224]}, "properties": {"ftype": "station", "name": "San Carlos & Bascom", "tier": 1, "lines": ["San Carlos Line", "Bascom Line"], "headway": "90 s"}}, {"type": "Feature", "geometry": {"type": "Point", "coordinates": [-121.842799, 37.340056]}, "properties": {"ftype": "station", "name": "Story & King", "tier": 1, "lines": ["Story Line", "King Line"], "headway": "90 s"}}, {"type": "Feature", "geometry": {"type": "Point", "coordinates": [-121.860864, 37.303546]}, "properties": {"ftype": "station", "name": "Tully & Monterey", "tier": 1, "lines": ["Tully Line", "Monterey Line"], "headway": "90 s"}}, {"type": "Feature", "geometry": {"type": "Point", "coordinates": [-121.82596, 37.322406]}, "properties": {"ftype": "station", "name": "Tully & King", "tier": 1, "lines": ["Tully Line", "King Line"], "headway": "90 s"}}, {"type": "Feature", "geometry": {"type": "Point", "coordinates": [-121.940654, 37.343181]}, "properties": {"ftype": "station", "name": "Santa Clara 1", "tier": 1, "lines": ["Santa Clara Line"], "headway": "90 s"}}, {"type": "Feature", "geometry": {"type": "Point", "coordinates": [-121.930751, 37.340529]}, "properties": {"ftype": "station", "name": "Santa Clara 2", "tier": 1, "lines": ["Santa Clara Line"], "headway": "90 s"}}, {"type": "Feature", "geometry": {"type": "Point", "coordinates": [-121.921335, 37.336863]}, "properties": {"ftype": "station", "name": "Santa Clara 3", "tier": 1, "lines": ["Santa Clara Line"], "headway": "90 s"}}, {"type": "Feature", "geometry": {"type": "Point", "coordinates": [-121.911837, 37.333347]}, "properties": {"ftype": "station", "name": "Santa Clara 4", "tier": 1, "lines": ["Santa Clara Line"], "headway": "90 s"}}, {"type": "Feature", "geometry": {"type": "Point", "coordinates": [-121.897151, 37.33387]}, "properties": {"ftype": "station", "name": "Santa Clara 5", "tier": 1, "lines": ["Santa Clara Line"], "headway": "90 s"}}, {"type": "Feature", "geometry": {"type": "Point", "coordinates": [-121.8811, 37.341008]}, "properties": {"ftype": "station", "name": "Santa Clara 6", "tier": 1, "lines": ["Santa Clara Line"], "headway": "90 s"}}, {"type": "Feature", "geometry": {"type": "Point", "coordinates": [-121.872547, 37.345108]}, "properties": {"ftype": "station", "name": "Santa Clara 7", "tier": 1, "lines": ["Santa Clara Line"], "headway": "90 s"}}, {"type": "Feature", "geometry": {"type": "Point", "coordinates": [-121.864154, 37.349418]}, "properties": {"ftype": "station", "name": "Santa Clara 8", "tier": 1, "lines": ["Santa Clara Line"], "headway": "90 s"}}, {"type": "Feature", "geometry": {"type": "Point", "coordinates": [-121.847575, 37.358271]}, "properties": {"ftype": "station", "name": "Santa Clara 9", "tier": 1, "lines": ["Santa Clara Line"], "headway": "90 s"}}, {"type": "Feature", "geometry": {"type": "Point", "coordinates": [-121.839804, 37.363276]}, "properties": {"ftype": "station", "name": "Santa Clara 10", "tier": 1, "lines": ["Santa Clara Line"], "headway": "90 s"}}, {"type": "Feature", "geometry": {"type": "Point", "coordinates": [-121.832034, 37.368281]}, "properties": {"ftype": "station", "name": "Santa Clara 11", "tier": 1, "lines": ["Santa Clara Line"], "headway": "90 s"}}, {"type": "Feature", "geometry": {"type": "Point", "coordinates": [-121.825242, 37.374116]}, "properties": {"ftype": "station", "name": "Santa Clara 12", "tier": 1, "lines": ["Santa Clara Line"], "headway": "90 s"}}, {"type": "Feature", "geometry": {"type": "Point", "coordinates": [-121.990141, 37.323049]}, "properties": {"ftype": "station", "name": "San Carlos 1", "tier": 1, "lines": ["San Carlos Line"], "headway": "90 s"}}, {"type": "Feature", "geometry": {"type": "Point", "coordinates": [-121.979832, 37.323077]}, "properties": {"ftype": "station", "name": "San Carlos 2", "tier": 1, "lines": ["San Carlos Line"], "headway": "90 s"}}, {"type": "Feature", "geometry": {"type": "Point", "coordinates": [-121.969524, 37.323106]}, "properties": {"ftype": "station", "name": "San Carlos 3", "tier": 1, "lines": ["San Carlos Line"], "headway": "90 s"}}, {"type": "Feature", "geometry": {"type": "Point", "coordinates": [-121.959216, 37.323135]}, "properties": {"ftype": "station", "name": "San Carlos 4", "tier": 1, "lines": ["San Carlos Line"], "headway": "90 s"}}, {"type": "Feature", "geometry": {"type": "Point", "coordinates": [-121.923711, 37.32337]}, "properties": {"ftype": "station", "name": "San Carlos 5", "tier": 1, "lines": ["San Carlos Line"], "headway": "90 s"}}, {"type": "Feature", "geometry": {"type": "Point", "coordinates": [-121.9138, 37.323658]}, "properties": {"ftype": "station", "name": "San Carlos 6", "tier": 1, "lines": ["San Carlos Line"], "headway": "90 s"}}, {"type": "Feature", "geometry": {"type": "Point", "coordinates": [-121.904066, 37.325022]}, "properties": {"ftype": "station", "name": "San Carlos 7", "tier": 1, "lines": ["San Carlos Line"], "headway": "90 s"}}, {"type": "Feature", "geometry": {"type": "Point", "coordinates": [-121.89487, 37.327908]}, "properties": {"ftype": "station", "name": "San Carlos 8", "tier": 1, "lines": ["San Carlos Line"], "headway": "90 s"}}, {"type": "Feature", "geometry": {"type": "Point", "coordinates": [-121.878554, 37.33546]}, "properties": {"ftype": "station", "name": "San Carlos 9", "tier": 1, "lines": ["San Carlos Line"], "headway": "90 s"}}, {"type": "Feature", "geometry": {"type": "Point", "coordinates": [-121.857819, 37.330324]}, "properties": {"ftype": "station", "name": "Story 1", "tier": 1, "lines": ["Story Line"], "headway": "90 s"}}, {"type": "Feature", "geometry": {"type": "Point", "coordinates": [-121.850238, 37.33512]}, "properties": {"ftype": "station", "name": "Story 2", "tier": 1, "lines": ["Story Line"], "headway": "90 s"}}, {"type": "Feature", "geometry": {"type": "Point", "coordinates": [-121.835222, 37.345159]}, "properties": {"ftype": "station", "name": "Story 3", "tier": 1, "lines": ["Story Line"], "headway": "90 s"}}, {"type": "Feature", "geometry": {"type": "Point", "coordinates": [-121.827696, 37.350309]}, "properties": {"ftype": "station", "name": "Story 4", "tier": 1, "lines": ["Story Line"], "headway": "90 s"}}, {"type": "Feature", "geometry": {"type": "Point", "coordinates": [-121.851253, 37.306878]}, "properties": {"ftype": "station", "name": "Tully 1", "tier": 1, "lines": ["Tully Line"], "headway": "90 s"}}, {"type": "Feature", "geometry": {"type": "Point", "coordinates": [-121.842578, 37.311788]}, "properties": {"ftype": "station", "name": "Tully 2", "tier": 1, "lines": ["Tully Line"], "headway": "90 s"}}, {"type": "Feature", "geometry": {"type": "Point", "coordinates": [-121.834169, 37.316997]}, "properties": {"ftype": "station", "name": "Tully 3", "tier": 1, "lines": ["Tully Line"], "headway": "90 s"}}, {"type": "Feature", "geometry": {"type": "Point", "coordinates": [-121.933199, 37.395126]}, "properties": {"ftype": "station", "name": "1st St 1", "tier": 1, "lines": ["1st St Line"], "headway": "90 s"}}, {"type": "Feature", "geometry": {"type": "Point", "coordinates": [-121.926772, 37.38827]}, "properties": {"ftype": "station", "name": "1st St 2", "tier": 1, "lines": ["1st St Line"], "headway": "90 s"}}, {"type": "Feature", "geometry": {"type": "Point", "coordinates": [-121.920345, 37.381415]}, "properties": {"ftype": "station", "name": "1st St 3", "tier": 1, "lines": ["1st St Line"], "headway": "90 s"}}, {"type": "Feature", "geometry": {"type": "Point", "coordinates": [-121.913842, 37.374606]}, "properties": {"ftype": "station", "name": "1st St 4", "tier": 1, "lines": ["1st St Line"], "headway": "90 s"}}, {"type": "Feature", "geometry": {"type": "Point", "coordinates": [-121.907285, 37.367831]}, "properties": {"ftype": "station", "name": "1st St 5", "tier": 1, "lines": ["1st St Line"], "headway": "90 s"}}, {"type": "Feature", "geometry": {"type": "Point", "coordinates": [-121.901214, 37.360788]}, "properties": {"ftype": "station", "name": "1st St 6", "tier": 1, "lines": ["1st St Line"], "headway": "90 s"}}, {"type": "Feature", "geometry": {"type": "Point", "coordinates": [-121.898226, 37.352685]}, "properties": {"ftype": "station", "name": "1st St 7", "tier": 1, "lines": ["1st St Line"], "headway": "90 s"}}, {"type": "Feature", "geometry": {"type": "Point", "coordinates": [-121.894805, 37.344563]}, "properties": {"ftype": "station", "name": "1st St 8", "tier": 1, "lines": ["1st St Line"], "headway": "90 s"}}, {"type": "Feature", "geometry": {"type": "Point", "coordinates": [-121.882197, 37.326669]}, "properties": {"ftype": "station", "name": "1st St 9", "tier": 1, "lines": ["1st St Line"], "headway": "90 s"}}, {"type": "Feature", "geometry": {"type": "Point", "coordinates": [-121.878117, 37.321595]}, "properties": {"ftype": "station", "name": "1st St 10", "tier": 1, "lines": ["1st St Line"], "headway": "90 s"}}, {"type": "Feature", "geometry": {"type": "Point", "coordinates": [-121.86741, 37.30998]}, "properties": {"ftype": "station", "name": "Monterey 1", "tier": 1, "lines": ["Monterey Line"], "headway": "90 s"}}, {"type": "Feature", "geometry": {"type": "Point", "coordinates": [-121.853997, 37.296795]}, "properties": {"ftype": "station", "name": "Monterey 2", "tier": 1, "lines": ["Monterey Line"], "headway": "90 s"}}, {"type": "Feature", "geometry": {"type": "Point", "coordinates": [-121.846987, 37.29014]}, "properties": {"ftype": "station", "name": "Monterey 3", "tier": 1, "lines": ["Monterey Line"], "headway": "90 s"}}, {"type": "Feature", "geometry": {"type": "Point", "coordinates": [-121.839961, 37.283496]}, "properties": {"ftype": "station", "name": "Monterey 4", "tier": 1, "lines": ["Monterey Line"], "headway": "90 s"}}, {"type": "Feature", "geometry": {"type": "Point", "coordinates": [-121.83273, 37.276997]}, "properties": {"ftype": "station", "name": "Monterey 5", "tier": 1, "lines": ["Monterey Line"], "headway": "90 s"}}, {"type": "Feature", "geometry": {"type": "Point", "coordinates": [-121.825312, 37.270632]}, "properties": {"ftype": "station", "name": "Monterey 6", "tier": 1, "lines": ["Monterey Line"], "headway": "90 s"}}, {"type": "Feature", "geometry": {"type": "Point", "coordinates": [-121.867447, 37.366119]}, "properties": {"ftype": "station", "name": "King 1", "tier": 1, "lines": ["King Line"], "headway": "90 s"}}, {"type": "Feature", "geometry": {"type": "Point", "coordinates": [-121.861604, 37.359923]}, "properties": {"ftype": "station", "name": "King 2", "tier": 1, "lines": ["King Line"], "headway": "90 s"}}, {"type": "Feature", "geometry": {"type": "Point", "coordinates": [-121.849301, 37.346879]}, "properties": {"ftype": "station", "name": "King 3", "tier": 1, "lines": ["King Line"], "headway": "90 s"}}, {"type": "Feature", "geometry": {"type": "Point", "coordinates": [-121.837186, 37.334173]}, "properties": {"ftype": "station", "name": "King 4", "tier": 1, "lines": ["King Line"], "headway": "90 s"}}, {"type": "Feature", "geometry": {"type": "Point", "coordinates": [-121.831573, 37.328289]}, "properties": {"ftype": "station", "name": "King 5", "tier": 1, "lines": ["King Line"], "headway": "90 s"}}, {"type": "Feature", "geometry": {"type": "Point", "coordinates": [-121.959823, 37.267168]}, "properties": {"ftype": "station", "name": "Winchester 1", "tier": 1, "lines": ["Winchester Line"], "headway": "90 s"}}, {"type": "Feature", "geometry": {"type": "Point", "coordinates": [-121.95608, 37.274757]}, "properties": {"ftype": "station", "name": "Winchester 2", "tier": 1, "lines": ["Winchester Line"], "headway": "90 s"}}, {"type": "Feature", "geometry": {"type": "Point", "coordinates": [-121.953643, 37.282681]}, "properties": {"ftype": "station", "name": "Winchester 3", "tier": 1, "lines": ["Winchester Line"], "headway": "90 s"}}, {"type": "Feature", "geometry": {"type": "Point", "coordinates": [-121.951206, 37.290606]}, "properties": {"ftype": "station", "name": "Winchester 4", "tier": 1, "lines": ["Winchester Line"], "headway": "90 s"}}, {"type": "Feature", "geometry": {"type": "Point", "coordinates": [-121.950271, 37.298732]}, "properties": {"ftype": "station", "name": "Winchester 5", "tier": 1, "lines": ["Winchester Line"], "headway": "90 s"}}, {"type": "Feature", "geometry": {"type": "Point", "coordinates": [-121.949357, 37.306861]}, "properties": {"ftype": "station", "name": "Winchester 6", "tier": 1, "lines": ["Winchester Line"], "headway": "90 s"}}, {"type": "Feature", "geometry": {"type": "Point", "coordinates": [-121.948936, 37.315014]}, "properties": {"ftype": "station", "name": "Winchester 7", "tier": 1, "lines": ["Winchester Line"], "headway": "90 s"}}, {"type": "Feature", "geometry": {"type": "Point", "coordinates": [-121.949454, 37.330052]}, "properties": {"ftype": "station", "name": "Winchester 8", "tier": 1, "lines": ["Winchester Line"], "headway": "90 s"}}, {"type": "Feature", "geometry": {"type": "Point", "coordinates": [-121.950339, 37.336913]}, "properties": {"ftype": "station", "name": "Winchester 9", "tier": 1, "lines": ["Winchester Line"], "headway": "90 s"}}, {"type": "Feature", "geometry": {"type": "Point", "coordinates": [-121.941051, 37.266751]}, "properties": {"ftype": "station", "name": "Bascom 1", "tier": 1, "lines": ["Bascom Line"], "headway": "90 s"}}, {"type": "Feature", "geometry": {"type": "Point", "coordinates": [-121.936893, 37.274225]}, "properties": {"ftype": "station", "name": "Bascom 2", "tier": 1, "lines": ["Bascom Line"], "headway": "90 s"}}, {"type": "Feature", "geometry": {"type": "Point", "coordinates": [-121.933958, 37.2821]}, "properties": {"ftype": "station", "name": "Bascom 3", "tier": 1, "lines": ["Bascom Line"], "headway": "90 s"}}, {"type": "Feature", "geometry": {"type": "Point", "coordinates": [-121.932839, 37.290297]}, "properties": {"ftype": "station", "name": "Bascom 4", "tier": 1, "lines": ["Bascom Line"], "headway": "90 s"}}, {"type": "Feature", "geometry": {"type": "Point", "coordinates": [-121.932356, 37.298518]}, "properties": {"ftype": "station", "name": "Bascom 5", "tier": 1, "lines": ["Bascom Line"], "headway": "90 s"}}, {"type": "Feature", "geometry": {"type": "Point", "coordinates": [-121.932506, 37.306763]}, "properties": {"ftype": "station", "name": "Bascom 6", "tier": 1, "lines": ["Bascom Line"], "headway": "90 s"}}, {"type": "Feature", "geometry": {"type": "Point", "coordinates": [-121.932873, 37.315]}, "properties": {"ftype": "station", "name": "Bascom 7", "tier": 1, "lines": ["Bascom Line"], "headway": "90 s"}}, {"type": "Feature", "geometry": {"type": "Point", "coordinates": [-121.935137, 37.331003]}, "properties": {"ftype": "station", "name": "Bascom 8", "tier": 1, "lines": ["Bascom Line"], "headway": "90 s"}}, {"type": "Feature", "geometry": {"type": "Point", "coordinates": [-121.818554, 37.380039]}, "properties": {"ftype": "station", "name": "Santa Clara East Terminal", "tier": 1, "lines": ["Santa Clara Line"], "headway": "90 s"}}, {"type": "Feature", "geometry": {"type": "Point", "coordinates": [-122.000449, 37.323021]}, "properties": {"ftype": "station", "name": "San Carlos West Terminal", "tier": 1, "lines": ["San Carlos Line"], "headway": "90 s"}}, {"type": "Feature", "geometry": {"type": "Point", "coordinates": [-121.8709, 37.339144]}, "properties": {"ftype": "station", "name": "San Carlos East Terminal", "tier": 1, "lines": ["San Carlos Line"], "headway": "90 s"}}, {"type": "Feature", "geometry": {"type": "Point", "coordinates": [-121.865634, 37.325775]}, "properties": {"ftype": "station", "name": "Story West Terminal", "tier": 1, "lines": ["Story Line"], "headway": "90 s"}}, {"type": "Feature", "geometry": {"type": "Point", "coordinates": [-121.82017, 37.35546]}, "properties": {"ftype": "station", "name": "Story East Terminal", "tier": 1, "lines": ["Story Line"], "headway": "90 s"}}, {"type": "Feature", "geometry": {"type": "Point", "coordinates": [-121.819722, 37.326525]}, "properties": {"ftype": "station", "name": "Tully East Terminal", "tier": 1, "lines": ["Tully Line"], "headway": "90 s"}}, {"type": "Feature", "geometry": {"type": "Point", "coordinates": [-121.939626, 37.401981]}, "properties": {"ftype": "station", "name": "1st St North Terminal", "tier": 1, "lines": ["1st St Line"], "headway": "90 s"}}, {"type": "Feature", "geometry": {"type": "Point", "coordinates": [-121.874038, 37.316522]}, "properties": {"ftype": "station", "name": "1st St South Terminal", "tier": 1, "lines": ["1st St Line", "Monterey Line"], "headway": "90 s"}}, {"type": "Feature", "geometry": {"type": "Point", "coordinates": [-121.817338, 37.264713]}, "properties": {"ftype": "station", "name": "Monterey South Terminal", "tier": 1, "lines": ["Monterey Line"], "headway": "90 s"}}, {"type": "Feature", "geometry": {"type": "Point", "coordinates": [-121.87329, 37.372314]}, "properties": {"ftype": "station", "name": "King North Terminal", "tier": 1, "lines": ["King Line"], "headway": "90 s"}}, {"type": "Feature", "geometry": {"type": "Point", "coordinates": [-121.81924, 37.315362]}, "properties": {"ftype": "station", "name": "King South Terminal", "tier": 1, "lines": ["King Line"], "headway": "90 s"}}, {"type": "Feature", "geometry": {"type": "Point", "coordinates": [-121.963614, 37.259592]}, "properties": {"ftype": "station", "name": "Winchester South Terminal", "tier": 1, "lines": ["Winchester Line"], "headway": "90 s"}}, {"type": "Feature", "geometry": {"type": "Point", "coordinates": [-121.951056, 37.346105]}, "properties": {"ftype": "station", "name": "Winchester North Terminal", "tier": 1, "lines": ["Winchester Line"], "headway": "90 s"}}, {"type": "Feature", "geometry": {"type": "Point", "coordinates": [-121.946763, 37.25989]}, "properties": {"ftype": "station", "name": "Bascom South Terminal", "tier": 1, "lines": ["Bascom Line"], "headway": "90 s"}}, {"type": "Feature", "geometry": {"type": "Point", "coordinates": [-121.938201, 37.338441]}, "properties": {"ftype": "station", "name": "Bascom North Terminal", "tier": 1, "lines": ["Bascom Line"], "headway": "90 s"}}, {"type": "Feature", "geometry": {"type": "LineString", "coordinates": [[-121.951027, 37.343782], [-121.94301, 37.343726], [-121.933036, 37.341419], [-121.921878, 37.337069], [-121.912586, 37.33354], [-121.905842, 37.331804], [-121.9026, 37.3297], [-121.902297, 37.331796], [-121.892336, 37.33581], [-121.875368, 37.343659], [-121.850179, 37.356594], [-121.831292, 37.368758], [-121.818554, 37.380039]]}, "properties": {"ftype": "line", "id": "sanjose-Santa Clara", "name": "Santa Clara Line", "tier": 1, "headway": "90 s"}}, {"type": "Feature", "geometry": {"type": "LineString", "coordinates": [[-122.000449, 37.323021], [-121.961678, 37.323127], [-121.934312, 37.323214], [-121.921433, 37.323403], [-121.912671, 37.323695], [-121.906289, 37.324444], [-121.897524, 37.326724], [-121.886297, 37.331732], [-121.8709, 37.339144]]}, "properties": {"ftype": "line", "id": "sanjose-San Carlos", "name": "San Carlos Line", "tier": 1, "headway": "90 s"}}, {"type": "Feature", "geometry": {"type": "LineString", "coordinates": [[-121.865634, 37.325775], [-121.858095, 37.330149], [-121.848613, 37.336148], [-121.835996, 37.344629], [-121.82017, 37.35546]]}, "properties": {"ftype": "line", "id": "sanjose-Story", "name": "Story Line", "tier": 1, "headway": "90 s"}}, {"type": "Feature", "geometry": {"type": "LineString", "coordinates": [[-121.860864, 37.303546], [-121.858775, 37.303695], [-121.85402, 37.305412], [-121.846071, 37.309624], [-121.833884, 37.317173], [-121.819722, 37.326525]]}, "properties": {"ftype": "line", "id": "sanjose-Tully", "name": "Tully Line", "tier": 1, "headway": "90 s"}}, {"type": "Feature", "geometry": {"type": "LineString", "coordinates": [[-121.939626, 37.401981], [-121.917647, 37.378537], [-121.903857, 37.364289], [-121.899635, 37.358696], [-121.898646, 37.353681], [-121.89479, 37.344528], [-121.885721, 37.331052], [-121.874038, 37.316522]]}, "properties": {"ftype": "line", "id": "sanjose-1st St", "name": "1st St Line", "tier": 1, "headway": "90 s"}}, {"type": "Feature", "geometry": {"type": "LineString", "coordinates": [[-121.874038, 37.316522], [-121.853309, 37.296119], [-121.836589, 37.280307], [-121.825191, 37.270529], [-121.817338, 37.264713]]}, "properties": {"ftype": "line", "id": "sanjose-Monterey", "name": "Monterey Line", "tier": 1, "headway": "90 s"}}, {"type": "Feature", "geometry": {"type": "LineString", "coordinates": [[-121.87329, 37.372314], [-121.848755, 37.3463], [-121.81924, 37.315362]]}, "properties": {"ftype": "line", "id": "sanjose-King", "name": "King Line", "tier": 1, "headway": "90 s"}}, {"type": "Feature", "geometry": {"type": "LineString", "coordinates": [[-121.963614, 37.259592], [-121.956168, 37.274469], [-121.951173, 37.290714], [-121.949191, 37.308337], [-121.948716, 37.320762], [-121.94945, 37.33002], [-121.950241, 37.336211], [-121.951001, 37.34168], [-121.951056, 37.346105]]}, "properties": {"ftype": "line", "id": "sanjose-Winchester", "name": "Winchester Line", "tier": 1, "headway": "90 s"}}, {"type": "Feature", "geometry": {"type": "LineString", "coordinates": [[-121.946763, 37.25989], [-121.939043, 37.269163], [-121.934151, 37.280683], [-121.93228, 37.294394], [-121.932602, 37.31204], [-121.933806, 37.325181], [-121.935848, 37.334111], [-121.938201, 37.338441]]}, "properties": {"ftype": "line", "id": "sanjose-Bascom", "name": "Bascom Line", "tier": 1, "headway": "90 s"}}]}
