{"type": "FeatureCollection", "features": [{"type": "Feature", "geometry": {"type": "Point", "coordinates": [-122.2683, 37.8686]}, "properties": {"ftype": "station", "name": "Berkeley", "tier": 1, "lines": ["Shattuck Line"], "headway": "90 s"}}, {"type": "Feature", "geometry": {"type": "Point", "coordinates": [-122.2712, 37.8027]}, "properties": {"ftype": "station", "name": "Oakland Center", "tier": 1, "lines": ["Telegraph Line", "Broadway Line"], "headway": "90 s"}}, {"type": "Feature", "geometry": {"type": "Point", "coordinates": [-122.268522, 37.87207]}, "properties": {"ftype": "station", "name": "University & Shattuck", "tier": 1, "lines": ["University Line", "Shattuck Line"], "headway": "90 s"}}, {"type": "Feature", "geometry": {"type": "Point", "coordinates": [-122.292471, 37.868228]}, "properties": {"ftype": "station", "name": "University & San Pablo", "tier": 1, "lines": ["University Line", "San Pablo Line"], "headway": "90 s"}}, {"type": "Feature", "geometry": {"type": "Point", "coordinates": [-122.273123, 37.871353]}, "properties": {"ftype": "station", "name": "University & MLK", "tier": 1, "lines": ["University Line", "MLK Line"], "headway": "90 s"}}, {"type": "Feature", "geometry": {"type": "Point", "coordinates": [-122.266029, 37.855238]}, "properties": {"ftype": "station", "name": "Ashby & Shattuck", "tier": 1, "lines": ["Ashby Line", "Shattuck Line"], "headway": "90 s"}}, {"type": "Feature", "geometry": {"type": "Point", "coordinates": [-122.260722, 37.856006]}, "properties": {"ftype": "station", "name": "Ashby & Telegraph", "tier": 1, "lines": ["Ashby Line", "Telegraph Line"], "headway": "90 s"}}, {"type": "Feature", "geometry": {"type": "Point", "coordinates": [-122.253066, 37.857055]}, "properties": {"ftype": "station", "name": "Ashby & College", "tier": 1, "lines": ["Ashby Line", "College Line"], "headway": "90 s"}}, {"type": "Feature", "geometry": {"type": "Point", "coordinates": [-122.286923, 37.851576]}, "properties": {"ftype": "station", "name": "Ashby & San Pablo", "tier": 1, "lines": ["Ashby Line", "San Pablo Line"], "headway": "90 s"}}, {"type": "Feature", "geometry": {"type": "Point", "coordinates": [-122.271283, 37.854431]}, "properties": {"ftype": "station", "name": "Ashby & MLK", "tier": 1, "lines": ["Ashby Line", "MLK Line"], "headway": "90 s"}}, {"type": "Feature", "geometry": {"type": "Point", "coordinates": [-122.247328, 37.814028]}, "properties": {"ftype": "station", "name": "Grand & College", "tier": 1, "lines": ["Grand Line", "College Line", "MacArthur Line"], "headway": "90 s"}}, {"type": "Feature", "geometry": {"type": "Point", "coordinates": [-122.266038, 37.811356]}, "properties": {"ftype": "station", "name": "Grand & Broadway", "tier": 1, "lines": ["Grand Line", "Broadway Line"], "headway": "90 s"}}, {"type": "Feature", "geometry": {"type": "Point", "coordinates": [-122.244053, 37.789677]}, "properties": {"ftype": "station", "name": "International & College", "tier": 1, "lines": ["International Line", "College Line"], "headway": "90 s"}}, {"type": "Feature", "geometry": {"type": "Point", "coordinates": [-122.269672, 37.885434]}, "properties": {"ftype": "station", "name": "Shattuck & Eunice Street", "tier": 1, "lines": ["Shattuck Line"], "headway": "90 s"}}, {"type": "Feature", "geometry": {"type": "Point", "coordinates": [-122.268951, 37.878764]}, "properties": {"ftype": "station", "name": "Shattuck & Cedar Street", "tier": 1, "lines": ["Shattuck Line"], "headway": "90 s"}}, {"type": "Feature", "geometry": {"type": "Point", "coordinates": [-122.266776, 37.861967]}, "properties": {"ftype": "station", "name": "Shattuck & Parker Street", "tier": 1, "lines": ["Shattuck Line"], "headway": "90 s"}}, {"type": "Feature", "geometry": {"type": "Point", "coordinates": [-122.26521, 37.847864]}, "properties": {"ftype": "station", "name": "Shattuck & 62nd Street", "tier": 1, "lines": ["Shattuck Line"], "headway": "90 s"}}, {"type": "Feature", "geometry": {"type": "Point", "coordinates": [-122.26439, 37.84049]}, "properties": {"ftype": "station", "name": "Shattuck & 55th Street", "tier": 1, "lines": ["Shattuck Line"], "headway": "90 s"}}, {"type": "Feature", "geometry": {"type": "Point", "coordinates": [-122.269282, 37.811563]}, "properties": {"ftype": "station", "name": "Telegraph & 22nd Street", "tier": 1, "lines": ["Telegraph Line"], "headway": "90 s"}}, {"type": "Feature", "geometry": {"type": "Point", "coordinates": [-122.2674, 37.820431]}, "properties": {"ftype": "station", "name": "Telegraph & 31st Street", "tier": 1, "lines": ["Telegraph Line"], "headway": "90 s"}}, {"type": "Feature", "geometry": {"type": "Point", "coordinates": [-122.265517, 37.829299]}, "properties": {"ftype": "station", "name": "Telegraph & 40th Street", "tier": 1, "lines": ["Telegraph Line"], "headway": "90 s"}}, {"type": "Feature", "geometry": {"type": "Point", "coordinates": [-122.263807, 37.838189]}, "properties": {"ftype": "station", "name": "Telegraph & 52nd Street", "tier": 1, "lines": ["Telegraph Line"], "headway": "90 s"}}, {"type": "Feature", "geometry": {"type": "Point", "coordinates": [-122.262199, 37.847091]}, "properties": {"ftype": "station", "name": "Telegraph & Racine Street", "tier": 1, "lines": ["Telegraph Line"], "headway": "90 s"}}, {"type": "Feature", "geometry": {"type": "Point", "coordinates": [-122.259944, 37.862335]}, "properties": {"ftype": "station", "name": "Telegraph & Carleton Street", "tier": 1, "lines": ["Telegraph Line"], "headway": "90 s"}}, {"type": "Feature", "geometry": {"type": "Point", "coordinates": [-122.251961, 37.848446]}, "properties": {"ftype": "station", "name": "College & Harwood Avenue", "tier": 1, "lines": ["College Line"], "headway": "90 s"}}, {"type": "Feature", "geometry": {"type": "Point", "coordinates": [-122.250822, 37.83984]}, "properties": {"ftype": "station", "name": "College & Manila Avenue", "tier": 1, "lines": ["College Line"], "headway": "90 s"}}, {"type": "Feature", "geometry": {"type": "Point", "coordinates": [-122.249682, 37.831234]}, "properties": {"ftype": "station", "name": "College & Mather Street", "tier": 1, "lines": ["College Line"], "headway": "90 s"}}, {"type": "Feature", "geometry": {"type": "Point", "coordinates": [-122.248517, 37.82263]}, "properties": {"ftype": "station", "name": "College & Lake Avenue", "tier": 1, "lines": ["College Line"], "headway": "90 s"}}, {"type": "Feature", "geometry": {"type": "Point", "coordinates": [-122.246206, 37.805913]}, "properties": {"ftype": "station", "name": "College & Radnor Road", "tier": 1, "lines": ["College Line"], "headway": "90 s"}}, {"type": "Feature", "geometry": {"type": "Point", "coordinates": [-122.245085, 37.797799]}, "properties": {"ftype": "station", "name": "College & 8th Avenue", "tier": 1, "lines": ["College Line"], "headway": "90 s"}}, {"type": "Feature", "geometry": {"type": "Point", "coordinates": [-122.242962, 37.781072]}, "properties": {"ftype": "station", "name": "College & Embarcadero", "tier": 1, "lines": ["College Line"], "headway": "90 s"}}, {"type": "Feature", "geometry": {"type": "Point", "coordinates": [-122.241941, 37.772463]}, "properties": {"ftype": "station", "name": "College 8", "tier": 1, "lines": ["College Line"], "headway": "90 s"}}, {"type": "Feature", "geometry": {"type": "Point", "coordinates": [-122.24114, 37.763838]}, "properties": {"ftype": "station", "name": "College & Central Avenue", "tier": 1, "lines": ["College Line"], "headway": "90 s"}}, {"type": "Feature", "geometry": {"type": "Point", "coordinates": [-122.302584, 37.898354]}, "properties": {"ftype": "station", "name": "San Pablo & Adams Street", "tier": 1, "lines": ["San Pablo Line"], "headway": "90 s"}}, {"type": "Feature", "geometry": {"type": "Point", "coordinates": [-122.300056, 37.890822]}, "properties": {"ftype": "station", "name": "San Pablo 2", "tier": 1, "lines": ["San Pablo Line"], "headway": "90 s"}}, {"type": "Feature", "geometry": {"type": "Point", "coordinates": [-122.297528, 37.883291]}, "properties": {"ftype": "station", "name": "San Pablo & Tenth Street", "tier": 1, "lines": ["San Pablo Line"], "headway": "90 s"}}, {"type": "Feature", "geometry": {"type": "Point", "coordinates": [-122.294999, 37.875759]}, "properties": {"ftype": "station", "name": "San Pablo & Jones Street", "tier": 1, "lines": ["San Pablo Line"], "headway": "90 s"}}, {"type": "Feature", "geometry": {"type": "Point", "coordinates": [-122.289681, 37.859906]}, "properties": {"ftype": "station", "name": "San Pablo & Blake Street", "tier": 1, "lines": ["San Pablo Line"], "headway": "90 s"}}, {"type": "Feature", "geometry": {"type": "Point", "coordinates": [-122.284405, 37.843968]}, "properties": {"ftype": "station", "name": "San Pablo & 61st Street", "tier": 1, "lines": ["San Pablo Line"], "headway": "90 s"}}, {"type": "Feature", "geometry": {"type": "Point", "coordinates": [-122.281887, 37.83636]}, "properties": {"ftype": "station", "name": "San Pablo & 48th Street", "tier": 1, "lines": ["San Pablo Line"], "headway": "90 s"}}, {"type": "Feature", "geometry": {"type": "Point", "coordinates": [-122.279368, 37.828752]}, "properties": {"ftype": "station", "name": "San Pablo & MacArthur Boulevard", "tier": 1, "lines": ["San Pablo Line"], "headway": "90 s"}}, {"type": "Feature", "geometry": {"type": "Point", "coordinates": [-122.27685, 37.821144]}, "properties": {"ftype": "station", "name": "San Pablo & Market Street", "tier": 1, "lines": ["San Pablo Line"], "headway": "90 s"}}, {"type": "Feature", "geometry": {"type": "Point", "coordinates": [-122.274332, 37.813536]}, "properties": {"ftype": "station", "name": "San Pablo & Brush Street", "tier": 1, "lines": ["San Pablo Line", "MLK Line"], "headway": "90 s"}}, {"type": "Feature", "geometry": {"type": "Point", "coordinates": [-122.278657, 37.804419]}, "properties": {"ftype": "station", "name": "MLK & Castro Street", "tier": 1, "lines": ["MLK Line"], "headway": "90 s"}}, {"type": "Feature", "geometry": {"type": "Point", "coordinates": [-122.272305, 37.820702]}, "properties": {"ftype": "station", "name": "MLK & 31st Street", "tier": 1, "lines": ["MLK Line"], "headway": "90 s"}}, {"type": "Feature", "geometry": {"type": "Point", "coordinates": [-122.269949, 37.829005]}, "properties": {"ftype": "station", "name": "MLK & 39th Street", "tier": 1, "lines": ["MLK Line"], "headway": "90 s"}}, {"type": "Feature", "geometry": {"type": "Point", "coordinates": [-122.269107, 37.837471]}, "properties": {"ftype": "station", "name": "MLK & Street", "tier": 1, "lines": ["MLK Line"], "headway": "90 s"}}, {"type": "Feature", "geometry": {"type": "Point", "coordinates": [-122.270147, 37.845952]}, "properties": {"ftype": "station", "name": "MLK & 61st Street", "tier": 1, "lines": ["MLK Line"], "headway": "90 s"}}, {"type": "Feature", "geometry": {"type": "Point", "coordinates": [-122.27226, 37.862888]}, "properties": {"ftype": "station", "name": "MLK & Blake Street", "tier": 1, "lines": ["MLK Line"], "headway": "90 s"}}, {"type": "Feature", "geometry": {"type": "Point", "coordinates": [-122.273771, 37.877804]}, "properties": {"ftype": "station", "name": "MLK & Cedar Street", "tier": 1, "lines": ["MLK Line"], "headway": "90 s"}}, {"type": "Feature", "geometry": {"type": "Point", "coordinates": [-122.261167, 37.819525]}, "properties": {"ftype": "station", "name": "Broadway & Brook Street", "tier": 1, "lines": ["Broadway Line"], "headway": "90 s"}}, {"type": "Feature", "geometry": {"type": "Point", "coordinates": [-122.256066, 37.8276]}, "properties": {"ftype": "station", "name": "Broadway & 40th Street Way", "tier": 1, "lines": ["Broadway Line"], "headway": "90 s"}}, {"type": "Feature", "geometry": {"type": "Point", "coordinates": [-122.250645, 37.835545]}, "properties": {"ftype": "station", "name": "Broadway & Coronado Street", "tier": 1, "lines": ["Broadway Line"], "headway": "90 s"}}, {"type": "Feature", "geometry": {"type": "Point", "coordinates": [-122.244998, 37.843375]}, "properties": {"ftype": "station", "name": "Broadway & Taft Avenue", "tier": 1, "lines": ["Broadway Line"], "headway": "90 s"}}, {"type": "Feature", "geometry": {"type": "Point", "coordinates": [-122.309052, 37.865032]}, "properties": {"ftype": "station", "name": "University 1", "tier": 1, "lines": ["University Line"], "headway": "90 s"}}, {"type": "Feature", "geometry": {"type": "Point", "coordinates": [-122.300803, 37.866764]}, "properties": {"ftype": "station", "name": "University & Addison Street", "tier": 1, "lines": ["University Line"], "headway": "90 s"}}, {"type": "Feature", "geometry": {"type": "Point", "coordinates": [-122.282811, 37.869844]}, "properties": {"ftype": "station", "name": "University 3", "tier": 1, "lines": ["University Line"], "headway": "90 s"}}, {"type": "Feature", "geometry": {"type": "Point", "coordinates": [-122.279148, 37.853153]}, "properties": {"ftype": "station", "name": "Ashby & Sacramento Street", "tier": 1, "lines": ["Ashby Line"], "headway": "90 s"}}, {"type": "Feature", "geometry": {"type": "Point", "coordinates": [-122.255278, 37.809398]}, "properties": {"ftype": "station", "name": "Grand & Belmont Street", "tier": 1, "lines": ["Grand Line"], "headway": "90 s"}}, {"type": "Feature", "geometry": {"type": "Point", "coordinates": [-122.240836, 37.807388]}, "properties": {"ftype": "station", "name": "MacArthur & Barbara Road", "tier": 1, "lines": ["MacArthur Line"], "headway": "90 s"}}, {"type": "Feature", "geometry": {"type": "Point", "coordinates": [-122.23167, 37.803003]}, "properties": {"ftype": "station", "name": "MacArthur & Chatham Road", "tier": 1, "lines": ["MacArthur Line"], "headway": "90 s"}}, {"type": "Feature", "geometry": {"type": "Point", "coordinates": [-122.22147, 37.800472]}, "properties": {"ftype": "station", "name": "MacArthur & Miami Court", "tier": 1, "lines": ["MacArthur Line"], "headway": "90 s"}}, {"type": "Feature", "geometry": {"type": "Point", "coordinates": [-122.250521, 37.7941]}, "properties": {"ftype": "station", "name": "International & 15th Street", "tier": 1, "lines": ["International Line"], "headway": "90 s"}}, {"type": "Feature", "geometry": {"type": "Point", "coordinates": [-122.235556, 37.784456]}, "properties": {"ftype": "station", "name": "International 2", "tier": 1, "lines": ["International Line"], "headway": "90 s"}}, {"type": "Feature", "geometry": {"type": "Point", "coordinates": [-122.227005, 37.779289]}, "properties": {"ftype": "station", "name": "International 3", "tier": 1, "lines": ["International Line"], "headway": "90 s"}}, {"type": "Feature", "geometry": {"type": "Point", "coordinates": [-122.218141, 37.774467]}, "properties": {"ftype": "station", "name": "International & 40th Avenue", "tier": 1, "lines": ["International Line"], "headway": "90 s"}}, {"type": "Feature", "geometry": {"type": "Point", "coordinates": [-122.271715, 37.891826]}, "properties": {"ftype": "station", "name": "Shattuck & Indian Rock Avenue", "tier": 1, "lines": ["Shattuck Line"], "headway": "90 s"}}, {"type": "Feature", "geometry": {"type": "Point", "coordinates": [-122.263571, 37.833116]}, "properties": {"ftype": "station", "name": "Shattuck & Telegraph Avenue", "tier": 1, "lines": ["Shattuck Line"], "headway": "90 s"}}, {"type": "Feature", "geometry": {"type": "Point", "coordinates": [-122.259166, 37.868665]}, "properties": {"ftype": "station", "name": "Telegraph & Bancroft Way", "tier": 1, "lines": ["Telegraph Line"], "headway": "90 s"}}, {"type": "Feature", "geometry": {"type": "Point", "coordinates": [-122.254608, 37.869298]}, "properties": {"ftype": "station", "name": "College & Bancroft Way", "tier": 1, "lines": ["College Line"], "headway": "90 s"}}, {"type": "Feature", "geometry": {"type": "Point", "coordinates": [-122.241096, 37.7552]}, "properties": {"ftype": "station", "name": "College & Calhoun Street", "tier": 1, "lines": ["College Line"], "headway": "90 s"}}, {"type": "Feature", "geometry": {"type": "Point", "coordinates": [-122.305112, 37.905885]}, "properties": {"ftype": "station", "name": "San Pablo & Eureka Avenue", "tier": 1, "lines": ["San Pablo Line"], "headway": "90 s"}}, {"type": "Feature", "geometry": {"type": "Point", "coordinates": [-122.271813, 37.805928]}, "properties": {"ftype": "station", "name": "San Pablo & 16th Street", "tier": 1, "lines": ["San Pablo Line"], "headway": "90 s"}}, {"type": "Feature", "geometry": {"type": "Point", "coordinates": [-122.282141, 37.796354]}, "properties": {"ftype": "station", "name": "MLK South Terminal", "tier": 1, "lines": ["MLK Line"], "headway": "90 s"}}, {"type": "Feature", "geometry": {"type": "Point", "coordinates": [-122.274419, 37.884254]}, "properties": {"ftype": "station", "name": "MLK & The Alameda", "tier": 1, "lines": ["MLK Line"], "headway": "90 s"}}, {"type": "Feature", "geometry": {"type": "Point", "coordinates": [-122.277102, 37.794875]}, "properties": {"ftype": "station", "name": "Broadway & Embarcadero West", "tier": 1, "lines": ["Broadway Line"], "headway": "90 s"}}, {"type": "Feature", "geometry": {"type": "Point", "coordinates": [-122.236922, 37.84896]}, "properties": {"ftype": "station", "name": "Broadway & Grove Shafter Freeway", "tier": 1, "lines": ["Broadway Line"], "headway": "90 s"}}, {"type": "Feature", "geometry": {"type": "Point", "coordinates": [-122.317155, 37.862917]}, "properties": {"ftype": "station", "name": "University & Seawall Drive", "tier": 1, "lines": ["University Line"], "headway": "90 s"}}, {"type": "Feature", "geometry": {"type": "Point", "coordinates": [-122.294378, 37.849659]}, "properties": {"ftype": "station", "name": "Ashby & Folger Avenue", "tier": 1, "lines": ["Ashby Line"], "headway": "90 s"}}, {"type": "Feature", "geometry": {"type": "Point", "coordinates": [-122.244075, 37.858099]}, "properties": {"ftype": "station", "name": "Ashby & Domingo Avenue", "tier": 1, "lines": ["Ashby Line"], "headway": "90 s"}}, {"type": "Feature", "geometry": {"type": "Point", "coordinates": [-122.243851, 37.821604]}, "properties": {"ftype": "station", "name": "Grand & Linda Avenue", "tier": 1, "lines": ["Grand Line"], "headway": "90 s"}}, {"type": "Feature", "geometry": {"type": "Point", "coordinates": [-122.254663, 37.821358]}, "properties": {"ftype": "station", "name": "MacArthur & Fairmount Avenue", "tier": 1, "lines": ["MacArthur Line"], "headway": "90 s"}}, {"type": "Feature", "geometry": {"type": "Point", "coordinates": [-122.210909, 37.799037]}, "properties": {"ftype": "station", "name": "MacArthur & Laguna Avenue", "tier": 1, "lines": ["MacArthur Line"], "headway": "90 s"}}, {"type": "Feature", "geometry": {"type": "Point", "coordinates": [-122.256988, 37.798524]}, "properties": {"ftype": "station", "name": "International & 1st Avenue", "tier": 1, "lines": ["International Line"], "headway": "90 s"}}, {"type": "Feature", "geometry": {"type": "Point", "coordinates": [-122.209277, 37.769645]}, "properties": {"ftype": "station", "name": "International & 49th Avenue", "tier": 1, "lines": ["International Line"], "headway": "90 s"}}, {"type": "Feature", "geometry": {"type": "LineString", "coordinates": [[-122.271715, 37.891826], [-122.270582, 37.890382], [-122.269221, 37.882986], [-122.2683, 37.8686], [-122.266984, 37.863837], [-122.263571, 37.833116]]}, "properties": {"ftype": "line", "id": "eastbay-Shattuck", "name": "Shattuck Line", "tier": 1, "headway": "90 s"}}, {"type": "Feature", "geometry": {"type": "LineString", "coordinates": [[-122.2712, 37.8027], [-122.270605, 37.805336], [-122.264819, 37.832585], [-122.261006, 37.853695], [-122.259166, 37.868665]]}, "properties": {"ftype": "line", "id": "eastbay-Telegraph", "name": "Telegraph Line", "tier": 1, "headway": "90 s"}}, {"type": "Feature", "geometry": {"type": "LineString", "coordinates": [[-122.254608, 37.869298], [-122.252368, 37.851512], [-122.249117, 37.826973], [-122.245062, 37.797634], [-122.242137, 37.774569], [-122.240884, 37.761075], [-122.241096, 37.7552]]}, "properties": {"ftype": "line", "id": "eastbay-College", "name": "College Line", "tier": 1, "headway": "90 s"}}, {"type": "Feature", "geometry": {"type": "LineString", "coordinates": [[-122.305112, 37.905885], [-122.289895, 37.860554], [-122.271813, 37.805928]]}, "properties": {"ftype": "line", "id": "eastbay-San Pablo", "name": "San Pablo Line", "tier": 1, "headway": "90 s"}}, {"type": "Feature", "geometry": {"type": "LineString", "coordinates": [[-122.282141, 37.796354], [-122.275232, 37.812345], [-122.27055, 37.82571], [-122.268927, 37.834612], [-122.269329, 37.84098], [-122.270673, 37.849142], [-122.272356, 37.863724], [-122.274419, 37.884254]]}, "properties": {"ftype": "line", "id": "eastbay-MLK", "name": "MLK Line", "tier": 1, "headway": "90 s"}}, {"type": "Feature", "geometry": {"type": "LineString", "coordinates": [[-122.277102, 37.794875], [-122.2712, 37.8027], [-122.258326, 37.824287], [-122.246081, 37.842234], [-122.240069, 37.848567], [-122.236922, 37.84896]]}, "properties": {"ftype": "line", "id": "eastbay-Broadway", "name": "Broadway Line", "tier": 1, "headway": "90 s"}}, {"type": "Feature", "geometry": {"type": "LineString", "coordinates": [[-122.317155, 37.862917], [-122.311799, 37.86443], [-122.302585, 37.866451], [-122.286875, 37.869211], [-122.268522, 37.87207]]}, "properties": {"ftype": "line", "id": "eastbay-University", "name": "University Line", "tier": 1, "headway": "90 s"}}, {"type": "Feature", "geometry": {"type": "LineString", "coordinates": [[-122.294378, 37.849659], [-122.288077, 37.851327], [-122.281165, 37.852822], [-122.272838, 37.854192], [-122.264809, 37.855426], [-122.256627, 37.856586], [-122.250026, 37.857455], [-122.244075, 37.858099]]}, "properties": {"ftype": "line", "id": "eastbay-Ashby", "name": "Ashby Line", "tier": 1, "headway": "90 s"}}, {"type": "Feature", "geometry": {"type": "LineString", "coordinates": [[-122.266038, 37.811356], [-122.261719, 37.81045], [-122.257286, 37.809596], [-122.253591, 37.809232], [-122.250824, 37.809725], [-122.248539, 37.811807], [-122.246304, 37.815905], [-122.243851, 37.821604]]}, "properties": {"ftype": "line", "id": "eastbay-Grand", "name": "Grand Line", "tier": 1, "headway": "90 s"}}, {"type": "Feature", "geometry": {"type": "LineString", "coordinates": [[-122.254663, 37.821358], [-122.250347, 37.814969], [-122.2448, 37.809676], [-122.237796, 37.805634], [-122.231384, 37.802881], [-122.225957, 37.801263], [-122.221404, 37.800461], [-122.216453, 37.799878], [-122.210909, 37.799037]]}, "properties": {"ftype": "line", "id": "eastbay-MacArthur", "name": "MacArthur Line", "tier": 1, "headway": "90 s"}}, {"type": "Feature", "geometry": {"type": "LineString", "coordinates": [[-122.256988, 37.798524], [-122.243063, 37.789], [-122.22716, 37.779374], [-122.209277, 37.769645]]}, "properties": {"ftype": "line", "id": "eastbay-International", "name": "International Line", "tier": 1, "headway": "90 s"}}]}
