{"type": "FeatureCollection", "features": [{"type": "Feature", "geometry": {"type": "LineString", "coordinates": [[-122.3927, 37.7897], [-122.386, 37.6], [-122.23, 37.48], [-122.08, 37.39], [-121.9026, 37.3297], [-121.568, 37.006], [-121.184, 37.063], [-120.85, 37.06], [-120.4, 37.0], [-120.06, 36.96], [-119.7871, 36.7378], [-119.72, 36.55], [-119.6457, 36.3275], [-119.24, 35.77], [-119.0187, 35.3733], [-118.92, 34.93], [-118.62, 34.49], [-118.45, 34.31], [-118.31, 34.18], [-118.2365, 34.0556]]}, "properties": {"ftype": "line", "id": "hsr-spine", "name": "HSR Spine (SF\u2013LA)", "tier": 3, "headway": "15 min"}}, {"type": "Feature", "geometry": {"type": "LineString", "coordinates": [[-122.3927, 37.7897], [-122.2712, 37.8027], [-122.3, 37.92], [-122.25, 38.05], [-122.04, 38.25], [-121.74, 38.55], [-121.5006, 38.5847]]}, "properties": {"ftype": "line", "id": "hsr-north", "name": "HSR North (SF\u2013Sacramento)", "tier": 3, "headway": "20 min"}}, {"type": "Feature", "geometry": {"type": "LineString", "coordinates": [[-121.5006, 38.5847], [-121.42, 38.25], [-121.286, 37.953], [-120.997, 37.642], [-120.85, 37.5], [-120.483, 37.305], [-120.4, 37.0]]}, "properties": {"ftype": "line", "id": "hsr-valley-link", "name": "HSR Valley Link (Sacramento\u2013Merced)", "tier": 3, "headway": "20 min"}}, {"type": "Feature", "geometry": {"type": "LineString", "coordinates": [[-118.2365, 34.0556], [-118.03, 34.07], [-117.75, 34.06], [-117.6509, 34.0633], [-117.3712, 33.9836], [-117.23, 33.78], [-117.15, 33.49], [-117.0864, 33.1192], [-117.11, 32.92], [-117.1696, 32.7157]]}, "properties": {"ftype": "line", "id": "hsr-south", "name": "HSR South (LA\u2013San Diego)", "tier": 3, "headway": "20 min"}}, {"type": "Feature", "geometry": {"type": "LineString", "coordinates": [[-118.2365, 34.0556], [-118.08, 33.91], [-117.92, 33.87], [-117.8843, 33.8039]]}, "properties": {"ftype": "line", "id": "hsr-anaheim", "name": "HSR Anaheim Stub (LA\u2013Anaheim)", "tier": 3, "headway": "20 min"}}, {"type": "Feature", "geometry": {"type": "Point", "coordinates": [-122.3927, 37.7897]}, "properties": {"ftype": "station", "id": "sf-transbay", "name": "San Francisco Transbay", "tier": 3, "lines": ["HSR Spine (SF\u2013LA)", "HSR North (SF\u2013Sacramento)"]}}, {"type": "Feature", "geometry": {"type": "Point", "coordinates": [-122.2712, 37.8027]}, "properties": {"ftype": "station", "id": "oakland", "name": "Oakland Center", "tier": 3, "lines": ["HSR North (SF\u2013Sacramento)"]}}, {"type": "Feature", "geometry": {"type": "Point", "coordinates": [-121.5006, 38.5847]}, "properties": {"ftype": "station", "id": "sacramento", "name": "Sacramento Valley", "tier": 3, "lines": ["HSR North (SF\u2013Sacramento)", "HSR Valley Link (Sacramento\u2013Merced)"]}}, {"type": "Feature", "geometry": {"type": "Point", "coordinates": [-121.286, 37.953]}, "properties": {"ftype": "station", "id": "stockton", "name": "Stockton", "tier": 3, "lines": ["HSR Valley Link (Sacramento\u2013Merced)"]}}, {"type": "Feature", "geometry": {"type": "Point", "coordinates": [-120.997, 37.642]}, "properties": {"ftype": "station", "id": "modesto", "name": "Modesto", "tier": 3, "lines": ["HSR Valley Link (Sacramento\u2013Merced)"]}}, {"type": "Feature", "geometry": {"type": "Point", "coordinates": [-120.483, 37.305]}, "properties": {"ftype": "station", "id": "merced", "name": "Merced", "tier": 3, "lines": ["HSR Valley Link (Sacramento\u2013Merced)"]}}, {"type": "Feature", "geometry": {"type": "Point", "coordinates": [-121.9026, 37.3297]}, "properties": {"ftype": "station", "id": "san-jose", "name": "San Jose Diridon", "tier": 3, "lines": ["HSR Spine (SF\u2013LA)"]}}, {"type": "Feature", "geometry": {"type": "Point", "coordinates": [-119.7871, 36.7378]}, "properties": {"ftype": "station", "id": "fresno", "name": "Fresno", "tier": 3, "lines": ["HSR Spine (SF\u2013LA)"]}}, {"type": "Feature", "geometry": {"type": "Point", "coordinates": [-119.6457, 36.3275]}, "properties": {"ftype": "station", "id": "kings-tulare", "name": "Kings\u2013Tulare (Hanford)", "tier": 3, "lines": ["HSR Spine (SF\u2013LA)"]}}, {"type": "Feature", "geometry": {"type": "Point", "coordinates": [-119.0187, 35.3733]}, "properties": {"ftype": "station", "id": "bakersfield", "name": "Bakersfield", "tier": 3, "lines": ["HSR Spine (SF\u2013LA)"]}}, {"type": "Feature", "geometry": {"type": "Point", "coordinates": [-118.2365, 34.0556]}, "properties": {"ftype": "station", "id": "la-union", "name": "Los Angeles Union", "tier": 3, "lines": ["HSR Spine (SF\u2013LA)", "HSR South (LA\u2013San Diego)", "HSR Anaheim Stub (LA\u2013Anaheim)"]}}, {"type": "Feature", "geometry": {"type": "Point", "coordinates": [-117.8843, 33.8039]}, "properties": {"ftype": "station", "id": "anaheim", "name": "Anaheim", "tier": 3, "lines": ["HSR Anaheim Stub (LA\u2013Anaheim)"]}}, {"type": "Feature", "geometry": {"type": "Point", "coordinates": [-117.6509, 34.0633]}, "properties": {"ftype": "station", "id": "ontario", "name": "Ontario", "tier": 3, "lines": ["HSR South (LA\u2013San Diego)"]}}, {"type": "Feature", "geometry": {"type": "Point", "coordinates": [-117.3712, 33.9836]}, "properties": {"ftype": "station", "id": "riverside", "name": "Riverside", "tier": 3, "lines": ["HSR South (LA\u2013San Diego)"]}}, {"type": "Feature", "geometry": {"type": "Point", "coordinates": [-117.0864, 33.1192]}, "properties": {"ftype": "station", "id": "escondido", "name": "Escondido", "tier": 3, "lines": ["HSR South (LA\u2013San Diego)"]}}, {"type": "Feature", "geometry": {"type": "Point", "coordinates": [-117.1696, 32.7157]}, "properties": {"ftype": "station", "id": "san-diego", "name": "San Diego Santa Fe", "tier": 3, "lines": ["HSR South (LA\u2013San Diego)"]}}]}
